{
"type": "FeatureCollection",
"features": [
{
  "type": "Feature",
  "id": "node/697250228",
  "properties": {
    "access": "yes",
    "defibrillator:location": "An Wand seitlich vom Eingang",
    "emergency": "defibrillator",
    "emergency:phone": "144",
    "opening_hours": "24/7",
    "source": "survey",
    "wheelchair": "yes",
    "id": "node/697250228"
  },
  "geometry": {
    "type": "Point",
    "coordinates": [
      7.5081201,
      47.161212
    ]
  }
},
{
  "type": "Feature",
  "id": "node/4171975608",
  "properties": {
    "access": "yes",
    "emergency": "defibrillator",
    "emergency:phone": "144",
    "level": "0",
    "opening_hours": "24/7",
    "operator": "Seilpark Balmberg",
    "phone": "+41 32 637 14 14",
    "website": "https://seilpark-balmberg.ch",
    "id": "node/4171975608"
  },
  "geometry": {
    "type": "Point",
    "coordinates": [
      7.541752,
      47.266444
    ]
  }
},
{
  "type": "Feature",
  "id": "node/4745081017",
  "properties": {
    "emergency": "defibrillator",
    "emergency:phone": "144",
    "id": "node/4745081017"
  },
  "geometry": {
    "type": "Point",
    "coordinates": [
      7.543505,
      47.2043418
    ]
  }
},
{
  "type": "Feature",
  "id": "node/4745088306",
  "properties": {
    "emergency": "defibrillator",
    "emergency:phone": "144",
    "phone": "+41 32 671 12 12",
    "id": "node/4745088306"
  },
  "geometry": {
    "type": "Point",
    "coordinates": [
      7.5565722,
      47.1814942
    ]
  }
},
{
  "type": "Feature",
  "id": "node/5522790039",
  "properties": {
    "emergency": "defibrillator",
    "emergency:phone": "144",
    "id": "node/5522790039"
  },
  "geometry": {
    "type": "Point",
    "coordinates": [
      7.523567,
      47.1981005
    ]
  }
},
{
  "type": "Feature",
  "id": "node/6020113648",
  "properties": {
    "emergency": "defibrillator",
    "emergency:phone": "144",
    "id": "node/6020113648"
  },
  "geometry": {
    "type": "Point",
    "coordinates": [
      7.4902585,
      47.4764153
    ]
  }
},
{
  "type": "Feature",
  "id": "node/6532311690",
  "properties": {
    "access": "permissive",
    "addr:city": "Subingen",
    "addr:housenumber": "23",
    "addr:postcode": "4553",
    "addr:street": "Dahlienweg",
    "defibrillator:location": "Beim Empfang im 7. Stock",
    "emergency": "defibrillator",
    "emergency:phone": "144",
    "opening_hours": "Mo-Fr 07:30-17:00",
    "operator": "VSL Schweiz AG",
    "phone": "+41 58 456 30 40",
    "id": "node/6532311690"
  },
  "geometry": {
    "type": "Point",
    "coordinates": [
      7.6098072,
      47.1962282
    ]
  }
},
{
  "type": "Feature",
  "id": "node/6532311692",
  "properties": {
    "access": "permissive",
    "addr:city": "Deitingen",
    "addr:housenumber": "22",
    "addr:postcode": "4543",
    "addr:street": "Grabmattstrasse",
    "defibrillator:location": "Im Clubhaus des FC Deitingen",
    "emergency": "defibrillator",
    "emergency:phone": "144",
    "indoor": "yes",
    "opening_hours": "teilweise",
    "operator": "Einwohnergemeinde Deitingen",
    "id": "node/6532311692"
  },
  "geometry": {
    "type": "Point",
    "coordinates": [
      7.6119556,
      47.2163944
    ]
  }
},
{
  "type": "Feature",
  "id": "node/6532311693",
  "properties": {
    "access": "permissive",
    "addr:city": "Deitingen",
    "addr:housenumber": "10",
    "addr:postcode": "4543",
    "addr:street": "Schulhausstrasse",
    "defibrillator:location": "In der Zweienhalle, Im Eingangsbereich",
    "emergency": "defibrillator",
    "emergency:phone": "144",
    "indoor": "yes",
    "operator": "Einwohnergemeinde Deitingen",
    "phone": "+41 76 570 1579",
    "id": "node/6532311693"
  },
  "geometry": {
    "type": "Point",
    "coordinates": [
      7.6213811,
      47.2116098
    ]
  }
},
{
  "type": "Feature",
  "id": "node/6532311694",
  "properties": {
    "access": "yes",
    "addr:city": "Deitingen",
    "addr:housenumber": "1",
    "addr:postcode": "4543",
    "addr:street": "Wangenstrasse",
    "defibrillator:location": "Aussen beim Gemeindehaus",
    "emergency": "defibrillator",
    "emergency:phone": "144",
    "opening_hours": "24/7",
    "operator": "Einwohnergemeinde Deitingen",
    "outdoor": "yes",
    "phone": "+41 76 570 1579",
    "id": "node/6532311694"
  },
  "geometry": {
    "type": "Point",
    "coordinates": [
      7.619284,
      47.212281
    ]
  }
},
{
  "type": "Feature",
  "id": "node/6532327368",
  "properties": {
    "access": "yes",
    "addr:city": "Burgäschi",
    "addr:housenumber": "26",
    "addr:postcode": "4556",
    "addr:street": "Hauptstrasse",
    "defibrillator:location": "neben Restaurant, bei Eingang Srandbad",
    "emergency": "defibrillator",
    "emergency:phone": "144",
    "opening_hours": "24/7",
    "operator": "Strandbad Burgäshisee",
    "phone": "+41 62 955 70 80",
    "id": "node/6532327368"
  },
  "geometry": {
    "type": "Point",
    "coordinates": [
      7.6711825,
      47.1708655
    ]
  }
},
{
  "type": "Feature",
  "id": "node/6546027575",
  "properties": {
    "access": "yes",
    "defibrillator:location": "Seiteneingang Fachhochschule Nordwestschweiz FHNW",
    "emergency": "defibrillator",
    "emergency:phone": "144",
    "indoor": "yes",
    "level": "0",
    "opening_hours": "Mo-Fr 07:00-21:00; Sa 07:00-18:00",
    "operator": "Fachhochschule Nordwestschweiz FHNW",
    "phone": "+41 84 882 10 11",
    "wheelchair": "yes",
    "id": "node/6546027575"
  },
  "geometry": {
    "type": "Point",
    "coordinates": [
      7.9080043,
      47.3479338
    ]
  }
},
{
  "type": "Feature",
  "id": "node/6611866878",
  "properties": {
    "access": "yes",
    "emergency": "defibrillator",
    "emergency:phone": "144",
    "location": "outdoor",
    "id": "node/6611866878"
  },
  "geometry": {
    "type": "Point",
    "coordinates": [
      7.646601,
      47.1573599
    ]
  }
},
{
  "type": "Feature",
  "id": "node/6629821167",
  "properties": {
    "access": "permissive",
    "addr:city": "Zuchwil",
    "addr:housenumber": "14",
    "addr:postcode": "4528",
    "addr:street": "Industriestrasse",
    "defibrillator:location": "Hinter Fronttüre im Treppenhaus",
    "emergency": "defibrillator",
    "emergency:phone": "144",
    "opening_hours": "Mo-Fr 07:30-18:00",
    "operator": "DePuy Synthes",
    "phone": "+41 32 720 7972",
    "id": "node/6629821167"
  },
  "geometry": {
    "type": "Point",
    "coordinates": [
      7.5615515,
      47.2081866
    ]
  }
},
{
  "type": "Feature",
  "id": "node/6629821168",
  "properties": {
    "access": "permissive",
    "addr:city": "Deitingen",
    "addr:housenumber": "22",
    "addr:postcode": "4543",
    "addr:street": "Grabmattstrasse",
    "defibrillator:location": "Clubhaus FC Deitingen, nur während des Trainings und der Spiele verfügbar",
    "emergency": "defibrillator",
    "emergency:phone": "144",
    "operator": "Einwohnergemeinde Deitingen / Im Clubhaus des FC Deitingen",
    "phone": "+41 76 570 1579",
    "id": "node/6629821168"
  },
  "geometry": {
    "type": "Point",
    "coordinates": [
      7.6129967,
      47.2163204
    ]
  }
},
{
  "type": "Feature",
  "id": "node/6629821169",
  "properties": {
    "access": "permissive",
    "addr:city": "Subigen",
    "addr:postcode": "4553",
    "addr:street": "Industriestrasse",
    "defibrillator:location": "Eingang Spedition",
    "emergency": "defibrillator",
    "emergency:phone": "144",
    "opening_hours": "Mo-Fr 06:30-16:30",
    "operator": "VSL Schweiz AG",
    "phone": "+41 58 356 30 40",
    "id": "node/6629821169"
  },
  "geometry": {
    "type": "Point",
    "coordinates": [
      7.6075295,
      47.1940979
    ]
  }
},
{
  "type": "Feature",
  "id": "node/6715019540",
  "properties": {
    "access": "yes",
    "emergency": "defibrillator",
    "emergency:phone": "144",
    "level": "0",
    "opening_hours": "24/7",
    "website": "http://defibrillator.ch/",
    "wheelchair": "yes",
    "id": "node/6715019540"
  },
  "geometry": {
    "type": "Point",
    "coordinates": [
      7.9102246,
      47.3512779
    ]
  }
},
{
  "type": "Feature",
  "id": "node/6721750676",
  "properties": {
    "access": "yes",
    "emergency": "defibrillator",
    "emergency:phone": "144",
    "operator": "Gemeinde Aeschi",
    "phone": "+41 62 9557080",
    "wheelchair": "yes",
    "id": "node/6721750676"
  },
  "geometry": {
    "type": "Point",
    "coordinates": [
      7.6589651,
      47.1796096
    ]
  }
},
{
  "type": "Feature",
  "id": "node/7281021204",
  "properties": {
    "access": "yes",
    "defibrillator:location": "Martin-Disteli-Unterführung Bahnhof Olten",
    "description": "In Unterführung",
    "emergency": "defibrillator",
    "emergency:phone": "144",
    "indoor": "yes",
    "level": "-1",
    "opening_hours": "24/7",
    "wheelchair": "yes",
    "id": "node/7281021204"
  },
  "geometry": {
    "type": "Point",
    "coordinates": [
      7.9073316,
      47.3515712
    ]
  }
},
{
  "type": "Feature",
  "id": "node/7533067856",
  "properties": {
    "emergency": "defibrillator",
    "emergency:phone": "144",
    "id": "node/7533067856"
  },
  "geometry": {
    "type": "Point",
    "coordinates": [
      7.4662965,
      47.4660265
    ]
  }
},
{
  "type": "Feature",
  "id": "node/7554709700",
  "properties": {
    "access": "private",
    "emergency": "defibrillator",
    "emergency:phone": "144",
    "opening_hours": "Mo-Tu 06:45-11:45, 12:45-17:00;Fr 06:45-11:45, 12:45-16:30;PH off",
    "id": "node/7554709700"
  },
  "geometry": {
    "type": "Point",
    "coordinates": [
      7.6145503,
      47.2342759
    ]
  }
},
{
  "type": "Feature",
  "id": "node/7603591726",
  "properties": {
    "access": "yes",
    "defibrillator:location": "an Aussenwand",
    "emergency": "defibrillator",
    "emergency:phone": "144",
    "id": "node/7603591726"
  },
  "geometry": {
    "type": "Point",
    "coordinates": [
      7.5606357,
      47.1791287
    ]
  }
},
{
  "type": "Feature",
  "id": "node/7633181489",
  "properties": {
    "emergency": "defibrillator",
    "emergency:phone": "144",
    "id": "node/7633181489"
  },
  "geometry": {
    "type": "Point",
    "coordinates": [
      7.4903098,
      47.4764112
    ]
  }
},
{
  "type": "Feature",
  "id": "node/7797505793",
  "properties": {
    "access": "yes",
    "emergency": "defibrillator",
    "emergency:phone": "144",
    "opening_hours": "24/7",
    "operator": "Gemeinde",
    "id": "node/7797505793"
  },
  "geometry": {
    "type": "Point",
    "coordinates": [
      7.4394231,
      47.1195733
    ]
  }
},
{
  "type": "Feature",
  "id": "node/7862924003",
  "properties": {
    "emergency": "defibrillator",
    "emergency:phone": "144",
    "indoor": "no",
    "id": "node/7862924003"
  },
  "geometry": {
    "type": "Point",
    "coordinates": [
      7.6395363,
      47.4562708
    ]
  }
},
{
  "type": "Feature",
  "id": "node/7892371822",
  "properties": {
    "access": "no",
    "addr:city": "Bettlach",
    "addr:housenumber": "52",
    "addr:postcode": "2544",
    "addr:street": "Bielstrasse",
    "defibrillator:location": "An der Wand im Treppenhaus auf Boden-/Eingansstockwerk.",
    "emergency": "defibrillator",
    "emergency:phone": "144",
    "opening_hours": "08:00-17:00",
    "id": "node/7892371822"
  },
  "geometry": {
    "type": "Point",
    "coordinates": [
      7.4155104,
      47.1960338
    ]
  }
},
{
  "type": "Feature",
  "id": "node/7962056790",
  "properties": {
    "access": "yes",
    "defibrillator:location": "Beim Feuerwehrmagazin",
    "description": "Notfallsystem mit Defibrillator von Defibtech Lifeline View",
    "emergency": "defibrillator",
    "emergency:phone": "144",
    "indoor": "no",
    "opening_hours": "24/7",
    "id": "node/7962056790"
  },
  "geometry": {
    "type": "Point",
    "coordinates": [
      7.5973236,
      47.2381359
    ]
  }
},
{
  "type": "Feature",
  "id": "node/8127985979",
  "properties": {
    "access": "no",
    "defibrillator:location": "Im Gemeindehaus rechts von der Treppe im EG",
    "description": "nur während Öffnungszeiten verfügbar",
    "emergency": "defibrillator",
    "emergency:phone": "144",
    "indoor": "yes",
    "opening_hours": "Mo 09:30-11:45,15:00-19:00; Tu 09:30-11:45; We,Th 09:30-11:45,15:00-17:30; Fr 09:30-11:45,13:30-15:30",
    "operator": "Einwohnergemeinde Dulliken",
    "phone": "+41 62 285 57 57",
    "id": "node/8127985979"
  },
  "geometry": {
    "type": "Point",
    "coordinates": [
      7.943847,
      47.350148
    ]
  }
},
{
  "type": "Feature",
  "id": "node/8327355675",
  "properties": {
    "access": "no",
    "defibrillator:location": "im Feuerwehrdepot. Nur First Responder haben Zugriff",
    "description": "nur über Notruf verfügbar",
    "emergency": "defibrillator",
    "emergency:phone": "144",
    "indoor": "yes",
    "operator": "Sanitätsverein Balsthal- Mirjam Fässler",
    "phone": "+41 77 459 50 40",
    "id": "node/8327355675"
  },
  "geometry": {
    "type": "Point",
    "coordinates": [
      7.6980808,
      47.3169045
    ]
  }
},
{
  "type": "Feature",
  "id": "node/8327384164",
  "properties": {
    "access": "yes",
    "defibrillator:location": "EG vis à vis Sekretariat im Altersheim",
    "description": "24h über Nachtklingel verfügbar",
    "emergency": "defibrillator",
    "emergency:phone": "144",
    "indoor": "yes",
    "opening_hours": "24/7",
    "operator": "Altersheim Inseli",
    "id": "node/8327384164"
  },
  "geometry": {
    "type": "Point",
    "coordinates": [
      7.6931437,
      47.3163325
    ]
  }
},
{
  "type": "Feature",
  "id": "node/8376504166",
  "properties": {
    "access": "yes",
    "defibrillator:location": "Haupteingang zur Pfarrei (vis-a-vis Kirche).",
    "description": "24h verfügbar",
    "emergency": "defibrillator",
    "emergency:phone": "144",
    "indoor": "no",
    "opening_hours": "24/7",
    "id": "node/8376504166"
  },
  "geometry": {
    "type": "Point",
    "coordinates": [
      7.4530351,
      47.2062639
    ]
  }
},
{
  "type": "Feature",
  "id": "node/8376533542",
  "properties": {
    "access": "yes",
    "defibrillator:location": "neben dem Eingang des Gemeindesaals",
    "description": "24h verfügbar",
    "emergency": "defibrillator",
    "emergency:phone": "144",
    "indoor": "no",
    "opening_hours": "24/7",
    "operator": "Einwohnergemeinde Fehren",
    "phone": "+41 61 791 91 11",
    "id": "node/8376533542"
  },
  "geometry": {
    "type": "Point",
    "coordinates": [
      7.5811502,
      47.3968085
    ]
  }
},
{
  "type": "Feature",
  "id": "node/8455386840",
  "properties": {
    "emergency": "defibrillator",
    "emergency:phone": "144",
    "indoor": "no",
    "id": "node/8455386840"
  },
  "geometry": {
    "type": "Point",
    "coordinates": [
      7.9063943,
      47.3499009
    ]
  }
},
{
  "type": "Feature",
  "id": "node/8481830237",
  "properties": {
    "access": "yes",
    "defibrillator:location": "Aussen beim Haupteingang",
    "description": "24h verfügbar",
    "emergency": "defibrillator",
    "emergency:phone": "144",
    "indoor": "no",
    "opening_hours": "24/7",
    "id": "node/8481830237"
  },
  "geometry": {
    "type": "Point",
    "coordinates": [
      7.901199,
      47.3508459
    ]
  }
},
{
  "type": "Feature",
  "id": "node/8521981892",
  "properties": {
    "access": "yes",
    "emergency": "defibrillator",
    "emergency:phone": "144",
    "id": "node/8521981892"
  },
  "geometry": {
    "type": "Point",
    "coordinates": [
      7.6870488,
      47.1612033
    ]
  }
},
{
  "type": "Feature",
  "id": "node/8540385917",
  "properties": {
    "access": "yes",
    "defibrillator:location": "Gemeindeverwaltung Starrkirch-Wil, Eingang",
    "description": "durchgehend erreichbar",
    "emergency": "defibrillator",
    "emergency:phone": "144",
    "indoor": "no",
    "opening_hours": "24/7",
    "operator": "Gemeinde",
    "id": "node/8540385917"
  },
  "geometry": {
    "type": "Point",
    "coordinates": [
      7.9268927,
      47.348489
    ]
  }
},
{
  "type": "Feature",
  "id": "node/8547911436",
  "properties": {
    "access": "yes",
    "defibrillator:location": "Links am Selecta-Automat, der vor der Garage steht.",
    "description": "24h verfügbar",
    "emergency": "defibrillator",
    "emergency:phone": "144",
    "indoor": "no",
    "opening_hours": "24/7",
    "operator": "Procamed AG",
    "phone": "+41 52 368 60 00",
    "id": "node/8547911436"
  },
  "geometry": {
    "type": "Point",
    "coordinates": [
      7.9153396,
      47.3479719
    ]
  }
},
{
  "type": "Feature",
  "id": "node/8548048565",
  "properties": {
    "access": "yes",
    "defibrillator:location": "Rechts am Selecta-Automaten in grünem Wandkasten",
    "description": "24h verfügbar",
    "emergency": "defibrillator",
    "emergency:phone": "144",
    "indoor": "no",
    "opening_hours": "24/7",
    "operator": "Procamed AG",
    "phone": "+41 52 368 60 00",
    "id": "node/8548048565"
  },
  "geometry": {
    "type": "Point",
    "coordinates": [
      7.9174056,
      47.3466111
    ]
  }
},
{
  "type": "Feature",
  "id": "node/8556671479",
  "properties": {
    "access": "no",
    "defibrillator:location": "EG, Eingang Werkstatt",
    "description": "während Öffnungszeiten verfügbar",
    "emergency": "defibrillator",
    "emergency:phone": "144",
    "indoor": "yes",
    "phone": "+41 62 206 16 16",
    "id": "node/8556671479"
  },
  "geometry": {
    "type": "Point",
    "coordinates": [
      7.9049823,
      47.3532336
    ]
  }
},
{
  "type": "Feature",
  "id": "node/8561631201",
  "properties": {
    "access": "no",
    "defibrillator:location": "Kann am Bankschalter angefordert werden",
    "description": "während Öffnungszeiten verfügbar",
    "emergency": "defibrillator",
    "emergency:phone": "144",
    "indoor": "yes",
    "opening_hours": "Mo-Fr 08:30-12:00, 13:30-16:30",
    "operator": "Raiffeisenbank Dulliken-Starrkirch",
    "phone": "+41 62 285 40 30",
    "id": "node/8561631201"
  },
  "geometry": {
    "type": "Point",
    "coordinates": [
      7.9451235,
      47.3495052
    ]
  }
},
{
  "type": "Feature",
  "id": "node/8573698870",
  "properties": {
    "access": "yes",
    "defibrillator:location": "Im Eingang des Gemeindehauses, von aussen frei zugänglich.",
    "description": "während Öffnungszeiten verfügbar",
    "emergency": "defibrillator",
    "emergency:phone": "144",
    "indoor": "no",
    "opening_hours": "24/7",
    "operator": "Gemeinde Himmelried",
    "phone": "+41 61 741 17 78",
    "id": "node/8573698870"
  },
  "geometry": {
    "type": "Point",
    "coordinates": [
      7.5981637,
      47.4223754
    ]
  }
},
{
  "type": "Feature",
  "id": "node/8582376625",
  "properties": {
    "access": "yes",
    "defibrillator:location": "Berufsbildungszentrum Grenchen",
    "description": "Im Gang gegenüber der Kantine, Erdgeschoss, Südseite",
    "emergency": "defibrillator",
    "emergency:phone": "144",
    "indoor": "yes",
    "opening_hours": "Mo-Fr: 08-17",
    "operator": "BBZ Grenchen",
    "phone": "+41326532727",
    "id": "node/8582376625"
  },
  "geometry": {
    "type": "Point",
    "coordinates": [
      7.4014639,
      47.1847707
    ]
  }
},
{
  "type": "Feature",
  "id": "node/8613196117",
  "properties": {
    "access": "yes",
    "defibrillator:location": "Im Eingang links Raiffeisen gegenüber Café Ring",
    "description": "24 h verfügbar, in der Nacht Türöffner betätugen",
    "emergency": "defibrillator",
    "emergency:phone": "144",
    "indoor": "yes",
    "opening_hours": "24/7",
    "operator": "Raiffeisenbank",
    "phone": "+41622050505",
    "id": "node/8613196117"
  },
  "geometry": {
    "type": "Point",
    "coordinates": [
      7.9010756,
      47.3517463
    ]
  }
},
{
  "type": "Feature",
  "id": "node/8614882174",
  "properties": {
    "defibrillator:location": "Treppenhaus",
    "emergency": "defibrillator",
    "emergency:phone": "144",
    "indoor": "yes",
    "id": "node/8614882174"
  },
  "geometry": {
    "type": "Point",
    "coordinates": [
      7.6216126,
      47.2287075
    ]
  }
},
{
  "type": "Feature",
  "id": "node/8627921973",
  "properties": {
    "access": "yes",
    "defibrillator:location": "Vor Eingang Post-Gebäude, Rechts am Selecta-Automaten in grünem Wandkasten",
    "description": "24h verfügbar",
    "emergency": "defibrillator",
    "emergency:phone": "144",
    "indoor": "no",
    "opening_hours": "24/7",
    "operator": "Procamed AG",
    "phone": "+41 52 368 60 00",
    "id": "node/8627921973"
  },
  "geometry": {
    "type": "Point",
    "coordinates": [
      7.9064394,
      47.3498459
    ]
  }
},
{
  "type": "Feature",
  "id": "node/8640004218",
  "properties": {
    "access": "yes",
    "defibrillator:location": "Olten Tourismus",
    "description": "Aussen, neben Eingang",
    "emergency": "defibrillator",
    "emergency:phone": "144",
    "indoor": "no",
    "opening_hours": "24/7",
    "operator": "Olten Tourismus",
    "id": "node/8640004218"
  },
  "geometry": {
    "type": "Point",
    "coordinates": [
      7.9039023,
      47.3528485
    ]
  }
},
{
  "type": "Feature",
  "id": "node/8644201707",
  "properties": {
    "access": "yes",
    "defibrillator:location": "An der nördlichen Aussenfassade der Gemeindeverwaltung in einem Schutzgehäuse.",
    "description": "24h verfügbar",
    "emergency": "defibrillator",
    "emergency:phone": "144",
    "indoor": "no",
    "opening_hours": "24/7",
    "operator": "Gemeindeverwaltung / 4118 Rodersdorf",
    "phone": "+41 61 731 33 16",
    "id": "node/8644201707"
  },
  "geometry": {
    "type": "Point",
    "coordinates": [
      7.456762,
      47.4806551
    ]
  }
},
{
  "type": "Feature",
  "id": "node/8644268817",
  "properties": {
    "access": "yes",
    "defibrillator:location": "Der Defi hängt an der Wand rechts wenn man vor dem Eingang der Schützi steht. Von der Badi her sieht man ihn gut, aber von der anderen Seite (Hausmattrain, Leberngasse) ist er nicht direkt ersichtlich.",
    "description": "24h verfügbar",
    "emergency": "defibrillator",
    "emergency:phone": "144",
    "indoor": "no",
    "opening_hours": "24/7",
    "id": "node/8644268817"
  },
  "geometry": {
    "type": "Point",
    "coordinates": [
      7.9029574,
      47.3482537
    ]
  }
},
{
  "type": "Feature",
  "id": "node/8644503017",
  "properties": {
    "access": "yes",
    "defibrillator:location": "Schulhaus",
    "description": "links beim Rollstuhleingang",
    "emergency": "defibrillator",
    "emergency:phone": "144",
    "indoor": "no",
    "operator": "Gemeinde",
    "id": "node/8644503017"
  },
  "geometry": {
    "type": "Point",
    "coordinates": [
      7.4728592,
      47.2258888
    ]
  }
},
{
  "type": "Feature",
  "id": "node/8645174717",
  "properties": {
    "access": "yes",
    "defibrillator:location": "Beim Feuerwehrgebäude",
    "emergency": "defibrillator",
    "emergency:phone": "144",
    "indoor": "no",
    "opening_hours": "24/7",
    "operator": "Gemeinde",
    "id": "node/8645174717"
  },
  "geometry": {
    "type": "Point",
    "coordinates": [
      7.4748437,
      47.2222545
    ]
  }
},
{
  "type": "Feature",
  "id": "node/8678245346",
  "properties": {
    "access": "yes",
    "defibrillator:location": "Praxis Dr. Walter Meier",
    "description": "während Öffnungszeiten verfügbar",
    "emergency": "defibrillator",
    "emergency:phone": "144",
    "indoor": "yes",
    "opening_hours": "Mo-Fr 08:00-11:30,14:00-17:30; We,Th 08:00-11:30; Sa 08:30-10:30",
    "operator": "Praxis Dr. Walter Meier",
    "phone": "+41 61 731 32 32",
    "id": "node/8678245346"
  },
  "geometry": {
    "type": "Point",
    "coordinates": [
      7.457051,
      47.4816456
    ]
  }
},
{
  "type": "Feature",
  "id": "node/8686646117",
  "properties": {
    "access": "no",
    "defibrillator:location": "Migros Öufi",
    "description": "während fen Öffnungszeiten",
    "emergency": "defibrillator",
    "emergency:phone": "144",
    "indoor": "yes",
    "operator": "Migros",
    "id": "node/8686646117"
  },
  "geometry": {
    "type": "Point",
    "coordinates": [
      7.5261246,
      47.2110688
    ]
  }
},
{
  "type": "Feature",
  "id": "node/8699607518",
  "properties": {
    "access": "yes",
    "defibrillator:location": "Pneu Garage Roth, Hauptstraße, Ecke Mülchistraße, 4588 Oberramsern",
    "description": "Draußen neben Garagentor",
    "emergency": "defibrillator",
    "emergency:phone": "144",
    "indoor": "no",
    "opening_hours": "24/7",
    "operator": "Gemeinde 3254 Messen",
    "id": "node/8699607518"
  },
  "geometry": {
    "type": "Point",
    "coordinates": [
      7.4624551,
      47.1141941
    ]
  }
},
{
  "type": "Feature",
  "id": "node/8701806317",
  "properties": {
    "access": "yes",
    "defibrillator:location": "Volg Arisdorf ",
    "description": "Aussen Angebracht",
    "emergency": "defibrillator",
    "emergency:phone": "144",
    "indoor": "no",
    "id": "node/8701806317"
  },
  "geometry": {
    "type": "Point",
    "coordinates": [
      7.4809482,
      47.1565902
    ]
  }
},
{
  "type": "Feature",
  "id": "node/8701813917",
  "properties": {
    "access": "yes",
    "defibrillator:location": "Volg Laden Hauptstrasse 72,4422 Arisdorf",
    "description": "AUSSEN STANDORT",
    "emergency": "defibrillator",
    "emergency:phone": "144",
    "indoor": "no",
    "opening_hours": "24/7",
    "operator": "defibrillator. ch",
    "phone": "+41 61 811 37 21",
    "id": "node/8701813917"
  },
  "geometry": {
    "type": "Point",
    "coordinates": [
      7.4809482,
      47.1565902
    ]
  }
},
{
  "type": "Feature",
  "id": "node/8742684117",
  "properties": {
    "access": "yes",
    "defibrillator:location": "Eingamg Pfarreiheim, neben dem IV WC",
    "description": "während der Öffnungszeit der Kirche",
    "emergency": "defibrillator",
    "emergency:phone": "144",
    "indoor": "yes",
    "opening_hours": "Mo-Su 07:00-19:00",
    "operator": "röm. kath. Kirchgemeinde Balsthal",
    "phone": "+41623919191",
    "id": "node/8742684117"
  },
  "geometry": {
    "type": "Point",
    "coordinates": [
      7.6942168,
      47.3176356
    ]
  }
},
{
  "type": "Feature",
  "id": "node/8764958917",
  "properties": {
    "access": "yes",
    "defibrillator:location": "Migros Verteilbetriebe, Velounterstand ",
    "description": "immer Verfügbar",
    "emergency": "defibrillator",
    "emergency:phone": "144",
    "indoor": "no",
    "opening_hours": "24/7",
    "operator": "Migros Verteilbetriebe",
    "phone": "+41623887111",
    "id": "node/8764958917"
  },
  "geometry": {
    "type": "Point",
    "coordinates": [
      7.7849898,
      47.3080058
    ]
  }
},
{
  "type": "Feature",
  "id": "node/8779635517",
  "properties": {
    "access": "yes",
    "defibrillator:location": "Beim Bankomat ",
    "emergency": "defibrillator",
    "emergency:phone": "144",
    "indoor": "no",
    "opening_hours": "24/7",
    "id": "node/8779635517"
  },
  "geometry": {
    "type": "Point",
    "coordinates": [
      7.5976015,
      47.1749345
    ]
  }
},
{
  "type": "Feature",
  "id": "node/8811198766",
  "properties": {
    "access": "yes",
    "defibrillator:location": "Gemeindeverwaltung",
    "description": "24h verfügbar",
    "emergency": "defibrillator",
    "emergency:phone": "144",
    "indoor": "yes",
    "opening_hours": "24/7",
    "operator": "Gemeinde Seewen",
    "phone": "+41 77 466 55 44",
    "id": "node/8811198766"
  },
  "geometry": {
    "type": "Point",
    "coordinates": [
      7.6582673,
      47.4346437
    ]
  }
},
{
  "type": "Feature",
  "id": "node/8832574027",
  "properties": {
    "access": "yes",
    "defibrillator:location": "Schulhaus Niedergösgen ",
    "description": "24\\7 Erreichbarkeit unter Pausenhalle ",
    "emergency": "defibrillator",
    "emergency:phone": "144",
    "indoor": "no",
    "opening_hours": "24/7",
    "operator": "Einwohnergemeinde ",
    "phone": "+41793663412",
    "id": "node/8832574027"
  },
  "geometry": {
    "type": "Point",
    "coordinates": [
      7.9925024,
      47.3743293
    ]
  }
},
{
  "type": "Feature",
  "id": "node/8844029846",
  "properties": {
    "access": "no",
    "defibrillator:location": "Haupteingang Allenspach Medical AG, innerhalb Eingang. Zugang nur durch Klingeln während Arbeitszeiten möglich.",
    "description": "während Öffnungszeiten verfügbar",
    "emergency": "defibrillator",
    "emergency:phone": "144",
    "indoor": "yes",
    "opening_hours": "Mo-Fr 08:00-12:00, 13:00-17:00",
    "operator": "Allenspach Medical AG",
    "phone": "+41 62 386 60 06",
    "id": "node/8844029846"
  },
  "geometry": {
    "type": "Point",
    "coordinates": [
      7.6932701,
      47.3093871
    ]
  }
},
{
  "type": "Feature",
  "id": "node/8852623538",
  "properties": {
    "access": "yes",
    "defibrillator:location": "Tiefgaragen-Einfahrt Chrummatt, In einer Nische in der Tiefgarageneinfahrt angebracht.",
    "description": "24h verfügbar",
    "emergency": "defibrillator",
    "emergency:phone": "144",
    "indoor": "no",
    "opening_hours": "24/7",
    "operator": "Maurice Stampfli",
    "phone": "+41 79 444 91 89",
    "id": "node/8852623538"
  },
  "geometry": {
    "type": "Point",
    "coordinates": [
      7.875193,
      47.3419476
    ]
  }
},
{
  "type": "Feature",
  "id": "node/8880283957",
  "properties": {
    "access": "yes",
    "defibrillator:location": "Beim Dorfladen Volg an der Hausmauer",
    "description": "24h verfügbar",
    "emergency": "defibrillator",
    "emergency:phone": "144",
    "indoor": "no",
    "opening_hours": "24/7",
    "id": "node/8880283957"
  },
  "geometry": {
    "type": "Point",
    "coordinates": [
      7.5414813,
      47.3732746
    ]
  }
},
{
  "type": "Feature",
  "id": "node/8906909118",
  "properties": {
    "access": "yes",
    "defibrillator:location": "Tennisclub Gerlafingen",
    "emergency": "defibrillator",
    "emergency:phone": "144",
    "indoor": "no",
    "operator": "Tennisclub Gerlafingen",
    "phone": "+41792398828",
    "id": "node/8906909118"
  },
  "geometry": {
    "type": "Point",
    "coordinates": [
      7.5600346,
      47.1682654
    ]
  }
},
{
  "type": "Feature",
  "id": "node/8921604224",
  "properties": {
    "access": "yes",
    "defibrillator:location": "Beim Hofladen Bauernhof Klötzli",
    "description": "24h verfügbar",
    "emergency": "defibrillator",
    "emergency:phone": "144",
    "indoor": "no",
    "opening_hours": "24/7",
    "operator": "Einwohnergemeinde Kleinlützel",
    "phone": "+41617759000",
    "id": "node/8921604224"
  },
  "geometry": {
    "type": "Point",
    "coordinates": [
      7.4339904,
      47.4208961
    ]
  }
},
{
  "type": "Feature",
  "id": "node/8921604225",
  "properties": {
    "access": "yes",
    "defibrillator:location": "Neben der Milchsammelstelle Frohmatt, Kleinlützel, direkt an der Bushaltestelle Frohmatt",
    "description": "24h verfügbar",
    "emergency": "defibrillator",
    "emergency:phone": "144",
    "indoor": "no",
    "opening_hours": "24/7",
    "operator": "Einwohnergemeinde Kleinlützel",
    "phone": "+41617759000",
    "id": "node/8921604225"
  },
  "geometry": {
    "type": "Point",
    "coordinates": [
      7.4181577,
      47.4254856
    ]
  }
},
{
  "type": "Feature",
  "id": "node/8939004359",
  "properties": {
    "access": "no",
    "defibrillator:location": "Gaupark Egerkingen",
    "description": "Steht im haus nebem Bancomat ",
    "emergency": "defibrillator",
    "emergency:phone": "144",
    "indoor": "yes",
    "operator": "Einkaufzemtrum",
    "id": "node/8939004359"
  },
  "geometry": {
    "type": "Point",
    "coordinates": [
      7.802163,
      47.3176082
    ]
  }
},
{
  "type": "Feature",
  "id": "node/8988366817",
  "properties": {
    "access": "no",
    "defibrillator:location": "Schulhaus Oberstufenzentrum Dorneckberg",
    "emergency": "defibrillator",
    "emergency:phone": "144",
    "indoor": "no",
    "operator": "Schule",
    "id": "node/8988366817"
  },
  "geometry": {
    "type": "Point",
    "coordinates": [
      7.6670329,
      47.4497281
    ]
  }
},
{
  "type": "Feature",
  "id": "node/8989620017",
  "properties": {
    "access": "yes",
    "defibrillator:location": "Feuerwehrmagazin Aussenmauer Haltestelle Dorf Mitte",
    "emergency": "defibrillator",
    "emergency:phone": "144",
    "indoor": "no",
    "operator": "Gemeinde",
    "id": "node/8989620017"
  },
  "geometry": {
    "type": "Point",
    "coordinates": [
      7.5017225,
      47.381618
    ]
  }
},
{
  "type": "Feature",
  "id": "node/8996685818",
  "properties": {
    "access": "no",
    "defibrillator:location": "Mehrzweckhalle Hardmatt",
    "description": "im Korridor nur während Nutzungszeiten",
    "emergency": "defibrillator",
    "emergency:phone": "144",
    "indoor": "yes",
    "opening_hours": "08.00-18.00",
    "operator": "Gemeinde",
    "phone": "0625306820",
    "id": "node/8996685818"
  },
  "geometry": {
    "type": "Point",
    "coordinates": [
      7.9463754,
      47.3650736
    ]
  }
},
{
  "type": "Feature",
  "id": "node/8996694717",
  "properties": {
    "access": "no",
    "defibrillator:location": "Feuerwehr",
    "description": "nur durch Feuerwehr",
    "emergency": "defibrillator",
    "emergency:phone": "144",
    "indoor": "yes",
    "opening_hours": "24/7",
    "operator": "Feuerwehr",
    "id": "node/8996694717"
  },
  "geometry": {
    "type": "Point",
    "coordinates": [
      7.9478376,
      47.363658
    ]
  }
},
{
  "type": "Feature",
  "id": "node/9007308220",
  "properties": {
    "access": "yes",
    "defibrillator:location": "Gemeindeverwaltung Trimbach",
    "emergency": "defibrillator",
    "emergency:phone": "144",
    "indoor": "no",
    "opening_hours": "24/7",
    "operator": "Gemeinde Trimbach",
    "id": "node/9007308220"
  },
  "geometry": {
    "type": "Point",
    "coordinates": [
      7.8958809,
      47.3630123
    ]
  }
},
{
  "type": "Feature",
  "id": "node/9010992717",
  "properties": {
    "access": "yes",
    "defibrillator:location": "Schulhaus, Haupteingang, östlich",
    "emergency": "defibrillator",
    "emergency:phone": "144",
    "indoor": "no",
    "opening_hours": "24/7",
    "id": "node/9010992717"
  },
  "geometry": {
    "type": "Point",
    "coordinates": [
      7.8550738,
      47.3409488
    ]
  }
},
{
  "type": "Feature",
  "id": "node/9045503549",
  "properties": {
    "access": "yes",
    "defibrillator:location": "Beim Haupteingang an der Hausfassade",
    "description": "24h verfügbar",
    "emergency": "defibrillator",
    "emergency:phone": "144",
    "indoor": "no",
    "opening_hours": "24/7",
    "operator": "Gemeinde Feldbrunnen",
    "phone": "+41 32 622 86 05",
    "id": "node/9045503549"
  },
  "geometry": {
    "type": "Point",
    "coordinates": [
      7.555247,
      47.2201602
    ]
  }
},
{
  "type": "Feature",
  "id": "node/9052689420",
  "properties": {
    "access": "yes",
    "defibrillator:location": "Gegenüber der Bushaltestelle am Gebäude Bahnhofplatz 2",
    "description": "24h verfügbar",
    "emergency": "defibrillator",
    "emergency:phone": "144",
    "indoor": "no",
    "opening_hours": "24/7",
    "operator": "Neuenschwander AG",
    "phone": "+41 32 677 10 32",
    "id": "node/9052689420"
  },
  "geometry": {
    "type": "Point",
    "coordinates": [
      7.5264509,
      47.1633452
    ]
  }
},
{
  "type": "Feature",
  "id": "node/9061442816",
  "properties": {
    "access": "yes",
    "defibrillator:location": "Vor dem Haupteingang zum Mehrzweckgebäude auf der linken Seite",
    "description": "24h verfügbar",
    "emergency": "defibrillator",
    "emergency:phone": "144",
    "indoor": "yes",
    "opening_hours": "24/7",
    "operator": "Einwohnergemeinde Bolken, Häner Gisela",
    "phone": "+41 62 961 60 10",
    "id": "node/9061442816"
  },
  "geometry": {
    "type": "Point",
    "coordinates": [
      7.6628855,
      47.1908317
    ]
  }
},
{
  "type": "Feature",
  "id": "node/9066525917",
  "properties": {
    "access": "yes",
    "defibrillator:location": "Werkhof neben dem Eingang",
    "emergency": "defibrillator",
    "emergency:phone": "144",
    "indoor": "no",
    "opening_hours": "24/7",
    "id": "node/9066525917"
  },
  "geometry": {
    "type": "Point",
    "coordinates": [
      7.8855428,
      47.3928262
    ]
  }
},
{
  "type": "Feature",
  "id": "node/9072547217",
  "properties": {
    "access": "yes",
    "defibrillator:location": "SPAR Supermarkt",
    "emergency": "defibrillator",
    "emergency:phone": "144",
    "indoor": "no",
    "id": "node/9072547217"
  },
  "geometry": {
    "type": "Point",
    "coordinates": [
      7.7527271,
      47.281972
    ]
  }
},
{
  "type": "Feature",
  "id": "node/9078807959",
  "properties": {
    "access": "yes",
    "defibrillator:location": "Bei der Haupttreppe,links, Gebäude Singsaal",
    "description": "24h verfügbar",
    "emergency": "defibrillator",
    "emergency:phone": "144",
    "indoor": "no",
    "opening_hours": "24/7",
    "operator": "Procamed AG,Schulstrasse 5 8355 Aadorf",
    "phone": "+41 52 368 60 00",
    "id": "node/9078807959"
  },
  "geometry": {
    "type": "Point",
    "coordinates": [
      7.8907666,
      47.3520189
    ]
  }
},
{
  "type": "Feature",
  "id": "node/9101273185",
  "properties": {
    "access": "yes",
    "defibrillator:location": "Eingang Firma Kenny Design GmbH",
    "description": "24h verfügbar",
    "emergency": "defibrillator",
    "emergency:phone": "144",
    "indoor": "no",
    "opening_hours": "24/7",
    "operator": "Nicole Martin, Kenny Design GmbH",
    "phone": "+41 61 545 99 10",
    "id": "node/9101273185"
  },
  "geometry": {
    "type": "Point",
    "coordinates": [
      7.5223437,
      47.4849093
    ]
  }
},
{
  "type": "Feature",
  "id": "node/9102959692",
  "properties": {
    "access": "yes",
    "defibrillator:location": "gleich an Aussenfassade",
    "emergency": "defibrillator",
    "emergency:phone": "144",
    "level": "0",
    "name": "Garten Wyss",
    "opening_hours": "24/7",
    "operator": "Garten Wyss",
    "id": "node/9102959692"
  },
  "geometry": {
    "type": "Point",
    "coordinates": [
      7.5645636,
      47.2064772
    ]
  }
},
{
  "type": "Feature",
  "id": "node/9104138425",
  "properties": {
    "access": "private",
    "defibrillator:location": "Aussenfassade bei Velostation",
    "emergency": "defibrillator",
    "emergency:phone": "144",
    "indoor": "no",
    "name": "Biogen",
    "opening_hours": "24/7",
    "operator": "Biogen",
    "id": "node/9104138425"
  },
  "geometry": {
    "type": "Point",
    "coordinates": [
      7.5804923,
      47.221871
    ]
  }
},
{
  "type": "Feature",
  "id": "node/9112783025",
  "properties": {
    "access": "yes",
    "defibrillator:location": "Auf der rechten Seite der Fassade zum Bahnhofplatz.",
    "description": "24h verfügbar",
    "emergency": "defibrillator",
    "emergency:phone": "144",
    "indoor": "no",
    "opening_hours": "24/7",
    "operator": "Neuenschwander AG Mulden-Service + Entsorgung / Flury + Maeder Zahnärzte Solothurn Süd",
    "phone": "+41 32 677 10 32",
    "id": "node/9112783025"
  },
  "geometry": {
    "type": "Point",
    "coordinates": [
      7.5264213,
      47.1633372
    ]
  }
},
{
  "type": "Feature",
  "id": "node/9121866714",
  "properties": {
    "emergency": "defibrillator",
    "emergency:phone": "144",
    "indoor": "yes",
    "operator": "Kantonalbank",
    "wheelchair": "yes",
    "id": "node/9121866714"
  },
  "geometry": {
    "type": "Point",
    "coordinates": [
      7.9031799,
      47.3499023
    ]
  }
},
{
  "type": "Feature",
  "id": "node/9122029900",
  "properties": {
    "access": "yes",
    "defibrillator:location": "Bei Lieferqanteneingang",
    "emergency": "defibrillator",
    "emergency:phone": "144",
    "name": "Brönnimann",
    "opening_hours": "24/7",
    "id": "node/9122029900"
  },
  "geometry": {
    "type": "Point",
    "coordinates": [
      7.5986478,
      47.1969664
    ]
  }
},
{
  "type": "Feature",
  "id": "node/9128865040",
  "properties": {
    "access": "yes",
    "defibrillator:location": "Aussen beim Käch an der Wand richtung Strasse.",
    "description": "24h verfügbar",
    "emergency": "defibrillator",
    "emergency:phone": "144",
    "indoor": "no",
    "opening_hours": "24/7",
    "id": "node/9128865040"
  },
  "geometry": {
    "type": "Point",
    "coordinates": [
      7.6136126,
      47.4832507
    ]
  }
},
{
  "type": "Feature",
  "id": "node/9129678917",
  "properties": {
    "access": "no",
    "defibrillator:location": "Produktion UG",
    "description": "Mo bis Fr, ca. 07:00-17:00",
    "emergency": "defibrillator",
    "emergency:phone": "144",
    "indoor": "yes",
    "operator": "Firma",
    "phone": "0793355020",
    "id": "node/9129678917"
  },
  "geometry": {
    "type": "Point",
    "coordinates": [
      7.39132,
      47.1128067
    ]
  }
},
{
  "type": "Feature",
  "id": "node/9134247938",
  "properties": {
    "access": "yes",
    "defibrillator:location": "In der Eingangshalle neben den Aufzügen",
    "description": "24h verfügbar (in der Nacht über Portier)",
    "emergency": "defibrillator",
    "emergency:phone": "144",
    "indoor": "yes",
    "opening_hours": "24/7",
    "operator": "Alterszentrum Bodenacker",
    "phone": "+41797674236",
    "id": "node/9134247938"
  },
  "geometry": {
    "type": "Point",
    "coordinates": [
      7.5443807,
      47.4055511
    ]
  }
},
{
  "type": "Feature",
  "id": "node/9137534605",
  "properties": {
    "access": "yes",
    "defibrillator:location": "Beim alten Schulhaus Haupteingang",
    "description": "24h verfügbar",
    "emergency": "defibrillator",
    "emergency:phone": "144",
    "indoor": "no",
    "opening_hours": "24/7",
    "operator": "Einwohnergemeinde Lohn-Ammannsegg",
    "phone": "+49792987924",
    "id": "node/9137534605"
  },
  "geometry": {
    "type": "Point",
    "coordinates": [
      7.5277913,
      47.171185
    ]
  }
},
{
  "type": "Feature",
  "id": "node/9137626118",
  "properties": {
    "access": "yes",
    "defibrillator:location": "Werkhof Messen/Glasentsorgung",
    "description": "Fassade rechts",
    "emergency": "defibrillator",
    "emergency:phone": "144",
    "indoor": "no",
    "opening_hours": "24/7",
    "operator": "Gemeinde",
    "id": "node/9137626118"
  },
  "geometry": {
    "type": "Point",
    "coordinates": [
      7.4466246,
      47.0914943
    ]
  }
},
{
  "type": "Feature",
  "id": "node/9141470790",
  "properties": {
    "access": "no",
    "defibrillator:location": "In der Massagepraxis Garderobe",
    "description": "während Öffnungszeiten verfügbar",
    "emergency": "defibrillator",
    "emergency:phone": "144",
    "indoor": "yes",
    "operator": "Claudia Bossart",
    "phone": "+41 79 710 72 33",
    "id": "node/9141470790"
  },
  "geometry": {
    "type": "Point",
    "coordinates": [
      7.7913257,
      47.2979857
    ]
  }
},
{
  "type": "Feature",
  "id": "node/9148386151",
  "properties": {
    "emergency": "defibrillator",
    "indoor": "no",
    "level": "0",
    "opening_hours": "24/7",
    "id": "node/9148386151"
  },
  "geometry": {
    "type": "Point",
    "coordinates": [
      7.6531786,
      47.313124
    ]
  }
},
{
  "type": "Feature",
  "id": "node/9164637680",
  "properties": {
    "access": "yes",
    "defibrillator:location": "Haupteingang",
    "description": "24h verfügbar",
    "emergency": "defibrillator",
    "emergency:phone": "144",
    "opening_hours": "24/7",
    "operator": "SRS Medical GmbH Rettungsdienst",
    "phone": "+41 800 777 668",
    "id": "node/9164637680"
  },
  "geometry": {
    "type": "Point",
    "coordinates": [
      7.8114469,
      47.3101845
    ]
  }
},
{
  "type": "Feature",
  "id": "node/9165023217",
  "properties": {
    "access": "yes",
    "defibrillator:location": "landi ",
    "description": "parkplatz vor lafeneingang rechts",
    "emergency": "defibrillator",
    "emergency:phone": "144",
    "indoor": "no",
    "opening_hours": "24/7",
    "operator": "lebensrettungstafel",
    "id": "node/9165023217"
  },
  "geometry": {
    "type": "Point",
    "coordinates": [
      7.609609,
      47.1939552
    ]
  }
},
{
  "type": "Feature",
  "id": "node/9169730417",
  "properties": {
    "access": "no",
    "defibrillator:location": "untere Ey, Clubhaus FC Dulliken",
    "description": "Während Trainings-und Spielbetrieb offen",
    "emergency": "defibrillator",
    "emergency:phone": "144",
    "indoor": "yes",
    "opening_hours": "Mo - Fr. 17.30 - 21.30",
    "operator": "FC Dulliken",
    "phone": "+41794434462",
    "id": "node/9169730417"
  },
  "geometry": {
    "type": "Point",
    "coordinates": [
      7.9461676,
      47.3566057
    ]
  }
},
{
  "type": "Feature",
  "id": "node/9187600026",
  "properties": {
    "access": "yes",
    "defibrillator:location": "Beim Ausgang vom Gartencenter montiert. Vom Parkplatz her öffentlich zugänglich.",
    "description": "24h verfügbar",
    "emergency": "defibrillator",
    "emergency:phone": "144",
    "indoor": "no",
    "opening_hours": "24/7",
    "operator": "Christian Schluep",
    "phone": "+41 32 686 68 68",
    "id": "node/9187600026"
  },
  "geometry": {
    "type": "Point",
    "coordinates": [
      7.5649855,
      47.2066773
    ]
  }
},
{
  "type": "Feature",
  "id": "node/9187601815",
  "properties": {
    "access": "yes",
    "defibrillator:location": "Am Gebäude sichtbar angebracht",
    "description": "24h verfügbar",
    "emergency": "defibrillator",
    "emergency:phone": "144",
    "indoor": "no",
    "opening_hours": "24/7",
    "operator": "Kläy",
    "phone": "+49326231659",
    "id": "node/9187601815"
  },
  "geometry": {
    "type": "Point",
    "coordinates": [
      7.5320452,
      47.1637145
    ]
  }
},
{
  "type": "Feature",
  "id": "node/9187601816",
  "properties": {
    "access": "yes",
    "defibrillator:location": "an der Hauswand",
    "description": "24h verfügbar",
    "emergency": "defibrillator",
    "emergency:phone": "144",
    "indoor": "no",
    "opening_hours": "24/7",
    "operator": "Neuenschwander Mulden AG",
    "phone": "+49326231659",
    "id": "node/9187601816"
  },
  "geometry": {
    "type": "Point",
    "coordinates": [
      7.5279281,
      47.1640728
    ]
  }
}
]
}
