{
"type": "FeatureCollection",
"features": [
{
  "type": "Feature",
  "id": "node/7813190773",
  "properties": {
    "access": "private",
    "defibrillator:location": "Der Defi befindet sich im Eingangsbereich in einem Notfallschrank mit dem Rettungszeichen versehen.",
    "description": "während Öffnungszeiten verfügbar",
    "emergency": "defibrillator",
    "indoor": "yes",
    "operator": "update Fitness",
    "phone": "144",
    "id": "node/7813190773"
  },
  "geometry": {
    "type": "Point",
    "coordinates": [
      9.5100296,
      47.1546693
    ]
  }
},
{
  "type": "Feature",
  "id": "node/8376540565",
  "properties": {
    "access": "yes",
    "defibrillator:location": "Der Defibrillator befindet sich in einem Wandschrank an der Nordseite des Gebäudes (beim Aussenzugang Lift) an der Rathausgasse",
    "description": "24h verfügbar",
    "emergency": "defibrillator",
    "indoor": "no",
    "opening_hours": "24/7",
    "operator": "Gemeinde Vaduz, Daniel Wenaweser",
    "phone": "+423 7937802",
    "id": "node/8376540565"
  },
  "geometry": {
    "type": "Point",
    "coordinates": [
      9.5218815,
      47.1406857
    ]
  }
},
{
  "type": "Feature",
  "id": "node/8842619417",
  "properties": {
    "access": "yes",
    "defibrillator:location": "Clubhaus Tennisplatz Rüfe",
    "description": "UG vor Garderoben: April-Oktober",
    "emergency": "defibrillator",
    "emergency:phone": "144",
    "indoor": "no",
    "opening_hours": "24/7",
    "operator": "Tennisclub Vaduz",
    "id": "node/8842619417"
  },
  "geometry": {
    "type": "Point",
    "coordinates": [
      9.5221324,
      47.1511592
    ]
  }
},
{
  "type": "Feature",
  "id": "node/8842630421",
  "properties": {
    "access": "no",
    "defibrillator:location": "Tennishalle Schaanerstrasse 42",
    "description": "Ende September-Ende April\nim Gang zwischen den Hallen",
    "emergency": "defibrillator",
    "emergency:phone": "144",
    "indoor": "yes",
    "opening_hours": "Mo-Fr 8-22h",
    "operator": "Tennisclub Vaduz",
    "id": "node/8842630421"
  },
  "geometry": {
    "type": "Point",
    "coordinates": [
      9.5069115,
      47.1510812
    ]
  }
},
{
  "type": "Feature",
  "id": "node/8842630422",
  "properties": {
    "access": "yes",
    "defibrillator:location": "Rathaus Vaduz, Rathausgasse",
    "description": "zwischen Rathaus und Drogerie",
    "emergency": "defibrillator",
    "emergency:phone": "144",
    "indoor": "no",
    "opening_hours": "24/7",
    "operator": "Gemeinde Vaduz",
    "phone": "+423 237 78 78",
    "id": "node/8842630422"
  },
  "geometry": {
    "type": "Point",
    "coordinates": [
      9.5219966,
      47.1408281
    ]
  }
},
{
  "type": "Feature",
  "id": "node/9004556000",
  "properties": {
    "access": "yes",
    "defibrillator:location": "Flur Erdgeschoss",
    "description": "24h verfügbar",
    "emergency": "defibrillator",
    "emergency:phone": "144",
    "indoor": "yes",
    "opening_hours": "24/7",
    "operator": "Thomas Eberle",
    "phone": "+423 263 22 86",
    "id": "node/9004556000"
  },
  "geometry": {
    "type": "Point",
    "coordinates": [
      9.5960319,
      47.1099416
    ]
  }
},
{
  "type": "Feature",
  "id": "node/9004556001",
  "properties": {
    "access": "yes",
    "defibrillator:location": "Schuleingang",
    "description": "24h verfügbar",
    "emergency": "defibrillator",
    "emergency:phone": "144",
    "indoor": "yes",
    "opening_hours": "24/7",
    "operator": "Karlheinz Sele",
    "phone": "+423 792 26 75",
    "id": "node/9004556001"
  },
  "geometry": {
    "type": "Point",
    "coordinates": [
      9.5474035,
      47.1169584
    ]
  }
},
{
  "type": "Feature",
  "id": "node/9004556002",
  "properties": {
    "access": "yes",
    "defibrillator:location": "Einsatzfahrzeug",
    "description": "nur über Notruf 24h erreichbar",
    "emergency": "defibrillator",
    "emergency:phone": "144",
    "indoor": "yes",
    "operator": "Daniel Beck",
    "phone": "+423 237 78 52",
    "id": "node/9004556002"
  },
  "geometry": {
    "type": "Point",
    "coordinates": [
      9.5467517,
      47.1171445
    ]
  }
},
{
  "type": "Feature",
  "id": "node/9004556003",
  "properties": {
    "access": "yes",
    "defibrillator:location": "Garderobe Gemeindesaal",
    "description": "während Öffnungszeiten verfügbar",
    "emergency": "defibrillator",
    "emergency:phone": "144",
    "indoor": "yes",
    "operator": "Wolfgang Schädler, Hausdienst",
    "phone": "+423 792 26 69",
    "id": "node/9004556003"
  },
  "geometry": {
    "type": "Point",
    "coordinates": [
      9.5427847,
      47.1182506
    ]
  }
},
{
  "type": "Feature",
  "id": "node/9004556004",
  "properties": {
    "access": "yes",
    "defibrillator:location": "Eingang Warteraum",
    "description": "während Öffnungszeiten verfügbar",
    "emergency": "defibrillator",
    "emergency:phone": "144",
    "indoor": "yes",
    "opening_hours": "Mo-Fr 08:00-12:00, 13:30-17:00",
    "operator": "Wolfgang Schädler, Hausdienst",
    "phone": "+423 792 26 69",
    "id": "node/9004556004"
  },
  "geometry": {
    "type": "Point",
    "coordinates": [
      9.5432273,
      47.1179677
    ]
  }
},
{
  "type": "Feature",
  "id": "node/9004556005",
  "properties": {
    "access": "yes",
    "defibrillator:location": "Sanitätsraum",
    "description": "24h verfügbar",
    "emergency": "defibrillator",
    "emergency:phone": "144",
    "indoor": "yes",
    "opening_hours": "24/7",
    "operator": "Ottokar Schädler",
    "phone": "+423 792 26 70",
    "id": "node/9004556005"
  },
  "geometry": {
    "type": "Point",
    "coordinates": [
      9.5395929,
      47.1146421
    ]
  }
},
{
  "type": "Feature",
  "id": "node/9004556006",
  "properties": {
    "access": "yes",
    "defibrillator:location": "in Sakristei",
    "description": "während Öffnungszeiten verfügbar",
    "emergency": "defibrillator",
    "emergency:phone": "144",
    "indoor": "yes",
    "opening_hours": "Mo-Fr 08:00-12:00, 13:30-17:00",
    "operator": "U. Vogt",
    "phone": "+41 79 698 93 11",
    "id": "node/9004556006"
  },
  "geometry": {
    "type": "Point",
    "coordinates": [
      9.5022404,
      47.0652987
    ]
  }
},
{
  "type": "Feature",
  "id": "node/9004556007",
  "properties": {
    "access": "yes",
    "defibrillator:location": "Haupteingang / EVAK",
    "description": "während Öffnungszeiten verfügbar",
    "emergency": "defibrillator",
    "emergency:phone": "144",
    "indoor": "yes",
    "opening_hours": "Mo-Fr 08:00-12:00, 13:30-17:00",
    "operator": "H. Vogt",
    "phone": "+41 78 757 90 33",
    "id": "node/9004556007"
  },
  "geometry": {
    "type": "Point",
    "coordinates": [
      9.5015967,
      47.0669576
    ]
  }
},
{
  "type": "Feature",
  "id": "node/9004556008",
  "properties": {
    "access": "yes",
    "defibrillator:location": "Gemeindesaal im Foyer",
    "description": "während Öffnungszeiten verfügbar",
    "emergency": "defibrillator",
    "emergency:phone": "144",
    "indoor": "yes",
    "opening_hours": "Mo-Fr 08:00-12:00, 13:30-17:00",
    "operator": "Franco Rotunno",
    "phone": "+41 79 344 59 16",
    "id": "node/9004556008"
  },
  "geometry": {
    "type": "Point",
    "coordinates": [
      9.5023155,
      47.0667895
    ]
  }
},
{
  "type": "Feature",
  "id": "node/9004556009",
  "properties": {
    "access": "yes",
    "defibrillator:location": "Turnhalle - Korridor",
    "description": "während Öffnungszeiten verfügbar",
    "emergency": "defibrillator",
    "emergency:phone": "144",
    "indoor": "yes",
    "opening_hours": "Mo-Fr 08:00-12:00, 13:30-17:00",
    "operator": "G. Wolfinger",
    "phone": "+41 79 634 07 87",
    "id": "node/9004556009"
  },
  "geometry": {
    "type": "Point",
    "coordinates": [
      9.5020473,
      47.067513
    ]
  }
},
{
  "type": "Feature",
  "id": "node/9004556010",
  "properties": {
    "access": "yes",
    "defibrillator:location": "Bademeisterkabine",
    "description": "während Öffnungszeiten verfügbar",
    "emergency": "defibrillator",
    "emergency:phone": "144",
    "indoor": "yes",
    "opening_hours": "Mo-Fr 08:00-22:00",
    "operator": "C.Kaufmann",
    "phone": "+41 78 802 10 79",
    "id": "node/9004556010"
  },
  "geometry": {
    "type": "Point",
    "coordinates": [
      9.5027715,
      47.0674838
    ]
  }
},
{
  "type": "Feature",
  "id": "node/9004556011",
  "properties": {
    "access": "yes",
    "defibrillator:location": "Haupteingang",
    "description": "während Öffnungszeiten verfügbar",
    "emergency": "defibrillator",
    "emergency:phone": "144",
    "indoor": "yes",
    "opening_hours": "Mo-Fr 08:00-12:00, 13:30-17:00",
    "operator": "S. Yousufi",
    "phone": "+41 79 639 33 13",
    "id": "node/9004556011"
  },
  "geometry": {
    "type": "Point",
    "coordinates": [
      9.4953606,
      47.0733297
    ]
  }
},
{
  "type": "Feature",
  "id": "node/9004556012",
  "properties": {
    "access": "yes",
    "defibrillator:location": "Einsatzfahrzeug",
    "description": "während Öffnungszeiten verfügbar",
    "emergency": "defibrillator",
    "emergency:phone": "144",
    "indoor": "yes",
    "opening_hours": "Mo-Fr 08:00-12:00, 13:30-17:00",
    "operator": "Esther Kaufmann",
    "phone": "+423 384 31 20",
    "id": "node/9004556012"
  },
  "geometry": {
    "type": "Point",
    "coordinates": [
      9.5127118,
      47.0790215
    ]
  }
},
{
  "type": "Feature",
  "id": "node/9004556013",
  "properties": {
    "access": "yes",
    "defibrillator:location": "Pfarrkirche Eingang links, Sitzungszimmer",
    "description": "während Öffnungszeiten verfügbar",
    "emergency": "defibrillator",
    "emergency:phone": "144",
    "indoor": "yes",
    "opening_hours": "Mo-Fr 08:00-12:00, 13:30-17:00",
    "operator": "Heinz Rüdisühli, Gemeindepolizei",
    "phone": "+423 792 36 42",
    "id": "node/9004556013"
  },
  "geometry": {
    "type": "Point",
    "coordinates": [
      9.5303231,
      47.1064621
    ]
  }
},
{
  "type": "Feature",
  "id": "node/9004556014",
  "properties": {
    "access": "yes",
    "defibrillator:location": "LAK Haus, Sekretariat",
    "description": "24h verfügbar",
    "emergency": "defibrillator",
    "emergency:phone": "144",
    "indoor": "yes",
    "opening_hours": "24/7",
    "operator": "Sekretariat",
    "phone": "+423 399 15 00",
    "id": "node/9004556014"
  },
  "geometry": {
    "type": "Point",
    "coordinates": [
      9.5253959,
      47.1044959
    ]
  }
},
{
  "type": "Feature",
  "id": "node/9004556015",
  "properties": {
    "access": "yes",
    "defibrillator:location": "Im Schuleingang vor dem Sekretariat",
    "description": "während Öffnungszeiten verfügbar",
    "emergency": "defibrillator",
    "emergency:phone": "144",
    "indoor": "yes",
    "opening_hours": "Mo-Fr 08:00-12:00, 13:30-17:00",
    "operator": "Hauswart",
    "phone": "+423 399 21 90",
    "id": "node/9004556015"
  },
  "geometry": {
    "type": "Point",
    "coordinates": [
      9.526611,
      47.1053813
    ]
  }
},
{
  "type": "Feature",
  "id": "node/9004556016",
  "properties": {
    "access": "yes",
    "defibrillator:location": "Bademeisterkabine",
    "description": "während Öffnungszeiten verfügbar",
    "emergency": "defibrillator",
    "emergency:phone": "144",
    "indoor": "yes",
    "opening_hours": "Mo-Fr 08:00-12:00, 13:30-17:00",
    "operator": "Bademeister",
    "phone": "+423 392 34 94",
    "id": "node/9004556016"
  },
  "geometry": {
    "type": "Point",
    "coordinates": [
      9.5260477,
      47.1057958
    ]
  }
},
{
  "type": "Feature",
  "id": "node/9004557417",
  "properties": {
    "access": "yes",
    "defibrillator:location": "Einsatzfahrzeug",
    "description": "nur über Notruf 24h erreichbar",
    "emergency": "defibrillator",
    "emergency:phone": "144",
    "indoor": "yes",
    "opening_hours": "24/7",
    "operator": "Mirco Beck",
    "phone": "+41 79 241 16 84",
    "id": "node/9004557417"
  },
  "geometry": {
    "type": "Point",
    "coordinates": [
      9.5235023,
      47.1098266
    ]
  }
},
{
  "type": "Feature",
  "id": "node/9004557418",
  "properties": {
    "access": "yes",
    "defibrillator:location": "Saaleingang",
    "description": "während Öffnungszeiten verfügbar",
    "emergency": "defibrillator",
    "emergency:phone": "144",
    "indoor": "yes",
    "opening_hours": "Mo-Fr 08:00-12:00, 13:30-17:00",
    "operator": "Heinz Rüdisühli, Gemeindepolizei",
    "phone": "+423 792 36 42",
    "id": "node/9004557418"
  },
  "geometry": {
    "type": "Point",
    "coordinates": [
      9.5236579,
      47.1101662
    ]
  }
},
{
  "type": "Feature",
  "id": "node/9004557419",
  "properties": {
    "access": "yes",
    "defibrillator:location": "Feuerwehr im TLF",
    "emergency": "defibrillator",
    "emergency:phone": "144",
    "indoor": "yes",
    "operator": "Alex Rehak",
    "phone": "+41 79 861 93 21",
    "id": "node/9004557419"
  },
  "geometry": {
    "type": "Point",
    "coordinates": [
      9.5217079,
      47.1105386
    ]
  }
},
{
  "type": "Feature",
  "id": "node/9004557420",
  "properties": {
    "access": "yes",
    "defibrillator:location": "Haupteingang rechts",
    "description": "während Öffnungszeiten verfügbar",
    "emergency": "defibrillator",
    "emergency:phone": "144",
    "indoor": "yes",
    "opening_hours": "Mo-Fr 07:00-17:00",
    "operator": "Anmeldung",
    "phone": "+423 399 55 11",
    "id": "node/9004557420"
  },
  "geometry": {
    "type": "Point",
    "coordinates": [
      9.5215684,
      47.1093264
    ]
  }
},
{
  "type": "Feature",
  "id": "node/9004557421",
  "properties": {
    "access": "yes",
    "defibrillator:location": "Haupteingang Ost",
    "description": "während Öffnungszeiten verfügbar",
    "emergency": "defibrillator",
    "emergency:phone": "144",
    "indoor": "yes",
    "opening_hours": "Mo-Fr 08:00-12:00, 13:30-17:00",
    "operator": "Heinz Rüdisühli",
    "phone": "+423 236 36 42",
    "id": "node/9004557421"
  },
  "geometry": {
    "type": "Point",
    "coordinates": [
      9.5202327,
      47.110701
    ]
  }
},
{
  "type": "Feature",
  "id": "node/9004557422",
  "properties": {
    "access": "yes",
    "defibrillator:location": "Haupteingang EG links",
    "description": "während Öffnungszeiten verfügbar",
    "emergency": "defibrillator",
    "emergency:phone": "144",
    "indoor": "yes",
    "opening_hours": "Mo-Fr 08:00-12:00, 13:30-17:00",
    "operator": "Büchel Willi, Hausdienst",
    "phone": "+423 236 75 43",
    "id": "node/9004557422"
  },
  "geometry": {
    "type": "Point",
    "coordinates": [
      9.5195675,
      47.119959
    ]
  }
},
{
  "type": "Feature",
  "id": "node/9004557423",
  "properties": {
    "access": "yes",
    "defibrillator:location": "Haupteingang EG",
    "description": "während Öffnungszeiten verfügbar",
    "emergency": "defibrillator",
    "emergency:phone": "144",
    "indoor": "yes",
    "opening_hours": "Mo-Fr 08:00-11:30, 13:30-17:00",
    "operator": "Karin Pirchler",
    "phone": "+423 236 60 37",
    "id": "node/9004557423"
  },
  "geometry": {
    "type": "Point",
    "coordinates": [
      9.5241353,
      47.1234905
    ]
  }
},
{
  "type": "Feature",
  "id": "node/9004557424",
  "properties": {
    "access": "yes",
    "defibrillator:location": "in den Fahrzeugen",
    "emergency": "defibrillator",
    "emergency:phone": "144",
    "indoor": "yes",
    "id": "node/9004557424"
  },
  "geometry": {
    "type": "Point",
    "coordinates": [
      9.5218608,
      47.1263466
    ]
  }
},
{
  "type": "Feature",
  "id": "node/9004557425",
  "properties": {
    "access": "yes",
    "defibrillator:location": "Haupteingang Anmeldung",
    "description": "24h verfügbar",
    "emergency": "defibrillator",
    "emergency:phone": "144",
    "indoor": "yes",
    "opening_hours": "24/7",
    "operator": "Samuel Kind",
    "phone": "+423 236 79 87",
    "id": "node/9004557425"
  },
  "geometry": {
    "type": "Point",
    "coordinates": [
      9.5221424,
      47.1260601
    ]
  }
},
{
  "type": "Feature",
  "id": "node/9004557426",
  "properties": {
    "access": "yes",
    "defibrillator:location": "Eingang Schulungsgebäude",
    "description": "während Öffnungszeiten verfügbar",
    "emergency": "defibrillator",
    "emergency:phone": "144",
    "indoor": "yes",
    "opening_hours": "Mo-Fr 08:00-12:00, 13:30-17:00",
    "operator": "Ewald Walch",
    "phone": "+423 236 69 20",
    "id": "node/9004557426"
  },
  "geometry": {
    "type": "Point",
    "coordinates": [
      9.5144606,
      47.1319562
    ]
  }
},
{
  "type": "Feature",
  "id": "node/9004557427",
  "properties": {
    "access": "yes",
    "defibrillator:location": "Haupteingang, Rechts",
    "description": "während Öffnungszeiten verfügbar",
    "emergency": "defibrillator",
    "emergency:phone": "144",
    "indoor": "yes",
    "opening_hours": "Mo-Fr 08:00-12:00, 13:30-17:00",
    "operator": "Thobias Volmar",
    "phone": "+423 789 78 50",
    "id": "node/9004557427"
  },
  "geometry": {
    "type": "Point",
    "coordinates": [
      9.513562,
      47.1328996
    ]
  }
},
{
  "type": "Feature",
  "id": "node/9004557428",
  "properties": {
    "access": "yes",
    "defibrillator:location": "Bürohaus beim Empfang 2.OG",
    "description": "während Öffnungszeiten verfügbar",
    "emergency": "defibrillator",
    "emergency:phone": "144",
    "indoor": "yes",
    "opening_hours": "Mo-Fr 08:00-12:00, 13:30-17:00",
    "operator": "Uwe Negele",
    "phone": "+423 236 71 79",
    "id": "node/9004557428"
  },
  "geometry": {
    "type": "Point",
    "coordinates": [
      9.5223704,
      47.1332444
    ]
  }
},
{
  "type": "Feature",
  "id": "node/9004557429",
  "properties": {
    "access": "yes",
    "defibrillator:location": "LAK Haus, Garderobe",
    "description": "24h verfügbar",
    "emergency": "defibrillator",
    "emergency:phone": "144",
    "indoor": "yes",
    "opening_hours": "24/7",
    "operator": "Sekretariat",
    "phone": "+423 239 12 12",
    "id": "node/9004557429"
  },
  "geometry": {
    "type": "Point",
    "coordinates": [
      9.5230329,
      47.1355362
    ]
  }
},
{
  "type": "Feature",
  "id": "node/9004557430",
  "properties": {
    "access": "yes",
    "defibrillator:location": "Haupteingang Empfang",
    "description": "während Öffnungszeiten verfügbar",
    "emergency": "defibrillator",
    "emergency:phone": "144",
    "indoor": "yes",
    "opening_hours": "Mo-Fr 08:00-12:00, 13:30-17:00",
    "operator": "Monika Wetter",
    "phone": "+423 236 76 25",
    "id": "node/9004557430"
  },
  "geometry": {
    "type": "Point",
    "coordinates": [
      9.521952,
      47.1358847
    ]
  }
},
{
  "type": "Feature",
  "id": "node/9004557431",
  "properties": {
    "access": "yes",
    "defibrillator:location": "Eingang 1.OG",
    "description": "während Öffnungszeiten verfügbar",
    "emergency": "defibrillator",
    "emergency:phone": "144",
    "indoor": "yes",
    "opening_hours": "Mo-Fr 08:00-12:00, 13:30-17:00",
    "operator": "Sekretariat Zentrale",
    "phone": "+423 236 64 00",
    "id": "node/9004557431"
  },
  "geometry": {
    "type": "Point",
    "coordinates": [
      9.5191222,
      47.1374046
    ]
  }
},
{
  "type": "Feature",
  "id": "node/9004557432",
  "properties": {
    "access": "yes",
    "defibrillator:location": "Haupteingang kleines Lager",
    "description": "während Öffnungszeiten verfügbar",
    "emergency": "defibrillator",
    "emergency:phone": "144",
    "indoor": "yes",
    "opening_hours": "Mo-Fr 08:00-12:00, 13:30-17:00",
    "operator": "Rainer Oseplt, Techniker",
    "phone": "+423 789 78 28",
    "id": "node/9004557432"
  },
  "geometry": {
    "type": "Point",
    "coordinates": [
      9.5188701,
      47.1385048
    ]
  }
},
{
  "type": "Feature",
  "id": "node/9004557433",
  "properties": {
    "access": "yes",
    "defibrillator:location": "Haupteingang EG",
    "description": "während Öffnungszeiten verfügbar",
    "emergency": "defibrillator",
    "emergency:phone": "144",
    "indoor": "yes",
    "opening_hours": "Mo-Fr 08:00-12:00, 13:30-17:00",
    "operator": "Sandra Frick",
    "phone": "+423 236 69 26",
    "id": "node/9004557433"
  },
  "geometry": {
    "type": "Point",
    "coordinates": [
      9.5230785,
      47.1365963
    ]
  }
},
{
  "type": "Feature",
  "id": "node/9004557434",
  "properties": {
    "access": "yes",
    "defibrillator:location": "Eingang Grundbuch",
    "description": "während Öffnungszeiten verfügbar",
    "emergency": "defibrillator",
    "emergency:phone": "144",
    "indoor": "yes",
    "opening_hours": "Mo-Fr 08:00-12:00, 13:30-17:00",
    "operator": "Norbert Gassner",
    "phone": "+423 236 62 44",
    "id": "node/9004557434"
  },
  "geometry": {
    "type": "Point",
    "coordinates": [
      9.5211044,
      47.137379
    ]
  }
},
{
  "type": "Feature",
  "id": "node/9004557435",
  "properties": {
    "access": "yes",
    "defibrillator:location": "Haupteingang EG",
    "description": "während Öffnungszeiten verfügbar",
    "emergency": "defibrillator",
    "emergency:phone": "144",
    "indoor": "yes",
    "opening_hours": "Mo-Fr 08:00-12:00, 13:30-17:00",
    "operator": "Telefonzentrale",
    "phone": "+423 236 61 11",
    "id": "node/9004557435"
  },
  "geometry": {
    "type": "Point",
    "coordinates": [
      9.5227218,
      47.1370889
    ]
  }
},
{
  "type": "Feature",
  "id": "node/9004557436",
  "properties": {
    "access": "yes",
    "defibrillator:location": "Information Tourismusbüro",
    "description": "während Öffnungszeiten verfügbar",
    "emergency": "defibrillator",
    "emergency:phone": "144",
    "indoor": "yes",
    "opening_hours": "Mo-Fr 08:00-12:00, 13:30-17:00",
    "operator": "Auskunft",
    "phone": "+423 239 63 00",
    "id": "node/9004557436"
  },
  "geometry": {
    "type": "Point",
    "coordinates": [
      9.5226654,
      47.1384692
    ]
  }
},
{
  "type": "Feature",
  "id": "node/9004557437",
  "properties": {
    "access": "yes",
    "defibrillator:location": "Haupteingang LLV, EG",
    "description": "während Öffnungszeiten verfügbar",
    "emergency": "defibrillator",
    "emergency:phone": "144",
    "indoor": "yes",
    "opening_hours": "Mo-Fr 08:00-12:00, 13:30-17:00",
    "operator": "Timo Keckeis",
    "phone": "+423 236 62 73",
    "id": "node/9004557437"
  },
  "geometry": {
    "type": "Point",
    "coordinates": [
      9.5219533,
      47.138492
    ]
  }
},
{
  "type": "Feature",
  "id": "node/9004557438",
  "properties": {
    "access": "yes",
    "defibrillator:location": "Haupteingang West",
    "description": "während Öffnungszeiten verfügbar",
    "emergency": "defibrillator",
    "emergency:phone": "144",
    "indoor": "yes",
    "opening_hours": "Mo-Fr 08:00-12:00, 13:30-17:00",
    "operator": "Markus Heeb, Hausdienst",
    "phone": "+423 233 40 58",
    "id": "node/9004557438"
  },
  "geometry": {
    "type": "Point",
    "coordinates": [
      9.5217951,
      47.1390421
    ]
  }
},
{
  "type": "Feature",
  "id": "node/9004557439",
  "properties": {
    "access": "yes",
    "defibrillator:location": "Haupteingang Nordgebäude",
    "description": "während Öffnungszeiten verfügbar",
    "emergency": "defibrillator",
    "emergency:phone": "144",
    "indoor": "yes",
    "opening_hours": "Mo-Fr 08:00-12:00, 13:30-17:00",
    "operator": "Mario Riezler",
    "phone": "+423 789 78 39",
    "id": "node/9004557439"
  },
  "geometry": {
    "type": "Point",
    "coordinates": [
      9.5106679,
      47.1407051
    ]
  }
},
{
  "type": "Feature",
  "id": "node/9004557440",
  "properties": {
    "access": "yes",
    "defibrillator:location": "Haupteingang Ostgebäude",
    "description": "während Öffnungszeiten verfügbar",
    "emergency": "defibrillator",
    "emergency:phone": "144",
    "indoor": "yes",
    "opening_hours": "Mo-Fr 08:00-12:00, 13:30-17:00",
    "operator": "Mario Riezler",
    "phone": "+423 789 78 39",
    "id": "node/9004557440"
  },
  "geometry": {
    "type": "Point",
    "coordinates": [
      9.5097989,
      47.1411284
    ]
  }
},
{
  "type": "Feature",
  "id": "node/9004557441",
  "properties": {
    "access": "yes",
    "defibrillator:location": "Samariterauto",
    "description": "während Öffnungszeiten verfügbar",
    "emergency": "defibrillator",
    "emergency:phone": "144",
    "indoor": "yes",
    "opening_hours": "Mo-Fr 08:00-12:00, 13:30-17:00",
    "operator": "Xavier Frick",
    "phone": "+423 230 08 08",
    "id": "node/9004557441"
  },
  "geometry": {
    "type": "Point",
    "coordinates": [
      9.5111534,
      47.1472453
    ]
  }
},
{
  "type": "Feature",
  "id": "node/9004557442",
  "properties": {
    "access": "yes",
    "defibrillator:location": "Theorieraum",
    "emergency": "defibrillator",
    "emergency:phone": "144",
    "indoor": "yes",
    "operator": "Peter Saler",
    "phone": "+41 79 628 21 24",
    "id": "node/9004557442"
  },
  "geometry": {
    "type": "Point",
    "coordinates": [
      9.5113304,
      47.147041
    ]
  }
},
{
  "type": "Feature",
  "id": "node/9004557443",
  "properties": {
    "access": "yes",
    "defibrillator:location": "im TLF",
    "description": "während Öffnungszeiten verfügbar",
    "emergency": "defibrillator",
    "emergency:phone": "144",
    "indoor": "yes",
    "opening_hours": "Mo-Fr 08:00-12:00, 13:30-17:00",
    "operator": "Jürgen Beck, Materialwart",
    "phone": "+423 789 78 57",
    "id": "node/9004557443"
  },
  "geometry": {
    "type": "Point",
    "coordinates": [
      9.5110756,
      47.146979
    ]
  }
},
{
  "type": "Feature",
  "id": "node/9004557444",
  "properties": {
    "access": "yes",
    "defibrillator:location": "Zentrale Servicestelle",
    "description": "während Öffnungszeiten verfügbar",
    "emergency": "defibrillator",
    "emergency:phone": "144",
    "indoor": "yes",
    "opening_hours": "Mo-Fr 07:00-22:00",
    "operator": "Kurt Hasler",
    "phone": "+423 265 12 38",
    "id": "node/9004557444"
  },
  "geometry": {
    "type": "Point",
    "coordinates": [
      9.5164883,
      47.1493085
    ]
  }
},
{
  "type": "Feature",
  "id": "node/9004557445",
  "properties": {
    "access": "yes",
    "defibrillator:location": "Sanitätsraum Erdgeschoss",
    "description": "während Öffnungszeiten verfügbar",
    "emergency": "defibrillator",
    "emergency:phone": "144",
    "indoor": "yes",
    "opening_hours": "Mo-Fr 08:00-12:00, 13:30-17:00",
    "operator": "Wolfgang Hasler",
    "phone": "+423 789 78 30",
    "id": "node/9004557445"
  },
  "geometry": {
    "type": "Point",
    "coordinates": [
      9.5163381,
      47.1499031
    ]
  }
},
{
  "type": "Feature",
  "id": "node/9004557446",
  "properties": {
    "access": "yes",
    "defibrillator:location": "FMA, Kundenempfang",
    "description": "während Öffnungszeiten verfügbar",
    "emergency": "defibrillator",
    "emergency:phone": "144",
    "indoor": "yes",
    "opening_hours": "Mo-Fr 07:00-12:00, 13:30-17:00",
    "operator": "Heinz Schädler, Hausdienst",
    "phone": "+423 236 62 35",
    "id": "node/9004557446"
  },
  "geometry": {
    "type": "Point",
    "coordinates": [
      9.5109495,
      47.1516141
    ]
  }
},
{
  "type": "Feature",
  "id": "node/9004557447",
  "properties": {
    "access": "yes",
    "defibrillator:location": "Sanitätsraum Schwimmbad",
    "description": "während Öffnungszeiten verfügbar",
    "emergency": "defibrillator",
    "emergency:phone": "144",
    "indoor": "yes",
    "opening_hours": "Mo-Fr 08:00-22:00",
    "operator": "René Ott, Bademeister",
    "phone": "+423 232 24 77",
    "id": "node/9004557447"
  },
  "geometry": {
    "type": "Point",
    "coordinates": [
      9.5061994,
      47.152528
    ]
  }
},
{
  "type": "Feature",
  "id": "node/9004557448",
  "properties": {
    "access": "yes",
    "defibrillator:location": "Konrad Hanno",
    "description": "während Öffnungszeiten verfügbar",
    "emergency": "defibrillator",
    "emergency:phone": "144",
    "indoor": "yes",
    "opening_hours": "Mo-Fr 07:00-12:00, 13:30-17:00",
    "operator": "Edelgard Schurte",
    "phone": "+423 237 72 44",
    "id": "node/9004557448"
  },
  "geometry": {
    "type": "Point",
    "coordinates": [
      9.5081292,
      47.1576578
    ]
  }
},
{
  "type": "Feature",
  "id": "node/9004557449",
  "properties": {
    "access": "yes",
    "defibrillator:location": "Öffentliches WC",
    "description": "24h verfügbar",
    "emergency": "defibrillator",
    "emergency:phone": "144",
    "indoor": "yes",
    "opening_hours": "24/7",
    "operator": "Alex Steiger, SIBE",
    "phone": "+423 237 72 44",
    "id": "node/9004557449"
  },
  "geometry": {
    "type": "Point",
    "coordinates": [
      9.5274881,
      47.1674173
    ]
  }
},
{
  "type": "Feature",
  "id": "node/9004557450",
  "properties": {
    "access": "yes",
    "defibrillator:location": "Eingang zum Gemeindezentrum",
    "description": "während Öffnungszeiten verfügbar",
    "emergency": "defibrillator",
    "emergency:phone": "144",
    "indoor": "yes",
    "opening_hours": "Mo-Fr 08:00-22:00",
    "operator": "Alex Steiger, SIBE",
    "phone": "+423 237 72 44",
    "id": "node/9004557450"
  },
  "geometry": {
    "type": "Point",
    "coordinates": [
      9.5157158,
      47.1665019
    ]
  }
},
{
  "type": "Feature",
  "id": "node/9004557451",
  "properties": {
    "access": "yes",
    "defibrillator:location": "Hallenbad Resch im Foyer",
    "description": "während Öffnungszeiten verfügbar",
    "emergency": "defibrillator",
    "emergency:phone": "144",
    "indoor": "yes",
    "opening_hours": "Mo-Su 07:00-22:00",
    "operator": "Alex Steiger, SIBE",
    "phone": "+423 237 72 44",
    "id": "node/9004557451"
  },
  "geometry": {
    "type": "Point",
    "coordinates": [
      9.5150962,
      47.1661955
    ]
  }
},
{
  "type": "Feature",
  "id": "node/9004557452",
  "properties": {
    "access": "yes",
    "defibrillator:location": "Ladenlokal im Gang",
    "description": "während Öffnungszeiten verfügbar",
    "emergency": "defibrillator",
    "emergency:phone": "144",
    "indoor": "yes",
    "opening_hours": "Mo-Fr 08:00-12:00, 13:30-17:00",
    "operator": "Gottlieb Sele, Installtionskontrolle",
    "id": "node/9004557452"
  },
  "geometry": {
    "type": "Point",
    "coordinates": [
      9.5087045,
      47.1653384
    ]
  }
},
{
  "type": "Feature",
  "id": "node/9004557453",
  "properties": {
    "access": "yes",
    "defibrillator:location": "Gemeindeverwaltung",
    "description": "24h verfügbar",
    "emergency": "defibrillator",
    "emergency:phone": "144",
    "indoor": "yes",
    "opening_hours": "24/7",
    "operator": "Alex Steiger, SIBE",
    "phone": "+423 237 72 44",
    "id": "node/9004557453"
  },
  "geometry": {
    "type": "Point",
    "coordinates": [
      9.509882,
      47.1659721
    ]
  }
},
{
  "type": "Feature",
  "id": "node/9004557454",
  "properties": {
    "access": "yes",
    "defibrillator:location": "Gemeindepolizei im Auto",
    "description": "24h verfügbar",
    "emergency": "defibrillator",
    "emergency:phone": "144",
    "indoor": "yes",
    "opening_hours": "24/7",
    "operator": "Alex Steiger, SIBE",
    "phone": "+423 237 72 44",
    "id": "node/9004557454"
  },
  "geometry": {
    "type": "Point",
    "coordinates": [
      9.5096675,
      47.1661663
    ]
  }
},
{
  "type": "Feature",
  "id": "node/9004557455",
  "properties": {
    "access": "yes",
    "defibrillator:location": "öffentlicher Durchgang beim WC",
    "description": "24h verfügbar",
    "emergency": "defibrillator",
    "emergency:phone": "144",
    "indoor": "yes",
    "opening_hours": "24/7",
    "operator": "Alex Steiger, SIBE",
    "phone": "+423 237 72 44",
    "id": "node/9004557455"
  },
  "geometry": {
    "type": "Point",
    "coordinates": [
      9.5098203,
      47.1665019
    ]
  }
},
{
  "type": "Feature",
  "id": "node/9004557456",
  "properties": {
    "access": "yes",
    "defibrillator:location": "Haus der Wirtschaft: Eingang EG",
    "description": "während Öffnungszeiten verfügbar",
    "emergency": "defibrillator",
    "emergency:phone": "144",
    "indoor": "yes",
    "opening_hours": "Mo-Fr 08:00-12:00, 13:30-17:00",
    "operator": "Empfang",
    "phone": "+423 236 71 00",
    "id": "node/9004557456"
  },
  "geometry": {
    "type": "Point",
    "coordinates": [
      9.5099196,
      47.1677036
    ]
  }
},
{
  "type": "Feature",
  "id": "node/9004557457",
  "properties": {
    "access": "yes",
    "defibrillator:location": "Verwaltungsgebäude Post",
    "description": "während Öffnungszeiten verfügbar",
    "emergency": "defibrillator",
    "emergency:phone": "144",
    "indoor": "yes",
    "opening_hours": "Mo-Fr 08:00-12:00, 13:30-17:00",
    "operator": "Erich Lotzer, Hausdienst",
    "phone": "+423 236 72 89",
    "id": "node/9004557457"
  },
  "geometry": {
    "type": "Point",
    "coordinates": [
      9.5083961,
      47.1676963
    ]
  }
},
{
  "type": "Feature",
  "id": "node/9004557458",
  "properties": {
    "access": "yes",
    "defibrillator:location": "LAK Haus in Cafeteria",
    "description": "24h verfügbar",
    "emergency": "defibrillator",
    "emergency:phone": "144",
    "indoor": "yes",
    "opening_hours": "24/7",
    "operator": "Sekretariat",
    "phone": "+423 236 47 47",
    "id": "node/9004557458"
  },
  "geometry": {
    "type": "Point",
    "coordinates": [
      9.5080823,
      47.1690001
    ]
  }
},
{
  "type": "Feature",
  "id": "node/9004557459",
  "properties": {
    "access": "yes",
    "defibrillator:location": "Empfang",
    "description": "24h verfügbar",
    "emergency": "defibrillator",
    "emergency:phone": "144",
    "indoor": "yes",
    "opening_hours": "24/7",
    "operator": "Hansjörg Steiner, Kommandant",
    "phone": "+423 235 35 35",
    "id": "node/9004557459"
  },
  "geometry": {
    "type": "Point",
    "coordinates": [
      9.5096433,
      47.1716969
    ]
  }
},
{
  "type": "Feature",
  "id": "node/9004557460",
  "properties": {
    "access": "yes",
    "defibrillator:location": "Werkhof im Flur",
    "description": "24h verfügbar",
    "emergency": "defibrillator",
    "emergency:phone": "144",
    "indoor": "yes",
    "opening_hours": "24/7",
    "operator": "Alex Steiger, SIBE",
    "phone": "+423 237 72 44",
    "id": "node/9004557460"
  },
  "geometry": {
    "type": "Point",
    "coordinates": [
      9.5119125,
      47.1712083
    ]
  }
},
{
  "type": "Feature",
  "id": "node/9004557461",
  "properties": {
    "access": "yes",
    "defibrillator:location": "Feuerwehr Schaan",
    "description": "nur über Notruf 24h erreichbar",
    "emergency": "defibrillator",
    "emergency:phone": "144",
    "indoor": "yes",
    "opening_hours": "24/7",
    "operator": "Alex Steiger, SIBE",
    "phone": "+423 237 72 44",
    "id": "node/9004557461"
  },
  "geometry": {
    "type": "Point",
    "coordinates": [
      9.5124274,
      47.1712994
    ]
  }
},
{
  "type": "Feature",
  "id": "node/9004557462",
  "properties": {
    "access": "yes",
    "defibrillator:location": "Anmeldung Links nach Eingang",
    "description": "während Öffnungszeiten verfügbar",
    "emergency": "defibrillator",
    "emergency:phone": "144",
    "indoor": "yes",
    "opening_hours": "Mo-Fr 08:00-12:00, 13:30-17:00",
    "operator": "Manuela Koch",
    "phone": "+423 236 01 11",
    "id": "node/9004557462"
  },
  "geometry": {
    "type": "Point",
    "coordinates": [
      9.5112392,
      47.1748312
    ]
  }
},
{
  "type": "Feature",
  "id": "node/9004557463",
  "properties": {
    "access": "yes",
    "defibrillator:location": "Erster Stock gegenüber Lift",
    "description": "während Öffnungszeiten verfügbar",
    "emergency": "defibrillator",
    "emergency:phone": "144",
    "indoor": "yes",
    "opening_hours": "Mo-Fr 08:00-16:00",
    "operator": "Fredy Kindle SIBE",
    "phone": "+423 239 61 70",
    "id": "node/9004557463"
  },
  "geometry": {
    "type": "Point",
    "coordinates": [
      9.5128432,
      47.1745942
    ]
  }
},
{
  "type": "Feature",
  "id": "node/9004557464",
  "properties": {
    "access": "yes",
    "defibrillator:location": "Im Werk 1",
    "description": "während Öffnungszeiten verfügbar",
    "emergency": "defibrillator",
    "emergency:phone": "144",
    "indoor": "yes",
    "operator": "Leiter Werkschutz",
    "phone": "+423 234 22 01",
    "id": "node/9004557464"
  },
  "geometry": {
    "type": "Point",
    "coordinates": [
      9.5244276,
      47.1793582
    ]
  }
},
{
  "type": "Feature",
  "id": "node/9004557465",
  "properties": {
    "access": "yes",
    "defibrillator:location": "Ospelt: Portier/Securitasloge",
    "description": "24h verfügbar",
    "emergency": "defibrillator",
    "emergency:phone": "144",
    "indoor": "yes",
    "opening_hours": "24/7",
    "operator": "Securitas",
    "phone": "+41 58 377 11 10",
    "id": "node/9004557465"
  },
  "geometry": {
    "type": "Point",
    "coordinates": [
      9.5013177,
      47.2002032
    ]
  }
},
{
  "type": "Feature",
  "id": "node/9004557466",
  "properties": {
    "access": "yes",
    "defibrillator:location": "Schekolin: Eingang Technikgebäude",
    "description": "während Öffnungszeiten verfügbar",
    "emergency": "defibrillator",
    "emergency:phone": "144",
    "indoor": "yes",
    "opening_hours": "Mo-Fr 06:00-20:00",
    "operator": "Jürgen Ritter, BFW Kdt",
    "phone": "+423 375 75 92",
    "id": "node/9004557466"
  },
  "geometry": {
    "type": "Point",
    "coordinates": [
      9.5037639,
      47.2064464
    ]
  }
},
{
  "type": "Feature",
  "id": "node/9004557467",
  "properties": {
    "access": "yes",
    "defibrillator:location": "Gemeindesaal in der Küche",
    "description": "während Öffnungszeiten verfügbar",
    "emergency": "defibrillator",
    "emergency:phone": "144",
    "indoor": "yes",
    "opening_hours": "Mo-Fr 08:00-12:00, 13:30-17:00",
    "operator": "Marco Hasler, Hausdienst",
    "phone": "+423 375 91 20",
    "id": "node/9004557467"
  },
  "geometry": {
    "type": "Point",
    "coordinates": [
      9.5108315,
      47.2187246
    ]
  }
},
{
  "type": "Feature",
  "id": "node/9004557468",
  "properties": {
    "access": "yes",
    "defibrillator:location": "Samariterverein im Fahrzeug",
    "description": "24h verfügbar",
    "emergency": "defibrillator",
    "emergency:phone": "144",
    "indoor": "yes",
    "opening_hours": "24/7",
    "operator": "Gerhard Potetz",
    "phone": "+423 373 37 09",
    "id": "node/9004557468"
  },
  "geometry": {
    "type": "Point",
    "coordinates": [
      9.5240012,
      47.2111747
    ]
  }
},
{
  "type": "Feature",
  "id": "node/9004557469",
  "properties": {
    "access": "yes",
    "defibrillator:location": "LAK Haus am Empfang",
    "description": "24h verfügbar",
    "emergency": "defibrillator",
    "emergency:phone": "144",
    "indoor": "yes",
    "opening_hours": "24/7",
    "operator": "Sekretariat",
    "phone": "+423 377 46 00",
    "id": "node/9004557469"
  },
  "geometry": {
    "type": "Point",
    "coordinates": [
      9.5244518,
      47.2114243
    ]
  }
},
{
  "type": "Feature",
  "id": "node/9004557470",
  "properties": {
    "access": "yes",
    "defibrillator:location": "Erste Hilfe Raum",
    "description": "während Öffnungszeiten verfügbar",
    "emergency": "defibrillator",
    "emergency:phone": "144",
    "indoor": "yes",
    "opening_hours": "Mo-Fr 08:00-12:00, 13:30-21:00",
    "operator": "Bademeister",
    "phone": "+423 373 48 66",
    "id": "node/9004557470"
  },
  "geometry": {
    "type": "Point",
    "coordinates": [
      9.5262194,
      47.2134996
    ]
  }
},
{
  "type": "Feature",
  "id": "node/9004557471",
  "properties": {
    "access": "yes",
    "defibrillator:location": "Gemeindesaal im Foyer",
    "description": "während Öffnungszeiten verfügbar",
    "emergency": "defibrillator",
    "emergency:phone": "144",
    "indoor": "yes",
    "opening_hours": "Mo-Fr 08:00-12:00, 13:30-17:00",
    "operator": "Gerhard Potetz",
    "phone": "+423 377 50 22",
    "id": "node/9004557471"
  },
  "geometry": {
    "type": "Point",
    "coordinates": [
      9.5239596,
      47.212687
    ]
  }
},
{
  "type": "Feature",
  "id": "node/9004557472",
  "properties": {
    "access": "yes",
    "defibrillator:location": "Feuerwehr Einsatzfahrzeug",
    "description": "24h verfügbar",
    "emergency": "defibrillator",
    "emergency:phone": "144",
    "indoor": "yes",
    "opening_hours": "24/7",
    "operator": "Gerhard Senti",
    "phone": "+423 373 35 02",
    "id": "node/9004557472"
  },
  "geometry": {
    "type": "Point",
    "coordinates": [
      9.5275068,
      47.207372
    ]
  }
},
{
  "type": "Feature",
  "id": "node/9004557473",
  "properties": {
    "access": "yes",
    "defibrillator:location": "Pförnerhaus Anmeldung Sicherheit",
    "description": "24h verfügbar",
    "emergency": "defibrillator",
    "emergency:phone": "144",
    "indoor": "yes",
    "opening_hours": "24/7",
    "operator": "Sicherheitsbeauftragte Frau Sandra Konzet",
    "phone": "+423 377 23 11",
    "id": "node/9004557473"
  },
  "geometry": {
    "type": "Point",
    "coordinates": [
      9.5293897,
      47.2080317
    ]
  }
},
{
  "type": "Feature",
  "id": "node/9004557474",
  "properties": {
    "access": "yes",
    "defibrillator:location": "Sportpark Eschen, Haupteingang EG",
    "description": "während Öffnungszeiten verfügbar",
    "emergency": "defibrillator",
    "emergency:phone": "144",
    "indoor": "yes",
    "opening_hours": "Mo-Fr 08:00-12:00, 13:30-17:00, 18:00-24:00",
    "operator": "Meier Josef / Patrik Gstöhl",
    "phone": "+423 7885039",
    "id": "node/9004557474"
  },
  "geometry": {
    "type": "Point",
    "coordinates": [
      9.5385146,
      47.2058779
    ]
  }
},
{
  "type": "Feature",
  "id": "node/9004557475",
  "properties": {
    "access": "yes",
    "defibrillator:location": "Mehrzweckgebäude Museum",
    "description": "während Öffnungszeiten verfügbar",
    "emergency": "defibrillator",
    "emergency:phone": "144",
    "indoor": "yes",
    "operator": "Manuel Marxer, Hausdienst",
    "phone": "+423 792 22 41",
    "id": "node/9004557475"
  },
  "geometry": {
    "type": "Point",
    "coordinates": [
      9.547205,
      47.2099266
    ]
  }
},
{
  "type": "Feature",
  "id": "node/9004557476",
  "properties": {
    "access": "yes",
    "defibrillator:location": "Vereinseingang im Zuschg",
    "description": "während Öffnungszeiten verfügbar",
    "emergency": "defibrillator",
    "emergency:phone": "144",
    "indoor": "yes",
    "opening_hours": "Mo-Fr 08:00-12:00, 13:30-17:00",
    "operator": "Daniel Frick, Hausdienst",
    "phone": "+423 792 22 47",
    "id": "node/9004557476"
  },
  "geometry": {
    "type": "Point",
    "coordinates": [
      9.5617908,
      47.211254
    ]
  }
},
{
  "type": "Feature",
  "id": "node/9004557477",
  "properties": {
    "access": "yes",
    "defibrillator:location": "Turnhalle in der Lehrerumkleide",
    "description": "während Öffnungszeiten verfügbar",
    "emergency": "defibrillator",
    "emergency:phone": "144",
    "indoor": "yes",
    "opening_hours": "Mo-Fr 08:00-12:00, 13:30-17:00",
    "operator": "Manuel Marxer, Huasdienst",
    "phone": "+423 792 22 41",
    "id": "node/9004557477"
  },
  "geometry": {
    "type": "Point",
    "coordinates": [
      9.5638239,
      47.2108577
    ]
  }
},
{
  "type": "Feature",
  "id": "node/9004557478",
  "properties": {
    "access": "yes",
    "defibrillator:location": "Obere Werkhalle - Sicherheitsposten",
    "description": "während Öffnungszeiten verfügbar",
    "emergency": "defibrillator",
    "emergency:phone": "144",
    "indoor": "yes",
    "opening_hours": "Mo-Fr 08:00-17:00",
    "operator": "Thomas Lampert",
    "phone": "+4223 377 21 30",
    "id": "node/9004557478"
  },
  "geometry": {
    "type": "Point",
    "coordinates": [
      9.5683622,
      47.2169156
    ]
  }
},
{
  "type": "Feature",
  "id": "node/9004557479",
  "properties": {
    "access": "yes",
    "defibrillator:location": "Gemeindesaal in der Küche",
    "description": "während Öffnungszeiten verfügbar",
    "emergency": "defibrillator",
    "emergency:phone": "144",
    "indoor": "yes",
    "opening_hours": "Mo-Fr 08:00-12:00, 13:30-17:00",
    "operator": "Tobias Keller, Hausdienst",
    "phone": "+423 792 23 48",
    "id": "node/9004557479"
  },
  "geometry": {
    "type": "Point",
    "coordinates": [
      9.5433909,
      47.2207468
    ]
  }
},
{
  "type": "Feature",
  "id": "node/9004557480",
  "properties": {
    "access": "yes",
    "defibrillator:location": "Kulturhaus Rössle",
    "description": "während Öffnungszeiten verfügbar",
    "emergency": "defibrillator",
    "emergency:phone": "144",
    "indoor": "yes",
    "operator": "Tobias Keller, Hausdienst",
    "phone": "+423 792 23 48",
    "id": "node/9004557480"
  },
  "geometry": {
    "type": "Point",
    "coordinates": [
      9.5445389,
      47.2207996
    ]
  }
},
{
  "type": "Feature",
  "id": "node/9004557481",
  "properties": {
    "access": "yes",
    "defibrillator:location": "Sanitätsraum der Turnhalle",
    "description": "während Öffnungszeiten verfügbar",
    "emergency": "defibrillator",
    "emergency:phone": "144",
    "indoor": "yes",
    "opening_hours": "Mo-Fr 08:00-12:00, 13:30-16:30",
    "operator": "Tobias Keller, Hausdienst",
    "phone": "+423 792 23 48",
    "id": "node/9004557481"
  },
  "geometry": {
    "type": "Point",
    "coordinates": [
      9.5441633,
      47.2212186
    ]
  }
},
{
  "type": "Feature",
  "id": "node/9004557482",
  "properties": {
    "access": "yes",
    "defibrillator:location": "Verwaltungseingang EG",
    "description": "während Öffnungszeiten verfügbar",
    "emergency": "defibrillator",
    "emergency:phone": "144",
    "indoor": "yes",
    "opening_hours": "Mo-Fr 08:00-12:00, 13:30-16:30",
    "operator": "Markus Hassler",
    "phone": "+423 399 20 42",
    "id": "node/9004557482"
  },
  "geometry": {
    "type": "Point",
    "coordinates": [
      9.5466444,
      47.2323843
    ]
  }
},
{
  "type": "Feature",
  "id": "node/9004557483",
  "properties": {
    "access": "yes",
    "defibrillator:location": "Im Lehrerzimmer der Schule",
    "description": "während Öffnungszeiten verfügbar",
    "emergency": "defibrillator",
    "emergency:phone": "144",
    "indoor": "yes",
    "opening_hours": "Mo-Fr 08:00-12:00, 13:30-17:00",
    "operator": "Patrick Keller - Christian Frommelt",
    "phone": "+423 791 76 10",
    "id": "node/9004557483"
  },
  "geometry": {
    "type": "Point",
    "coordinates": [
      9.5256856,
      47.2390115
    ]
  }
},
{
  "type": "Feature",
  "id": "node/9004557484",
  "properties": {
    "access": "yes",
    "defibrillator:location": "Gemeindesaal im Foyer",
    "description": "während Öffnungszeiten verfügbar",
    "emergency": "defibrillator",
    "emergency:phone": "144",
    "indoor": "yes",
    "opening_hours": "Mo-Fr 08:00-12:00, 13:30-17:00",
    "operator": "Patrick Keller - Christian Frommelt",
    "phone": "+423 791 76 10",
    "id": "node/9004557484"
  },
  "geometry": {
    "type": "Point",
    "coordinates": [
      9.5252296,
      47.2394468
    ]
  }
},
{
  "type": "Feature",
  "id": "node/9004557485",
  "properties": {
    "access": "yes",
    "defibrillator:location": "Gemeindepolizei, Polizeiauto",
    "description": "nur über Notruf 24h erreichbar",
    "emergency": "defibrillator",
    "emergency:phone": "144",
    "indoor": "yes",
    "opening_hours": "24/7",
    "operator": "Magnus Büchel, Gemeindepolizei",
    "phone": "+423 377 49 28",
    "id": "node/9004557485"
  },
  "geometry": {
    "type": "Point",
    "coordinates": [
      9.5246784,
      47.2407679
    ]
  }
},
{
  "type": "Feature",
  "id": "node/9004557486",
  "properties": {
    "access": "yes",
    "defibrillator:location": "Feuerwehrfahrzeug TLF",
    "description": "nur über Notruf 24h erreichbar",
    "emergency": "defibrillator",
    "emergency:phone": "144",
    "indoor": "yes",
    "opening_hours": "24/7",
    "operator": "Magnus Büchel, Gemeindepolizei",
    "phone": "+423 377 49 28",
    "id": "node/9004557486"
  },
  "geometry": {
    "type": "Point",
    "coordinates": [
      9.5229819,
      47.2435995
    ]
  }
},
{
  "type": "Feature",
  "id": "node/9004557487",
  "properties": {
    "access": "yes",
    "defibrillator:location": "Aussenwandschrank bei Tennishaus",
    "description": "24h verfügbar",
    "emergency": "defibrillator",
    "emergency:phone": "144",
    "indoor": "yes",
    "opening_hours": "24/7",
    "operator": "Magnus Büchel, Gemeindepolizei",
    "phone": "+423 377 49 28",
    "id": "node/9004557487"
  },
  "geometry": {
    "type": "Point",
    "coordinates": [
      9.5245671,
      47.2453047
    ]
  }
},
{
  "type": "Feature",
  "id": "node/9004557488",
  "properties": {
    "access": "yes",
    "defibrillator:location": "Aussenwandschrank bei Sportareal Widau",
    "description": "24h verfügbar",
    "emergency": "defibrillator",
    "emergency:phone": "144",
    "indoor": "yes",
    "opening_hours": "24/7",
    "operator": "Rainer Spalt - Helmut Schweniger",
    "phone": "+423 791 76 04",
    "id": "node/9004557488"
  },
  "geometry": {
    "type": "Point",
    "coordinates": [
      9.5280057,
      47.2472803
    ]
  }
},
{
  "type": "Feature",
  "id": "node/9088806217",
  "properties": {
    "access": "yes",
    "defibrillator:location": "Gemeindehaus Gamprin",
    "emergency": "defibrillator",
    "emergency:phone": "144",
    "indoor": "no",
    "operator": "Gemeinde Gamprin",
    "id": "node/9088806217"
  },
  "geometry": {
    "type": "Point",
    "coordinates": [
      9.5106176,
      47.2184097
    ]
  }
},
{
  "type": "Feature",
  "id": "node/9088810017",
  "properties": {
    "access": "yes",
    "defibrillator:location": "Gemeindeschulen Gamprin",
    "emergency": "defibrillator",
    "emergency:phone": "144",
    "indoor": "no",
    "operator": "Gemeinde Gamprin",
    "id": "node/9088810017"
  },
  "geometry": {
    "type": "Point",
    "coordinates": [
      9.5109559,
      47.2197109
    ]
  }
},
{
  "type": "Feature",
  "id": "node/9088810018",
  "properties": {
    "access": "yes",
    "defibrillator:location": "Post Bendern",
    "emergency": "defibrillator",
    "emergency:phone": "144",
    "indoor": "no",
    "operator": "Gemeinde Gamprin",
    "id": "node/9088810018"
  },
  "geometry": {
    "type": "Point",
    "coordinates": [
      9.503041,
      47.2105634
    ]
  }
},
{
  "type": "Feature",
  "id": "node/9088812017",
  "properties": {
    "access": "yes",
    "defibrillator:location": "Freizeitanlage Grossabünt",
    "emergency": "defibrillator",
    "emergency:phone": "144",
    "indoor": "no",
    "operator": "Gemeinde Gamprin",
    "id": "node/9088812017"
  },
  "geometry": {
    "type": "Point",
    "coordinates": [
      9.5057481,
      47.2177819
    ]
  }
},
{
  "type": "Feature",
  "id": "node/9088820717",
  "properties": {
    "access": "yes",
    "defibrillator:location": "Bongert / Parkplatz Kirche",
    "emergency": "defibrillator",
    "emergency:phone": "144",
    "indoor": "no",
    "operator": "Gemeinde Gamprin",
    "id": "node/9088820717"
  },
  "geometry": {
    "type": "Point",
    "coordinates": [
      9.5046536,
      47.2120567
    ]
  }
},
{
  "type": "Feature",
  "id": "node/9180373117",
  "properties": {
    "access": "yes",
    "defibrillator:location": "Rheinwiese Schaan",
    "description": "Garderobe/Eingang Sanitätsraum",
    "emergency": "defibrillator",
    "emergency:phone": "144",
    "indoor": "yes",
    "opening_hours": "08.00 bis 22.00",
    "operator": "Gemeinde Schaan",
    "id": "node/9180373117"
  },
  "geometry": {
    "type": "Point",
    "coordinates": [
      9.4933369,
      47.1665037
    ]
  }
}
]
}
