{
"type": "FeatureCollection",
"features": [
{
  "type": "Feature",
  "id": "node/2098935833",
  "properties": {
    "access": "yes",
    "defibrillator:location": "Zürcherstrasse - Paradiesweg neben Garagengebäude",
    "emergency": "defibrillator",
    "emergency:phone": "144",
    "indoor": "no",
    "opening_hours": "24/7",
    "operator": "Gemeinde Galgenen",
    "id": "node/2098935833"
  },
  "geometry": {
    "type": "Point",
    "coordinates": [
      8.8886364,
      47.1775667
    ]
  }
},
{
  "type": "Feature",
  "id": "node/5533244623",
  "properties": {
    "access": "yes",
    "emergency": "defibrillator",
    "emergency:phone": "144",
    "indoor": "yes",
    "level": "0",
    "opening_hours": "24/7",
    "wheelchair": "limited",
    "id": "node/5533244623"
  },
  "geometry": {
    "type": "Point",
    "coordinates": [
      8.4741666,
      47.0534057
    ]
  }
},
{
  "type": "Feature",
  "id": "node/5536021478",
  "properties": {
    "access": "no",
    "emergency": "defibrillator",
    "emergency:phone": "144",
    "opening_hours": "24/7",
    "id": "node/5536021478"
  },
  "geometry": {
    "type": "Point",
    "coordinates": [
      8.8555652,
      47.0610269
    ]
  }
},
{
  "type": "Feature",
  "id": "node/5536021479",
  "properties": {
    "access": "no",
    "emergency": "defibrillator",
    "emergency:phone": "144",
    "opening_hours": "24/7",
    "id": "node/5536021479"
  },
  "geometry": {
    "type": "Point",
    "coordinates": [
      8.8497233,
      47.0629144
    ]
  }
},
{
  "type": "Feature",
  "id": "node/5823349636",
  "properties": {
    "addr:city": "Wangen",
    "addr:housenumber": "2",
    "addr:postcode": "8855",
    "addr:street": "Seestrasse",
    "defibrillator:location": "Im Mehrzweckgebäude",
    "emergency": "defibrillator",
    "emergency:phone": "144",
    "indoor": "yes",
    "opening_hours": "24/7",
    "id": "node/5823349636"
  },
  "geometry": {
    "type": "Point",
    "coordinates": [
      8.894607,
      47.1932893
    ]
  }
},
{
  "type": "Feature",
  "id": "node/5846736972",
  "properties": {
    "emergency": "defibrillator",
    "emergency:phone": "144",
    "level": "0",
    "opening_hours": "24/7",
    "id": "node/5846736972"
  },
  "geometry": {
    "type": "Point",
    "coordinates": [
      8.7928444,
      47.2003043
    ]
  }
},
{
  "type": "Feature",
  "id": "node/5929901485",
  "properties": {
    "emergency": "defibrillator",
    "emergency:phone": "144",
    "opening_hours": "24/7",
    "id": "node/5929901485"
  },
  "geometry": {
    "type": "Point",
    "coordinates": [
      8.444226,
      47.087464
    ]
  }
},
{
  "type": "Feature",
  "id": "node/6264028840",
  "properties": {
    "defibrillator:location": "Neben der Coop Recycling-Station im Parterre",
    "emergency": "defibrillator",
    "emergency:phone": "144",
    "indoor": "yes",
    "level": "0",
    "opening_hours": "24/7",
    "id": "node/6264028840"
  },
  "geometry": {
    "type": "Point",
    "coordinates": [
      8.8555819,
      47.1917433
    ]
  }
},
{
  "type": "Feature",
  "id": "node/6796313255",
  "properties": {
    "access": "yes",
    "defibrillator:location": "Brestenburgstr. 2, Carosserie Steiner\nOstseite",
    "emergency": "defibrillator",
    "emergency:phone": "144",
    "indoor": "no",
    "level": "0",
    "opening_hours": "24/7",
    "operator": "resQshock GmbH",
    "id": "node/6796313255"
  },
  "geometry": {
    "type": "Point",
    "coordinates": [
      8.922137,
      47.1755361
    ]
  }
},
{
  "type": "Feature",
  "id": "node/6976909939",
  "properties": {
    "access": "yes",
    "defibrillator:location": "Stoosbahn, Bergstation",
    "emergency": "defibrillator",
    "emergency:phone": "144",
    "opening_hours": "24/7",
    "operator": "Stoosbahnen AG",
    "phone": "+41 41 818 08 08",
    "id": "node/6976909939"
  },
  "geometry": {
    "type": "Point",
    "coordinates": [
      8.6678677,
      46.9780139
    ]
  }
},
{
  "type": "Feature",
  "id": "node/6976909940",
  "properties": {
    "access": "yes",
    "defibrillator:location": "Stoosbahn, Talstation",
    "emergency": "defibrillator",
    "emergency:phone": "144",
    "opening_hours": "24/7",
    "operator": "Stoosbahnen AG",
    "phone": "+41 41 818 08 08",
    "id": "node/6976909940"
  },
  "geometry": {
    "type": "Point",
    "coordinates": [
      8.673498,
      46.9913578
    ]
  }
},
{
  "type": "Feature",
  "id": "node/6976909941",
  "properties": {
    "access": "yes",
    "defibrillator:location": "Gemeindekanzlei",
    "emergency": "defibrillator",
    "emergency:phone": "144",
    "opening_hours": "24/7",
    "operator": "Gemeindeverwaltung Illgau",
    "phone": "+41 41 830 10 66",
    "id": "node/6976909941"
  },
  "geometry": {
    "type": "Point",
    "coordinates": [
      8.7241797,
      46.9874092
    ]
  }
},
{
  "type": "Feature",
  "id": "node/6976909942",
  "properties": {
    "access": "yes",
    "defibrillator:location": "Feuerwehrlokal",
    "emergency": "defibrillator",
    "emergency:phone": "144",
    "opening_hours": "24/7",
    "operator": "Bezirksverwaltung Einsiedeln",
    "phone": "+41 55 418 41 01",
    "id": "node/6976909942"
  },
  "geometry": {
    "type": "Point",
    "coordinates": [
      8.7415397,
      47.1209242
    ]
  }
},
{
  "type": "Feature",
  "id": "node/6976909943",
  "properties": {
    "access": "yes",
    "defibrillator:location": "Werkhof",
    "emergency": "defibrillator",
    "emergency:phone": "144",
    "opening_hours": "24/7",
    "operator": "Bezirksverwaltung Einsiedeln",
    "phone": "+41 55 418 41 01",
    "id": "node/6976909943"
  },
  "geometry": {
    "type": "Point",
    "coordinates": [
      8.7349344,
      47.1224652
    ]
  }
},
{
  "type": "Feature",
  "id": "node/6976909944",
  "properties": {
    "access": "yes",
    "defibrillator:location": "Ufenau, Restaurant, WC Herren",
    "emergency": "defibrillator",
    "emergency:phone": "144",
    "opening_hours": "24/7",
    "operator": "Siko Höfe",
    "phone": "+41 79 478 55 99",
    "id": "node/6976909944"
  },
  "geometry": {
    "type": "Point",
    "coordinates": [
      8.7781199,
      47.2170855
    ]
  }
},
{
  "type": "Feature",
  "id": "node/6976909945",
  "properties": {
    "access": "yes",
    "defibrillator:location": "Badeanstalt Roblosen",
    "emergency": "defibrillator",
    "emergency:phone": "144",
    "opening_hours": "24/7",
    "operator": "Bezirksverwaltung Einsiedeln",
    "phone": "+41 55 418 41 01",
    "id": "node/6976909945"
  },
  "geometry": {
    "type": "Point",
    "coordinates": [
      8.7646163,
      47.1496278
    ]
  }
},
{
  "type": "Feature",
  "id": "node/6976909946",
  "properties": {
    "access": "yes",
    "defibrillator:location": "altes Schulhaus",
    "emergency": "defibrillator",
    "emergency:phone": "144",
    "opening_hours": "24/7",
    "operator": "Bezirksverwaltung Einsiedeln",
    "phone": "+41 55 418 41 01",
    "id": "node/6976909946"
  },
  "geometry": {
    "type": "Point",
    "coordinates": [
      8.7512939,
      47.1285049
    ]
  }
},
{
  "type": "Feature",
  "id": "node/6976909947",
  "properties": {
    "access": "yes",
    "defibrillator:location": "Schulhaus",
    "emergency": "defibrillator",
    "emergency:phone": "144",
    "opening_hours": "24/7",
    "operator": "Bezirksverwaltung Einsiedeln",
    "phone": "+41 55 418 41 01",
    "id": "node/6976909947"
  },
  "geometry": {
    "type": "Point",
    "coordinates": [
      8.7830188,
      47.1619817
    ]
  }
},
{
  "type": "Feature",
  "id": "node/6976909948",
  "properties": {
    "access": "yes",
    "defibrillator:location": "Schulhaus",
    "emergency": "defibrillator",
    "emergency:phone": "144",
    "opening_hours": "24/7",
    "operator": "Bezirksverwaltung Einsiedeln",
    "phone": "+41 55 418 41 01",
    "id": "node/6976909948"
  },
  "geometry": {
    "type": "Point",
    "coordinates": [
      8.7933088,
      47.1297537
    ]
  }
},
{
  "type": "Feature",
  "id": "node/6976909949",
  "properties": {
    "access": "yes",
    "defibrillator:location": "Silac AG",
    "emergency": "defibrillator",
    "emergency:phone": "144",
    "opening_hours": "24/7",
    "operator": "Bezirksverwaltung Einsiedeln",
    "phone": "+41 55 418 41 01",
    "id": "node/6976909949"
  },
  "geometry": {
    "type": "Point",
    "coordinates": [
      8.8170272,
      47.0944792
    ]
  }
},
{
  "type": "Feature",
  "id": "node/6976909950",
  "properties": {
    "access": "yes",
    "defibrillator:location": "Schulhaus",
    "emergency": "defibrillator",
    "emergency:phone": "144",
    "opening_hours": "24/7",
    "operator": "Bezirksverwaltung Einsiedeln",
    "phone": "+41 55 418 41 01",
    "id": "node/6976909950"
  },
  "geometry": {
    "type": "Point",
    "coordinates": [
      8.7744782,
      47.1157421
    ]
  }
},
{
  "type": "Feature",
  "id": "node/6976909951",
  "properties": {
    "access": "yes",
    "defibrillator:location": "Schulhaus",
    "emergency": "defibrillator",
    "emergency:phone": "144",
    "opening_hours": "24/7",
    "operator": "Bezirksverwaltung Einsiedeln",
    "phone": "+41 55 418 41 01",
    "id": "node/6976909951"
  },
  "geometry": {
    "type": "Point",
    "coordinates": [
      8.7243022,
      47.0979264
    ]
  }
},
{
  "type": "Feature",
  "id": "node/6976909952",
  "properties": {
    "access": "yes",
    "defibrillator:location": "Gemeindehaus",
    "emergency": "defibrillator",
    "emergency:phone": "144",
    "opening_hours": "24/7",
    "operator": "SEE Tuggen",
    "phone": "+41 55 465 65 14",
    "id": "node/6976909952"
  },
  "geometry": {
    "type": "Point",
    "coordinates": [
      8.9398791,
      47.2025402
    ]
  }
},
{
  "type": "Feature",
  "id": "node/6976909953",
  "properties": {
    "access": "yes",
    "defibrillator:location": "Sportplatz Mittelpunktschulhaus unter der Treppe",
    "emergency": "defibrillator",
    "emergency:phone": "144",
    "indoor": "no",
    "level": "0",
    "opening_hours": "24/7",
    "operator": "Gemeindeverwaltung Rothenthurm",
    "phone": "+41 41 839 80 20",
    "id": "node/6976909953"
  },
  "geometry": {
    "type": "Point",
    "coordinates": [
      8.6739666,
      47.1048568
    ]
  }
},
{
  "type": "Feature",
  "id": "node/6976909954",
  "properties": {
    "access": "yes",
    "defibrillator:location": "SOB Bahnhof Rothenthurm Perron Gleis 1/2",
    "description": "24h verfügbar",
    "emergency": "defibrillator",
    "emergency:phone": "144",
    "indoor": "no",
    "opening_hours": "24/7",
    "operator": "Schweizerische Südostbahn",
    "phone": "+41 58 580 70 70",
    "id": "node/6976909954"
  },
  "geometry": {
    "type": "Point",
    "coordinates": [
      8.6745851,
      47.1059656
    ]
  }
},
{
  "type": "Feature",
  "id": "node/6976909955",
  "properties": {
    "access": "yes",
    "defibrillator:location": "C. Vanoli AG Bauunternehmung",
    "emergency": "defibrillator",
    "emergency:phone": "144",
    "opening_hours": "24/7",
    "operator": "C. Vanoli AG, Bauunternehmung",
    "phone": "+41 41 854 60 60",
    "id": "node/6976909955"
  },
  "geometry": {
    "type": "Point",
    "coordinates": [
      8.4516446,
      47.0900387
    ]
  }
},
{
  "type": "Feature",
  "id": "node/6976909956",
  "properties": {
    "access": "yes",
    "defibrillator:location": "Schwyzer Kantonalbank",
    "emergency": "defibrillator",
    "emergency:phone": "144",
    "indoor": "yes",
    "opening_hours": "24/7",
    "operator": "Schwyzer Kantonalbank",
    "phone": "+41 58 800 20 20",
    "id": "node/6976909956"
  },
  "geometry": {
    "type": "Point",
    "coordinates": [
      8.7786016,
      47.2020656
    ]
  }
},
{
  "type": "Feature",
  "id": "node/6976909957",
  "properties": {
    "access": "yes",
    "defibrillator:location": "Glarnerstrasse 7, Schwyzer Kantonalbank Vorraum, Karte nötig",
    "emergency": "defibrillator",
    "emergency:phone": "144",
    "indoor": "yes",
    "opening_hours": "24/7",
    "operator": "Schwyzer Kantonalbank",
    "phone": "+41 58 800 20 20",
    "id": "node/6976909957"
  },
  "geometry": {
    "type": "Point",
    "coordinates": [
      8.8982783,
      47.174737
    ]
  }
},
{
  "type": "Feature",
  "id": "node/6976909958",
  "properties": {
    "access": "yes",
    "defibrillator:location": "Schwyzer Kantonalbank",
    "emergency": "defibrillator",
    "emergency:phone": "144",
    "opening_hours": "24/7",
    "operator": "Schwyzer Kantonalbank",
    "phone": "+41 58 800 20 20",
    "id": "node/6976909958"
  },
  "geometry": {
    "type": "Point",
    "coordinates": [
      8.8527763,
      47.1912645
    ]
  }
},
{
  "type": "Feature",
  "id": "node/6976909959",
  "properties": {
    "access": "yes",
    "defibrillator:location": "Nebeneingang Pfarrheim Ibach (Parkplatz)",
    "emergency": "defibrillator",
    "emergency:phone": "144",
    "indoor": "no",
    "opening_hours": "24/7",
    "operator": "Pfarrei St. Anton",
    "phone": "+41 41 818 61 20",
    "id": "node/6976909959"
  },
  "geometry": {
    "type": "Point",
    "coordinates": [
      8.6449463,
      47.0132255
    ]
  }
},
{
  "type": "Feature",
  "id": "node/6976909960",
  "properties": {
    "access": "yes",
    "defibrillator:location": "SOB Haltestelle Wilen",
    "description": "24h verfügbar",
    "emergency": "defibrillator",
    "emergency:phone": "144",
    "indoor": "no",
    "opening_hours": "24/7",
    "operator": "Schweizerische Südostbahn",
    "phone": "+41 58 580 70 70",
    "id": "node/6976909960"
  },
  "geometry": {
    "type": "Point",
    "coordinates": [
      8.7343796,
      47.1975792
    ]
  }
},
{
  "type": "Feature",
  "id": "node/6976909961",
  "properties": {
    "access": "yes",
    "defibrillator:location": "Verkehrsamt Pfäffikon",
    "emergency": "defibrillator",
    "emergency:phone": "144",
    "opening_hours": "24/7",
    "operator": "Verkehrsamt Pfäffikon",
    "phone": "+41 41 819 17 55",
    "id": "node/6976909961"
  },
  "geometry": {
    "type": "Point",
    "coordinates": [
      8.7893333,
      47.2015534
    ]
  }
},
{
  "type": "Feature",
  "id": "node/6976909962",
  "properties": {
    "access": "yes",
    "defibrillator:location": "Perron Gleis 2",
    "description": "24h verfügbar",
    "emergency": "defibrillator",
    "emergency:phone": "144",
    "indoor": "no",
    "opening_hours": "24/7",
    "operator": "Schweizerische Südostbahn",
    "phone": "+41 58 580 70 70",
    "id": "node/6976909962"
  },
  "geometry": {
    "type": "Point",
    "coordinates": [
      8.7226978,
      47.1568595
    ]
  }
},
{
  "type": "Feature",
  "id": "node/6976909963",
  "properties": {
    "access": "yes",
    "defibrillator:location": "SOB Bahnhof Freienbach (auf dem Perron zwischen Gleis 1 und 2)",
    "emergency": "defibrillator",
    "emergency:phone": "144",
    "indoor": "no",
    "level": "0",
    "opening_hours": "24/7",
    "operator": "Schweizerische Südostbahn",
    "phone": "+41 58 580 70 70",
    "id": "node/6976909963"
  },
  "geometry": {
    "type": "Point",
    "coordinates": [
      8.7590618,
      47.203963
    ]
  }
},
{
  "type": "Feature",
  "id": "node/6976909964",
  "properties": {
    "access": "yes",
    "defibrillator:location": "SOB Bahnhof Schindellegi, Perron",
    "description": "24h verfügbar",
    "emergency": "defibrillator",
    "emergency:phone": "144",
    "indoor": "no",
    "opening_hours": "24/7",
    "operator": "Schweizerische Südostbahn",
    "phone": "+41 58 580 70 70",
    "id": "node/6976909964"
  },
  "geometry": {
    "type": "Point",
    "coordinates": [
      8.7091819,
      47.1763958
    ]
  }
},
{
  "type": "Feature",
  "id": "node/6976909965",
  "properties": {
    "access": "yes",
    "defibrillator:location": "SOB Bahnhof Wollerau, Gleis 2",
    "description": "24h verfügbar",
    "emergency": "defibrillator",
    "emergency:phone": "144",
    "indoor": "no",
    "opening_hours": "24/7",
    "operator": "Schweizerische Südostbahn",
    "phone": "+41 58 580 70 70",
    "id": "node/6976909965"
  },
  "geometry": {
    "type": "Point",
    "coordinates": [
      8.7250163,
      47.1955595
    ]
  }
},
{
  "type": "Feature",
  "id": "node/6976909966",
  "properties": {
    "access": "yes",
    "defibrillator:location": "Unterstand Gleis 1",
    "description": "24h verfügbar",
    "emergency": "defibrillator",
    "emergency:phone": "144",
    "indoor": "no",
    "opening_hours": "24/7",
    "operator": "Schweizerische Südostbahn",
    "phone": "+41 58 580 70 70",
    "id": "node/6976909966"
  },
  "geometry": {
    "type": "Point",
    "coordinates": [
      8.712411,
      47.1967628
    ]
  }
},
{
  "type": "Feature",
  "id": "node/6976909967",
  "properties": {
    "access": "yes",
    "defibrillator:location": "Schwyzer Kantonalbank",
    "emergency": "defibrillator",
    "emergency:phone": "144",
    "opening_hours": "24/7",
    "operator": "Schwyzer Kantonalbank",
    "phone": "+41 58 800 20 20",
    "id": "node/6976909967"
  },
  "geometry": {
    "type": "Point",
    "coordinates": [
      8.7194401,
      47.1954254
    ]
  }
},
{
  "type": "Feature",
  "id": "node/6976909968",
  "properties": {
    "access": "yes",
    "defibrillator:location": "Parkplatz Kirche",
    "emergency": "defibrillator",
    "emergency:phone": "144",
    "indoor": "no",
    "opening_hours": "24/7",
    "operator": "resQshock GmbH",
    "phone": "+41 55 460 22 44",
    "id": "node/6976909968"
  },
  "geometry": {
    "type": "Point",
    "coordinates": [
      8.9537124,
      47.1741013
    ]
  }
},
{
  "type": "Feature",
  "id": "node/6976909969",
  "properties": {
    "access": "yes",
    "defibrillator:location": "Mivera AG",
    "emergency": "defibrillator",
    "emergency:phone": "144",
    "opening_hours": "24/7",
    "operator": "Mivera AG",
    "phone": "+41 41 820 30 70",
    "id": "node/6976909969"
  },
  "geometry": {
    "type": "Point",
    "coordinates": [
      8.609189,
      46.9989953
    ]
  }
},
{
  "type": "Feature",
  "id": "node/6976909970",
  "properties": {
    "access": "yes",
    "defibrillator:location": "Bei Wartehalle",
    "description": "24h verfügbar",
    "emergency": "defibrillator",
    "emergency:phone": "144",
    "indoor": "no",
    "opening_hours": "24/7",
    "operator": "Bahnreisezentrum Einsiedeln",
    "phone": "+41 58 580 75 31",
    "id": "node/6976909970"
  },
  "geometry": {
    "type": "Point",
    "coordinates": [
      8.7442567,
      47.1280363
    ]
  }
},
{
  "type": "Feature",
  "id": "node/6976909971",
  "properties": {
    "access": "yes",
    "defibrillator:location": "Mehrzweckanlage",
    "emergency": "defibrillator",
    "emergency:phone": "144",
    "indoor": "yes",
    "opening_hours": "24/7",
    "operator": "Gemeinde Alpthal",
    "phone": "+41 78 707 41 95",
    "id": "node/6976909971"
  },
  "geometry": {
    "type": "Point",
    "coordinates": [
      8.7160137,
      47.0702118
    ]
  }
},
{
  "type": "Feature",
  "id": "node/6976909972",
  "properties": {
    "access": "yes",
    "defibrillator:location": "MZ Sanitär + Heizung AG",
    "emergency": "defibrillator",
    "emergency:phone": "144",
    "opening_hours": "24/7",
    "operator": "resQshock GmbH",
    "phone": "+41 55 460 22 44",
    "id": "node/6976909972"
  },
  "geometry": {
    "type": "Point",
    "coordinates": [
      8.8632735,
      47.1924575
    ]
  }
},
{
  "type": "Feature",
  "id": "node/6976909973",
  "properties": {
    "access": "yes",
    "defibrillator:location": "Firma impuls",
    "emergency": "defibrillator",
    "emergency:phone": "144",
    "opening_hours": "24/7",
    "operator": "resQshock GmbH",
    "phone": "+41 55 460 22 44",
    "id": "node/6976909973"
  },
  "geometry": {
    "type": "Point",
    "coordinates": [
      8.6437938,
      47.0023163
    ]
  }
},
{
  "type": "Feature",
  "id": "node/6976909974",
  "properties": {
    "access": "yes",
    "defibrillator:location": "Firma RE/MAX Stern Lachen",
    "emergency": "defibrillator",
    "emergency:phone": "144",
    "indoor": "no",
    "opening_hours": "24/7",
    "operator": "resQshock GmbH",
    "phone": "+41 55 460 22 44",
    "id": "node/6976909974"
  },
  "geometry": {
    "type": "Point",
    "coordinates": [
      8.8523239,
      47.1927061
    ]
  }
},
{
  "type": "Feature",
  "id": "node/6976909975",
  "properties": {
    "access": "yes",
    "defibrillator:location": "Restaurant Schwanau",
    "emergency": "defibrillator",
    "emergency:phone": "144",
    "opening_hours": "24/7",
    "operator": "SIBE Stefan Schlegel",
    "phone": "+41 41 819 16 33",
    "id": "node/6976909975"
  },
  "geometry": {
    "type": "Point",
    "coordinates": [
      8.5970766,
      47.0324216
    ]
  }
},
{
  "type": "Feature",
  "id": "node/6976909976",
  "properties": {
    "access": "yes",
    "defibrillator:location": "Zur Rose Reichenburg Eingang",
    "emergency": "defibrillator",
    "emergency:phone": "144",
    "opening_hours": "24/7",
    "operator": "Zur Rose Reichenburg",
    "phone": "+41 55 464 41 41",
    "id": "node/6976909976"
  },
  "geometry": {
    "type": "Point",
    "coordinates": [
      8.9752137,
      47.1707483
    ]
  }
},
{
  "type": "Feature",
  "id": "node/6976909977",
  "properties": {
    "access": "yes",
    "defibrillator:location": "Baudepartement Kanton Schwyz",
    "emergency": "defibrillator",
    "emergency:phone": "144",
    "opening_hours": "24/7",
    "operator": "Baudepartement Kanton Schwyz",
    "phone": "+41 41 819 25 16",
    "id": "node/6976909977"
  },
  "geometry": {
    "type": "Point",
    "coordinates": [
      8.6083634,
      46.9949015
    ]
  }
},
{
  "type": "Feature",
  "id": "node/6976909978",
  "properties": {
    "access": "yes",
    "defibrillator:location": "Felsenrainstrasse 11",
    "emergency": "defibrillator",
    "emergency:phone": "144",
    "opening_hours": "24/7",
    "operator": "Flurgenossenschaft Felsenreinstrasse",
    "phone": "+41 44 784 76 56",
    "id": "node/6976909978"
  },
  "geometry": {
    "type": "Point",
    "coordinates": [
      8.7143337,
      47.1927114
    ]
  }
},
{
  "type": "Feature",
  "id": "node/6976909979",
  "properties": {
    "access": "yes",
    "defibrillator:location": "Eingang Tierpark",
    "emergency": "defibrillator",
    "emergency:phone": "144",
    "indoor": "no",
    "opening_hours": "24/7",
    "operator": "Gemeindeverwaltung Arth",
    "phone": "+41 41 859 02 02",
    "id": "node/6976909979"
  },
  "geometry": {
    "type": "Point",
    "coordinates": [
      8.5533775,
      47.0514319
    ]
  }
},
{
  "type": "Feature",
  "id": "node/6976909980",
  "properties": {
    "access": "yes",
    "defibrillator:location": "Gemeindehaus",
    "emergency": "defibrillator",
    "emergency:phone": "144",
    "opening_hours": "24/7",
    "operator": "Gemeinde Oberiberg",
    "phone": "+41 55 414 31 03",
    "id": "node/6976909980"
  },
  "geometry": {
    "type": "Point",
    "coordinates": [
      8.7805099,
      47.0408949
    ]
  }
},
{
  "type": "Feature",
  "id": "node/6976909981",
  "properties": {
    "access": "yes",
    "defibrillator:location": "Waschanlage Froschkönig",
    "emergency": "defibrillator",
    "emergency:phone": "144",
    "opening_hours": "24/7",
    "operator": "resQshock GmbH",
    "phone": "+41 55 460 22 44",
    "id": "node/6976909981"
  },
  "geometry": {
    "type": "Point",
    "coordinates": [
      8.8608579,
      47.1904542
    ]
  }
},
{
  "type": "Feature",
  "id": "node/6976909982",
  "properties": {
    "access": "yes",
    "defibrillator:location": "Clubhaus Seeanlage",
    "emergency": "defibrillator",
    "emergency:phone": "144",
    "indoor": "yes",
    "opening_hours": "24/7",
    "operator": "Gemeinde Freienbach",
    "phone": "+41 78 605 77 27",
    "id": "node/6976909982"
  },
  "geometry": {
    "type": "Point",
    "coordinates": [
      8.7751881,
      47.2063526
    ]
  }
},
{
  "type": "Feature",
  "id": "node/6976909983",
  "properties": {
    "access": "yes",
    "defibrillator:location": "Sparkasse Schwyz AG",
    "emergency": "defibrillator",
    "emergency:phone": "144",
    "opening_hours": "24/7",
    "operator": "Sparkasse Schwyz AG",
    "phone": "+41 41 819 02 50",
    "id": "node/6976909983"
  },
  "geometry": {
    "type": "Point",
    "coordinates": [
      8.6509471,
      47.0220954
    ]
  }
},
{
  "type": "Feature",
  "id": "node/6976909984",
  "properties": {
    "access": "yes",
    "defibrillator:location": "Kapellstrasse 7",
    "emergency": "defibrillator",
    "emergency:phone": "144",
    "indoor": "no",
    "opening_hours": "24/7",
    "operator": "resQshock GmbH",
    "phone": "+41 55 460 22 44",
    "id": "node/6976909984"
  },
  "geometry": {
    "type": "Point",
    "coordinates": [
      8.9000712,
      47.1770982
    ]
  }
},
{
  "type": "Feature",
  "id": "node/6976938385",
  "properties": {
    "access": "yes",
    "defibrillator:location": "Baumgartenweg 2 neben Garageneinfahrt",
    "emergency": "defibrillator",
    "emergency:phone": "144",
    "opening_hours": "24/7",
    "operator": "resQshock GmbH",
    "phone": "+41 55 460 22 44",
    "id": "node/6976938385"
  },
  "geometry": {
    "type": "Point",
    "coordinates": [
      8.8999364,
      47.1726468
    ]
  }
},
{
  "type": "Feature",
  "id": "node/6976938386",
  "properties": {
    "access": "yes",
    "defibrillator:location": "Seeanlage",
    "emergency": "defibrillator",
    "emergency:phone": "144",
    "indoor": "no",
    "name": "AED Seeanlage",
    "opening_hours": "24/7",
    "operator": "resQshock GmbH",
    "phone": "+41 55 460 22 44",
    "id": "node/6976938386"
  },
  "geometry": {
    "type": "Point",
    "coordinates": [
      8.8520567,
      47.1939992
    ]
  }
},
{
  "type": "Feature",
  "id": "node/6976938387",
  "properties": {
    "access": "yes",
    "defibrillator:location": "Feuerwehrlokal",
    "emergency": "defibrillator",
    "emergency:phone": "144",
    "opening_hours": "24/7",
    "operator": "Samariterverein Muotathal",
    "phone": "+41 41 830 24 28",
    "id": "node/6976938387"
  },
  "geometry": {
    "type": "Point",
    "coordinates": [
      8.758979,
      46.9734921
    ]
  }
},
{
  "type": "Feature",
  "id": "node/6976938388",
  "properties": {
    "access": "yes",
    "defibrillator:location": "Rigi Bahnstation Eingangsbereich",
    "emergency": "defibrillator",
    "emergency:phone": "144",
    "indoor": "yes",
    "opening_hours": "24/7",
    "operator": "Rigi Bahnen AG",
    "phone": "+41 79 311 16 43",
    "id": "node/6976938388"
  },
  "geometry": {
    "type": "Point",
    "coordinates": [
      8.4870966,
      47.0426368
    ]
  }
},
{
  "type": "Feature",
  "id": "node/6976938389",
  "properties": {
    "access": "yes",
    "defibrillator:location": "Elektrizitätswerke Schwyz AG (EWS)",
    "emergency": "defibrillator",
    "emergency:phone": "144",
    "opening_hours": "24/7",
    "operator": "Elektrizitätswerk Schwyz AG",
    "phone": "+41 41 818 33 33",
    "id": "node/6976938389"
  },
  "geometry": {
    "type": "Point",
    "coordinates": [
      8.6353428,
      47.0096017
    ]
  }
},
{
  "type": "Feature",
  "id": "node/6976938390",
  "properties": {
    "access": "yes",
    "defibrillator:location": "Sand und Kies AG Schwyz",
    "emergency": "defibrillator",
    "emergency:phone": "144",
    "opening_hours": "24/7",
    "operator": "Sand und Kies AG Schwyz",
    "phone": "+41 41 811 13 33",
    "id": "node/6976938390"
  },
  "geometry": {
    "type": "Point",
    "coordinates": [
      8.645532,
      47.0041782
    ]
  }
},
{
  "type": "Feature",
  "id": "node/6976938391",
  "properties": {
    "access": "yes",
    "defibrillator:location": "Nordic Haus",
    "emergency": "defibrillator",
    "emergency:phone": "144",
    "opening_hours": "24/7",
    "operator": "Langlaufclup Studen",
    "phone": "+41 55 414 50 37",
    "id": "node/6976938391"
  },
  "geometry": {
    "type": "Point",
    "coordinates": [
      8.8357787,
      47.0735851
    ]
  }
},
{
  "type": "Feature",
  "id": "node/6976938392",
  "properties": {
    "access": "yes",
    "defibrillator:location": "Gemeindeverwaltung beim Eingang",
    "emergency": "defibrillator",
    "emergency:phone": "144",
    "opening_hours": "24/7",
    "operator": "Gemeinde Altendorf",
    "phone": "+41 55 451 77 77",
    "id": "node/6976938392"
  },
  "geometry": {
    "type": "Point",
    "coordinates": [
      8.8301939,
      47.1917017
    ]
  }
},
{
  "type": "Feature",
  "id": "node/6976938393",
  "properties": {
    "access": "yes",
    "defibrillator:location": "Schulhaus",
    "emergency": "defibrillator",
    "emergency:phone": "144",
    "opening_hours": "24/7",
    "operator": "Samariterverein Einsiedeln",
    "phone": "+41 55 534 41 48",
    "id": "node/6976938393"
  },
  "geometry": {
    "type": "Point",
    "coordinates": [
      8.7292388,
      47.1486359
    ]
  }
},
{
  "type": "Feature",
  "id": "node/6976938394",
  "properties": {
    "access": "yes",
    "defibrillator:location": "Raiffeisenbank",
    "emergency": "defibrillator",
    "emergency:phone": "144",
    "opening_hours": "24/7",
    "operator": "Samariterverein Einsiedeln",
    "phone": "+41 55 534 41 48",
    "id": "node/6976938394"
  },
  "geometry": {
    "type": "Point",
    "coordinates": [
      8.7453386,
      47.1275382
    ]
  }
},
{
  "type": "Feature",
  "id": "node/6976938395",
  "properties": {
    "access": "yes",
    "defibrillator:location": "Amt für Migration",
    "emergency": "defibrillator",
    "emergency:phone": "144",
    "opening_hours": "24/7",
    "operator": "Amt für Migration",
    "phone": "+41 41 819 12 85",
    "id": "node/6976938395"
  },
  "geometry": {
    "type": "Point",
    "coordinates": [
      8.6502169,
      47.020052
    ]
  }
},
{
  "type": "Feature",
  "id": "node/6976938396",
  "properties": {
    "access": "yes",
    "defibrillator:location": "Monséjour Zentrum am See",
    "emergency": "defibrillator",
    "emergency:phone": "144",
    "opening_hours": "24/7",
    "operator": "Monséjour Abwart",
    "phone": "+41 41 850 30 20",
    "id": "node/6976938396"
  },
  "geometry": {
    "type": "Point",
    "coordinates": [
      8.4393594,
      47.0810607
    ]
  }
},
{
  "type": "Feature",
  "id": "node/6976938397",
  "properties": {
    "access": "yes",
    "defibrillator:location": "Steuerverwaltung",
    "emergency": "defibrillator",
    "emergency:phone": "144",
    "opening_hours": "24/7",
    "operator": "SIBE Stefan Schlegel",
    "phone": "+41 41 819 16 33",
    "id": "node/6976938397"
  },
  "geometry": {
    "type": "Point",
    "coordinates": [
      8.649038,
      47.0214408
    ]
  }
},
{
  "type": "Feature",
  "id": "node/6976938398",
  "properties": {
    "access": "yes",
    "defibrillator:location": "Schwyzer Kantonalbank",
    "emergency": "defibrillator",
    "emergency:phone": "144",
    "opening_hours": "24/7",
    "operator": "Gemeinde Steinen",
    "phone": "+41 41 833 81 00",
    "id": "node/6976938398"
  },
  "geometry": {
    "type": "Point",
    "coordinates": [
      8.6118478,
      47.0496519
    ]
  }
},
{
  "type": "Feature",
  "id": "node/6976938399",
  "properties": {
    "access": "yes",
    "defibrillator:location": "Heim St. Antonius",
    "emergency": "defibrillator",
    "emergency:phone": "144",
    "opening_hours": "24/7",
    "operator": "Heim St. Antonius",
    "phone": "+41 55 415 50 83",
    "id": "node/6976938399"
  },
  "geometry": {
    "type": "Point",
    "coordinates": [
      8.8038225,
      47.213806
    ]
  }
},
{
  "type": "Feature",
  "id": "node/6976938400",
  "properties": {
    "access": "yes",
    "defibrillator:location": "Parkplatz Friedhof",
    "emergency": "defibrillator",
    "emergency:phone": "144",
    "opening_hours": "24/7",
    "operator": "Gemeinde Ingenbohl-Brunnen",
    "phone": "+41 41 825 05 62",
    "id": "node/6976938400"
  },
  "geometry": {
    "type": "Point",
    "coordinates": [
      8.6160685,
      47.000904
    ]
  }
},
{
  "type": "Feature",
  "id": "node/6976938401",
  "properties": {
    "access": "yes",
    "defibrillator:location": "Sicher Schilter",
    "emergency": "defibrillator",
    "emergency:phone": "144",
    "opening_hours": "24/7",
    "operator": "Rettungsdienst Schwyz AG",
    "phone": "+41 41 811 15 55",
    "id": "node/6976938401"
  },
  "geometry": {
    "type": "Point",
    "coordinates": [
      8.6327838,
      47.0264061
    ]
  }
},
{
  "type": "Feature",
  "id": "node/6976938402",
  "properties": {
    "access": "yes",
    "defibrillator:location": "Dorfladen",
    "emergency": "defibrillator",
    "emergency:phone": "144",
    "opening_hours": "24/7",
    "operator": "Rettungsdienst Küssnacht",
    "phone": "+41 79 101 93 00",
    "id": "node/6976938402"
  },
  "geometry": {
    "type": "Point",
    "coordinates": [
      8.462845,
      47.0964883
    ]
  }
},
{
  "type": "Feature",
  "id": "node/6976938403",
  "properties": {
    "access": "yes",
    "defibrillator:location": "Reformierte Kirche",
    "emergency": "defibrillator",
    "emergency:phone": "144",
    "opening_hours": "24/7",
    "operator": "Rettungsdienst Küssnacht",
    "phone": "+41 79 101 93 00",
    "id": "node/6976938403"
  },
  "geometry": {
    "type": "Point",
    "coordinates": [
      8.4435242,
      47.0812403
    ]
  }
},
{
  "type": "Feature",
  "id": "node/6976938404",
  "properties": {
    "access": "yes",
    "defibrillator:location": "Gemeindeverwaltung",
    "emergency": "defibrillator",
    "emergency:phone": "144",
    "opening_hours": "24/7",
    "operator": "Gemeinde Innerthal",
    "phone": "+41 55 446 11 49",
    "id": "node/6976938404"
  },
  "geometry": {
    "type": "Point",
    "coordinates": [
      8.9198493,
      47.10561
    ]
  }
},
{
  "type": "Feature",
  "id": "node/6976938405",
  "properties": {
    "access": "yes",
    "defibrillator:location": "Mehrzweckgebäude",
    "emergency": "defibrillator",
    "emergency:phone": "144",
    "opening_hours": "24/7",
    "operator": "Gemeinde Vorderthal",
    "phone": "+41 55 446 60 01",
    "id": "node/6976938405"
  },
  "geometry": {
    "type": "Point",
    "coordinates": [
      8.8975343,
      47.1227835
    ]
  }
},
{
  "type": "Feature",
  "id": "node/6976938406",
  "properties": {
    "access": "yes",
    "defibrillator:location": "im Eingangsbereich",
    "emergency": "defibrillator",
    "emergency:phone": "144",
    "opening_hours": "24/7",
    "operator": "Rigi Bahnen AG",
    "phone": "+41 79 311 16 43",
    "id": "node/6976938406"
  },
  "geometry": {
    "type": "Point",
    "coordinates": [
      8.5222035,
      47.0274855
    ]
  }
},
{
  "type": "Feature",
  "id": "node/6976938407",
  "properties": {
    "access": "yes",
    "defibrillator:location": "Berggasthaus Hand",
    "emergency": "defibrillator",
    "emergency:phone": "144",
    "opening_hours": "24/7",
    "operator": "Berggasthaus Hand",
    "phone": "+41 41 811 23 62",
    "id": "node/6976938407"
  },
  "geometry": {
    "type": "Point",
    "coordinates": [
      8.7105015,
      47.0077044
    ]
  }
},
{
  "type": "Feature",
  "id": "node/6976938408",
  "properties": {
    "access": "yes",
    "defibrillator:location": "Aussenwand Badihaus",
    "emergency": "defibrillator",
    "emergency:phone": "144",
    "indoor": "yes",
    "opening_hours": "24/7",
    "operator": "Gemeinde Wollerau",
    "phone": "+41 79 129 77 00",
    "id": "node/6976938408"
  },
  "geometry": {
    "type": "Point",
    "coordinates": [
      8.7218165,
      47.2004097
    ]
  }
},
{
  "type": "Feature",
  "id": "node/6976938409",
  "properties": {
    "access": "yes",
    "defibrillator:location": "Parkplatzseitig, rechts am Kassenschalter",
    "emergency": "defibrillator",
    "emergency:phone": "144",
    "opening_hours": "24/7",
    "operator": "Gemeinde Freienbach",
    "phone": "+41 79 629 54 30",
    "id": "node/6976938409"
  },
  "geometry": {
    "type": "Point",
    "coordinates": [
      8.752413,
      47.1999026
    ]
  }
},
{
  "type": "Feature",
  "id": "node/6976938410",
  "properties": {
    "access": "yes",
    "defibrillator:location": "Bergstation Restaurant Gipfelstubli, im Eingangsbereich links",
    "emergency": "defibrillator",
    "emergency:phone": "144",
    "opening_hours": "24/7",
    "operator": "Luftseilbahn Rotenfluebahn AG",
    "phone": "+41 41 819 70 00",
    "id": "node/6976938410"
  },
  "geometry": {
    "type": "Point",
    "coordinates": [
      8.7030502,
      47.0210058
    ]
  }
},
{
  "type": "Feature",
  "id": "node/6976938411",
  "properties": {
    "access": "yes",
    "defibrillator:location": "Frohsinn, Zentrum für aktives Alter, im Eingangsbereich",
    "emergency": "defibrillator",
    "emergency:phone": "144",
    "opening_hours": "24/7",
    "operator": "Frohsinn, Zentrum für aktives Alter",
    "phone": "+41 41 859 03 77",
    "id": "node/6976938411"
  },
  "geometry": {
    "type": "Point",
    "coordinates": [
      8.5356205,
      47.0558885
    ]
  }
},
{
  "type": "Feature",
  "id": "node/6976938412",
  "properties": {
    "access": "yes",
    "defibrillator:location": "Hallenbad",
    "emergency": "defibrillator",
    "emergency:phone": "144",
    "opening_hours": "24/7",
    "operator": "Gemeinde Ingenbohl-Brunnen",
    "phone": "+41 41 825 05 62",
    "id": "node/6976938412"
  },
  "geometry": {
    "type": "Point",
    "coordinates": [
      8.5991887,
      46.9950307
    ]
  }
},
{
  "type": "Feature",
  "id": "node/6976938413",
  "properties": {
    "access": "yes",
    "defibrillator:location": "Dreifachturnhalle",
    "emergency": "defibrillator",
    "emergency:phone": "144",
    "opening_hours": "24/7",
    "operator": "Gemeinde Ingenbohl-Brunnen",
    "phone": "+41 41 825 05 62",
    "id": "node/6976938413"
  },
  "geometry": {
    "type": "Point",
    "coordinates": [
      8.6122984,
      46.9980729
    ]
  }
},
{
  "type": "Feature",
  "id": "node/6976938414",
  "properties": {
    "access": "yes",
    "defibrillator:location": "Info Pavillon",
    "emergency": "defibrillator",
    "emergency:phone": "144",
    "indoor": "no",
    "opening_hours": "24/7",
    "operator": "Gemeinde Morschach",
    "phone": "+41 41 825 13 30",
    "id": "node/6976938414"
  },
  "geometry": {
    "type": "Point",
    "coordinates": [
      8.6184945,
      46.9815224
    ]
  }
},
{
  "type": "Feature",
  "id": "node/6976938415",
  "properties": {
    "access": "yes",
    "defibrillator:location": "Schulhaus, bei WC Anlage",
    "emergency": "defibrillator",
    "emergency:phone": "144",
    "opening_hours": "24/7",
    "operator": "Gemeinde Riemenstalden",
    "phone": "+41 41 820 03 23",
    "id": "node/6976938415"
  },
  "geometry": {
    "type": "Point",
    "coordinates": [
      8.6658732,
      46.9471062
    ]
  }
},
{
  "type": "Feature",
  "id": "node/6976938416",
  "properties": {
    "access": "yes",
    "defibrillator:location": "Primarschulhaus",
    "emergency": "defibrillator",
    "emergency:phone": "144",
    "opening_hours": "24/7",
    "operator": "Schulhausabwart",
    "phone": "+41 44 784 43 22",
    "id": "node/6976938416"
  },
  "geometry": {
    "type": "Point",
    "coordinates": [
      8.7488281,
      47.1882667
    ]
  }
},
{
  "type": "Feature",
  "id": "node/6976938417",
  "properties": {
    "access": "yes",
    "defibrillator:location": "Dorfladen, Poststelle",
    "emergency": "defibrillator",
    "emergency:phone": "144",
    "opening_hours": "24/7",
    "operator": "Rettungsdienst Küssnacht",
    "phone": "+41 79 101 93 00",
    "id": "node/6976938417"
  },
  "geometry": {
    "type": "Point",
    "coordinates": [
      8.4082025,
      47.0658284
    ]
  }
},
{
  "type": "Feature",
  "id": "node/6976938418",
  "properties": {
    "access": "yes",
    "defibrillator:location": "Schulhaus",
    "emergency": "defibrillator",
    "emergency:phone": "144",
    "opening_hours": "24/7",
    "operator": "Samariterverein Muotathal",
    "phone": "+41 41 830 24 28",
    "id": "node/6976938418"
  },
  "geometry": {
    "type": "Point",
    "coordinates": [
      8.7141906,
      46.9864052
    ]
  }
},
{
  "type": "Feature",
  "id": "node/6976938419",
  "properties": {
    "access": "yes",
    "defibrillator:location": "Mythen Center, Eingang Schmiedgasse",
    "emergency": "defibrillator",
    "emergency:phone": "144",
    "opening_hours": "24/7",
    "operator": "Schwyzer Kantonalbank",
    "phone": "+41 58 800 20 20",
    "id": "node/6976938419"
  },
  "geometry": {
    "type": "Point",
    "coordinates": [
      8.6479313,
      47.0156117
    ]
  }
},
{
  "type": "Feature",
  "id": "node/6976938420",
  "properties": {
    "access": "yes",
    "defibrillator:location": "Spitex Regio Arth-Goldau",
    "emergency": "defibrillator",
    "emergency:phone": "144",
    "opening_hours": "24/7",
    "operator": "Spitex Regio Arth-Goldau",
    "phone": "+41 41 859 14 00",
    "id": "node/6976938420"
  },
  "geometry": {
    "type": "Point",
    "coordinates": [
      8.5489521,
      47.0453926
    ]
  }
},
{
  "type": "Feature",
  "id": "node/6976938421",
  "properties": {
    "access": "yes",
    "defibrillator:location": "Schwyzer Kantonalbank",
    "emergency": "defibrillator",
    "emergency:phone": "144",
    "indoor": "no",
    "opening_hours": "24/7",
    "operator": "Schwyzer Kantonalbank",
    "phone": "+41 58 800 20 20",
    "id": "node/6976938421"
  },
  "geometry": {
    "type": "Point",
    "coordinates": [
      8.6070299,
      46.9965689
    ]
  }
},
{
  "type": "Feature",
  "id": "node/6976938422",
  "properties": {
    "access": "yes",
    "defibrillator:location": "Gemeindeverwaltung",
    "emergency": "defibrillator",
    "emergency:phone": "144",
    "opening_hours": "24/7",
    "operator": "Gemeindeverwaltung Rothenthurm",
    "phone": "+41 41 839 80 20",
    "id": "node/6976938422"
  },
  "geometry": {
    "type": "Point",
    "coordinates": [
      8.6769322,
      47.1049058
    ]
  }
},
{
  "type": "Feature",
  "id": "node/6976938423",
  "properties": {
    "access": "yes",
    "defibrillator:location": "Verkehrsamt Schwyz, Haupteingang links",
    "emergency": "defibrillator",
    "emergency:phone": "144",
    "opening_hours": "24/7",
    "operator": "Baudepartement des Kt. Schwyz",
    "phone": "+41 41 819 25 26",
    "id": "node/6976938423"
  },
  "geometry": {
    "type": "Point",
    "coordinates": [
      8.6444616,
      47.0314567
    ]
  }
},
{
  "type": "Feature",
  "id": "node/6976938424",
  "properties": {
    "access": "yes",
    "defibrillator:location": "Bergstation Mostelberg",
    "emergency": "defibrillator",
    "emergency:phone": "144",
    "opening_hours": "24/7",
    "operator": "Sattel-Hochstuckli AG",
    "phone": "+41 41 836 80 80",
    "id": "node/6976938424"
  },
  "geometry": {
    "type": "Point",
    "coordinates": [
      8.6499062,
      47.0674736
    ]
  }
},
{
  "type": "Feature",
  "id": "node/6976938425",
  "properties": {
    "access": "yes",
    "defibrillator:location": "Turnhalle Schulhaus",
    "emergency": "defibrillator",
    "emergency:phone": "144",
    "opening_hours": "24/7",
    "operator": "Samariterverein Sattel, Albert Holdener",
    "phone": "+41 78 662 38 24",
    "id": "node/6976938425"
  },
  "geometry": {
    "type": "Point",
    "coordinates": [
      8.6357253,
      47.0827626
    ]
  }
},
{
  "type": "Feature",
  "id": "node/6976938426",
  "properties": {
    "access": "yes",
    "defibrillator:location": "Schwyzer Kantonalbank",
    "emergency": "defibrillator",
    "emergency:phone": "144",
    "opening_hours": "24/7",
    "operator": "Schwyzer Kantonalbank",
    "phone": "+41 58 800 20 20",
    "id": "node/6976938426"
  },
  "geometry": {
    "type": "Point",
    "coordinates": [
      8.5478855,
      47.0498199
    ]
  }
},
{
  "type": "Feature",
  "id": "node/6976938427",
  "properties": {
    "access": "yes",
    "defibrillator:location": "Kantonsschule Kollegium, Haupteingang",
    "emergency": "defibrillator",
    "emergency:phone": "144",
    "opening_hours": "24/7",
    "operator": "Kollegium Schwyz, Verwaltung",
    "phone": "+41 41 819 77 00",
    "id": "node/6976938427"
  },
  "geometry": {
    "type": "Point",
    "coordinates": [
      8.652912,
      47.0246295
    ]
  }
},
{
  "type": "Feature",
  "id": "node/6976938428",
  "properties": {
    "access": "yes",
    "defibrillator:location": "Holzbau Nietlisbach GmBH",
    "emergency": "defibrillator",
    "emergency:phone": "144",
    "opening_hours": "24/7",
    "operator": "Feuerwehr Lauerz",
    "phone": "+41 78 732 55 85",
    "id": "node/6976938428"
  },
  "geometry": {
    "type": "Point",
    "coordinates": [
      8.5830624,
      47.032967
    ]
  }
},
{
  "type": "Feature",
  "id": "node/6976938429",
  "properties": {
    "access": "yes",
    "defibrillator:location": "Strandbad",
    "emergency": "defibrillator",
    "emergency:phone": "144",
    "opening_hours": "24/7",
    "operator": "Rettungsdienst Küssnacht",
    "phone": "+41 79 101 93 00",
    "id": "node/6976938429"
  },
  "geometry": {
    "type": "Point",
    "coordinates": [
      8.4345293,
      47.0734204
    ]
  }
},
{
  "type": "Feature",
  "id": "node/6976938430",
  "properties": {
    "access": "yes",
    "defibrillator:location": "Alterszentrum Mythenpark, im Windfang",
    "emergency": "defibrillator",
    "emergency:phone": "144",
    "opening_hours": "24/7",
    "operator": "Alterszentrum Mythenpark",
    "phone": "+41 41 859 09 59",
    "id": "node/6976938430"
  },
  "geometry": {
    "type": "Point",
    "coordinates": [
      8.5495852,
      47.0511799
    ]
  }
},
{
  "type": "Feature",
  "id": "node/6976938431",
  "properties": {
    "access": "yes",
    "defibrillator:location": "Schalterraum Bahnstation Rigi Bahnen AG",
    "emergency": "defibrillator",
    "emergency:phone": "144",
    "opening_hours": "24/7",
    "operator": "Rigi Bahnen AG",
    "phone": "+41 79 545 46 43",
    "id": "node/6976938431"
  },
  "geometry": {
    "type": "Point",
    "coordinates": [
      8.4842262,
      47.055383
    ]
  }
},
{
  "type": "Feature",
  "id": "node/6976938432",
  "properties": {
    "access": "yes",
    "defibrillator:location": "Schulhaus Hofmatt",
    "emergency": "defibrillator",
    "emergency:phone": "144",
    "opening_hours": "24/7",
    "operator": "Gemeindeverwaltung Arth",
    "phone": "+41 41 859 02 02",
    "id": "node/6976938432"
  },
  "geometry": {
    "type": "Point",
    "coordinates": [
      8.5241356,
      47.0631629
    ]
  }
},
{
  "type": "Feature",
  "id": "node/6976938433",
  "properties": {
    "access": "yes",
    "defibrillator:location": "Schiffstation Gersau",
    "emergency": "defibrillator",
    "emergency:phone": "144",
    "indoor": "no",
    "location": "In covered walkway through schiffstation building",
    "opening_hours": "24/7",
    "operator": "Samariterverein Gersau, Frau Camenzind",
    "phone": "+41 41 828 14 80",
    "id": "node/6976938433"
  },
  "geometry": {
    "type": "Point",
    "coordinates": [
      8.5258423,
      46.9906829
    ]
  }
},
{
  "type": "Feature",
  "id": "node/6976938434",
  "properties": {
    "access": "yes",
    "defibrillator:location": "Am Gebäude der Engel-Apotheke",
    "emergency": "defibrillator",
    "emergency:phone": "144",
    "opening_hours": "24/7",
    "operator": "Engel-Apotheke Einsiedeln AG",
    "phone": "+41 55 418 81 41",
    "id": "node/6976938434"
  },
  "geometry": {
    "type": "Point",
    "coordinates": [
      8.7492653,
      47.1269447
    ]
  }
},
{
  "type": "Feature",
  "id": "node/6976938435",
  "properties": {
    "access": "yes",
    "defibrillator:location": "Schwyzer Kantonalbank",
    "emergency": "defibrillator",
    "emergency:phone": "144",
    "opening_hours": "24/7",
    "operator": "Schwyzer Kantonalbank",
    "phone": "+41 58 800 20 20",
    "id": "node/6976938435"
  },
  "geometry": {
    "type": "Point",
    "coordinates": [
      8.4398241,
      47.0819653
    ]
  }
},
{
  "type": "Feature",
  "id": "node/6976938436",
  "properties": {
    "access": "yes",
    "defibrillator:location": "Rigihalle Küssnacht",
    "emergency": "defibrillator",
    "emergency:phone": "144",
    "opening_hours": "24/7",
    "operator": "Rettungsdienst Küssnacht",
    "phone": "+41 79 101 93 00",
    "id": "node/6976938436"
  },
  "geometry": {
    "type": "Point",
    "coordinates": [
      8.4441923,
      47.0873695
    ]
  }
},
{
  "type": "Feature",
  "id": "node/6976938437",
  "properties": {
    "access": "yes",
    "defibrillator:location": "Bahnstation Hochperron, Rigi Bahnen AG",
    "emergency": "defibrillator",
    "emergency:phone": "144",
    "opening_hours": "24/7",
    "operator": "Rigi Bahnen AG",
    "phone": "+41 79 545 46 43",
    "id": "node/6976938437"
  },
  "geometry": {
    "type": "Point",
    "coordinates": [
      8.5478243,
      47.048768
    ]
  }
},
{
  "type": "Feature",
  "id": "node/6976938438",
  "properties": {
    "access": "yes",
    "defibrillator:location": "Schalterraum Bahnstation Rigi Bahnen AG",
    "emergency": "defibrillator",
    "emergency:phone": "144",
    "opening_hours": "24/7",
    "operator": "Rigi Bahnen AG",
    "phone": "+41 79 545 46 43",
    "id": "node/6976938438"
  },
  "geometry": {
    "type": "Point",
    "coordinates": [
      8.4741581,
      47.0534142
    ]
  }
},
{
  "type": "Feature",
  "id": "node/6976938439",
  "properties": {
    "access": "yes",
    "defibrillator:location": "Freizeitpark Erlenmoos",
    "emergency": "defibrillator",
    "emergency:phone": "144",
    "opening_hours": "24/7",
    "operator": "Gemeinde Wollerau",
    "phone": "+41 79 848 37 73",
    "id": "node/6976938439"
  },
  "geometry": {
    "type": "Point",
    "coordinates": [
      8.7052644,
      47.1886914
    ]
  }
},
{
  "type": "Feature",
  "id": "node/6976938440",
  "properties": {
    "access": "yes",
    "defibrillator:location": "Parkhaus",
    "emergency": "defibrillator",
    "emergency:phone": "144",
    "image": "https://data.geo.sz.ch/public/Themen/A079a/Bilder/Wollerau_5/5.jpg",
    "opening_hours": "24/7",
    "operator": "Gemeinde Wollerau",
    "phone": "+41 79 129 77 00",
    "id": "node/6976938440"
  },
  "geometry": {
    "type": "Point",
    "coordinates": [
      8.7210478,
      47.196424
    ]
  }
},
{
  "type": "Feature",
  "id": "node/6976938441",
  "properties": {
    "access": "yes",
    "defibrillator:location": "Eingang Sporthalle Maihof",
    "emergency": "defibrillator",
    "emergency:phone": "144",
    "opening_hours": "24/7",
    "operator": "Schulhausabwart",
    "phone": "+41 43 888 25 49",
    "id": "node/6976938441"
  },
  "geometry": {
    "type": "Point",
    "coordinates": [
      8.7161844,
      47.1762643
    ]
  }
},
{
  "type": "Feature",
  "id": "node/6976938442",
  "properties": {
    "access": "yes",
    "defibrillator:location": "Am Gebäude der Apotheke Hofmatt",
    "emergency": "defibrillator",
    "emergency:phone": "144",
    "indoor": "no",
    "opening_hours": "24/7",
    "operator": "Apotheke Hofmatt",
    "phone": "+41 41 811 56 16",
    "id": "node/6976938442"
  },
  "geometry": {
    "type": "Point",
    "coordinates": [
      8.6523288,
      47.0209473
    ]
  }
},
{
  "type": "Feature",
  "id": "node/6976938443",
  "properties": {
    "access": "yes",
    "colour": "green",
    "defibrillator:location": "Am Gebäude der Apotheke Rütli",
    "description": "Apotheke Rütli",
    "emergency": "defibrillator",
    "emergency:phone": "144",
    "indoor": "no",
    "opening_hours": "24/7",
    "operator": "Gemeinde Ingenbohl-Brunnen",
    "phone": "+41 41 825 05 62",
    "wheelchair": "yes",
    "id": "node/6976938443"
  },
  "geometry": {
    "type": "Point",
    "coordinates": [
      8.6054458,
      46.9942327
    ]
  }
},
{
  "type": "Feature",
  "id": "node/6976938444",
  "properties": {
    "access": "yes",
    "defibrillator:location": "Bahnhof SBB",
    "emergency": "defibrillator",
    "emergency:phone": "144",
    "indoor": "no",
    "opening_hours": "24/7",
    "operator": "Gemeinde Freienbach",
    "phone": "+41 79 478 55 99",
    "id": "node/6976938444"
  },
  "geometry": {
    "type": "Point",
    "coordinates": [
      8.7782241,
      47.2029025
    ]
  }
},
{
  "type": "Feature",
  "id": "node/6982050773",
  "properties": {
    "access": "yes",
    "defibrillator:location": "Im Eingangsbereich des Pflegeheims",
    "emergency": "defibrillator",
    "emergency:phone": "144",
    "indoor": "yes",
    "level": "0",
    "opening_hours": "24/7",
    "id": "node/6982050773"
  },
  "geometry": {
    "type": "Point",
    "coordinates": [
      8.7791222,
      47.2002003
    ]
  }
},
{
  "type": "Feature",
  "id": "node/6985057450",
  "properties": {
    "access": "customers",
    "defibrillator:location": "Im Eingangsbereich der Turnhalle",
    "emergency": "defibrillator",
    "emergency:phone": "144",
    "indoor": "yes",
    "level": "0",
    "opening_hours": "24/7",
    "id": "node/6985057450"
  },
  "geometry": {
    "type": "Point",
    "coordinates": [
      8.9009221,
      47.1814648
    ]
  }
},
{
  "type": "Feature",
  "id": "node/6992954768",
  "properties": {
    "defibrillator:location": "Postplatz 1\nvor Bistro Kiosk Post",
    "emergency": "defibrillator",
    "emergency:phone": "144",
    "indoor": "no",
    "opening_hours": "24/7",
    "operator": "ResQshock GmbH",
    "id": "node/6992954768"
  },
  "geometry": {
    "type": "Point",
    "coordinates": [
      8.9291321,
      47.1731335
    ]
  }
},
{
  "type": "Feature",
  "id": "node/6992994100",
  "properties": {
    "defibrillator:location": "Gutenbrunnen 20\nvor Schwanen Apotheke",
    "emergency": "defibrillator",
    "emergency:phone": "144",
    "indoor": "no",
    "opening_hours": "24/7",
    "id": "node/6992994100"
  },
  "geometry": {
    "type": "Point",
    "coordinates": [
      8.9425744,
      47.1752641
    ]
  }
},
{
  "type": "Feature",
  "id": "node/7041623546",
  "properties": {
    "defibrillator:location": "Kantonsstrasse 15\nvor Haupteingang",
    "emergency": "defibrillator",
    "emergency:phone": "144",
    "indoor": "no",
    "opening_hours": "24/7",
    "operator": "MuKidi Familienzentrum am Park",
    "id": "node/7041623546"
  },
  "geometry": {
    "type": "Point",
    "coordinates": [
      8.946955,
      47.1755082
    ]
  }
},
{
  "type": "Feature",
  "id": "node/7637818552",
  "properties": {
    "access": "yes",
    "description": "Schalterraum Bahnstation",
    "emergency": "defibrillator",
    "emergency:phone": "144",
    "name": "Rigi Staffel",
    "opening_hours": "24/7",
    "id": "node/7637818552"
  },
  "geometry": {
    "type": "Point",
    "coordinates": [
      8.4742692,
      47.0536692
    ]
  }
},
{
  "type": "Feature",
  "id": "node/7637818553",
  "properties": {
    "access": "yes",
    "description": "Aussenfont Seite Dorfplatz",
    "emergency": "defibrillator",
    "emergency:phone": "144",
    "name": "Rigi Kulm",
    "opening_hours": "24/7",
    "id": "node/7637818553"
  },
  "geometry": {
    "type": "Point",
    "coordinates": [
      8.4842134,
      47.0553603
    ]
  }
},
{
  "type": "Feature",
  "id": "node/7637818610",
  "properties": {
    "access": "yes",
    "description": "Aussenwand beim Eingang",
    "emergency": "defibrillator",
    "emergency:phone": "144",
    "name": "Dorfladen, Poststelle",
    "opening_hours": "24/7",
    "id": "node/7637818610"
  },
  "geometry": {
    "type": "Point",
    "coordinates": [
      8.4081522,
      47.0658959
    ]
  }
},
{
  "type": "Feature",
  "id": "node/7637818872",
  "properties": {
    "emergency": "defibrillator",
    "emergency:phone": "144",
    "name": "Ã„rztezentrum Kelmatt, Praxis",
    "id": "node/7637818872"
  },
  "geometry": {
    "type": "Point",
    "coordinates": [
      8.4416823,
      47.0833925
    ]
  }
},
{
  "type": "Feature",
  "id": "node/7637818873",
  "properties": {
    "description": "in der Praxis",
    "emergency": "defibrillator",
    "emergency:phone": "144",
    "name": "Baumann Katja, Dotfpraxis",
    "id": "node/7637818873"
  },
  "geometry": {
    "type": "Point",
    "coordinates": [
      8.4361138,
      47.083513
    ]
  }
},
{
  "type": "Feature",
  "id": "node/7637818874",
  "properties": {
    "description": "Vor dem Zahnarzt Praxis im Gang, 1. Stock",
    "emergency": "defibrillator",
    "emergency:phone": "144",
    "name": "Gesundheitszentrum Rigi,Praxis",
    "id": "node/7637818874"
  },
  "geometry": {
    "type": "Point",
    "coordinates": [
      8.4405852,
      47.0859929
    ]
  }
},
{
  "type": "Feature",
  "id": "node/7637818875",
  "properties": {
    "description": "vor Sekretariat",
    "emergency": "defibrillator",
    "emergency:phone": "144",
    "name": "Golfclub Küssnacht",
    "id": "node/7637818875"
  },
  "geometry": {
    "type": "Point",
    "coordinates": [
      8.4319324,
      47.0888387
    ]
  }
},
{
  "type": "Feature",
  "id": "node/7637818876",
  "properties": {
    "emergency": "defibrillator",
    "emergency:phone": "144",
    "name": "Gössi Beatrice, Praxis",
    "id": "node/7637818876"
  },
  "geometry": {
    "type": "Point",
    "coordinates": [
      8.4387422,
      47.0825096
    ]
  }
},
{
  "type": "Feature",
  "id": "node/7637818877",
  "properties": {
    "access": "yes",
    "description": "Eingang",
    "emergency": "defibrillator",
    "emergency:phone": "144",
    "name": "Kirchenzentrum Monsejour",
    "opening_hours": "24/7",
    "id": "node/7637818877"
  },
  "geometry": {
    "type": "Point",
    "coordinates": [
      8.4393577,
      47.080912
    ]
  }
},
{
  "type": "Feature",
  "id": "node/7637818878",
  "properties": {
    "description": "Empfang EG",
    "emergency": "defibrillator",
    "emergency:phone": "144",
    "name": "Lifetec Hofstetter PCB AG",
    "id": "node/7637818878"
  },
  "geometry": {
    "type": "Point",
    "coordinates": [
      8.4500594,
      47.1078863
    ]
  }
},
{
  "type": "Feature",
  "id": "node/7637818879",
  "properties": {
    "description": "Büro Filialleiter",
    "emergency": "defibrillator",
    "emergency:phone": "144",
    "name": "Lifetec Müller Handels AG",
    "id": "node/7637818879"
  },
  "geometry": {
    "type": "Point",
    "coordinates": [
      8.4501942,
      47.1066528
    ]
  }
},
{
  "type": "Feature",
  "id": "node/7637818880",
  "properties": {
    "description": "Kundendienst",
    "emergency": "defibrillator",
    "emergency:phone": "144",
    "name": "Migros",
    "id": "node/7637818880"
  },
  "geometry": {
    "type": "Point",
    "coordinates": [
      8.44121,
      47.0834866
    ]
  }
},
{
  "type": "Feature",
  "id": "node/7637818881",
  "properties": {
    "access": "yes",
    "description": "Aussen an Kirche",
    "emergency": "defibrillator",
    "emergency:phone": "144",
    "name": "Reformierte Kirche",
    "opening_hours": "24/7",
    "id": "node/7637818881"
  },
  "geometry": {
    "type": "Point",
    "coordinates": [
      8.4434595,
      47.081245
    ]
  }
},
{
  "type": "Feature",
  "id": "node/7637818882",
  "properties": {
    "access": "yes",
    "description": "Richtung Eishalle, Aussenwand",
    "emergency": "defibrillator",
    "emergency:phone": "144",
    "name": "Rigihalle Eishalle",
    "opening_hours": "24/7",
    "id": "node/7637818882"
  },
  "geometry": {
    "type": "Point",
    "coordinates": [
      8.4445962,
      47.0870823
    ]
  }
},
{
  "type": "Feature",
  "id": "node/7637818883",
  "properties": {
    "access": "yes",
    "description": "im Vorraum (Bankomat)",
    "emergency": "defibrillator",
    "emergency:phone": "144",
    "name": "Schwyzer Kantonalbank",
    "opening_hours": "24/7",
    "id": "node/7637818883"
  },
  "geometry": {
    "type": "Point",
    "coordinates": [
      8.439995,
      47.081896
    ]
  }
},
{
  "type": "Feature",
  "id": "node/7637818884",
  "properties": {
    "access": "yes",
    "description": "li. nach dem Eingang",
    "emergency": "defibrillator",
    "emergency:phone": "144",
    "name": "Strandbad Seeburg",
    "opening_hours": "24/7",
    "id": "node/7637818884"
  },
  "geometry": {
    "type": "Point",
    "coordinates": [
      8.4345971,
      47.0734689
    ]
  }
},
{
  "type": "Feature",
  "id": "node/7637818888",
  "properties": {
    "access": "yes",
    "description": "Eingang Werkhof",
    "emergency": "defibrillator",
    "emergency:phone": "144",
    "name": "Bauu. Vanoli Werkhof",
    "opening_hours": "24/7",
    "id": "node/7637818888"
  },
  "geometry": {
    "type": "Point",
    "coordinates": [
      8.4519966,
      47.0904896
    ]
  }
},
{
  "type": "Feature",
  "id": "node/7653018012",
  "properties": {
    "access": "yes",
    "defibrillator:location": "Beim Badehäuschen",
    "description": "24h verfügbar",
    "emergency": "defibrillator",
    "emergency:phone": "144",
    "indoor": "no",
    "opening_hours": "24/7",
    "operator": "Gemeinde Altendorf",
    "id": "node/7653018012"
  },
  "geometry": {
    "type": "Point",
    "coordinates": [
      8.8200103,
      47.1950231
    ]
  }
},
{
  "type": "Feature",
  "id": "node/7723731351",
  "properties": {
    "defibrillator:location": "Im Altersheim Gerbe",
    "emergency": "defibrillator",
    "emergency:phone": "144",
    "indoor": "yes",
    "id": "node/7723731351"
  },
  "geometry": {
    "type": "Point",
    "coordinates": [
      8.7498392,
      47.1324452
    ]
  }
},
{
  "type": "Feature",
  "id": "node/7723731352",
  "properties": {
    "defibrillator:location": "Im Altersheim Langrüti",
    "emergency": "defibrillator",
    "emergency:phone": "144",
    "indoor": "yes",
    "id": "node/7723731352"
  },
  "geometry": {
    "type": "Point",
    "coordinates": [
      8.7421051,
      47.1217951
    ]
  }
},
{
  "type": "Feature",
  "id": "node/7723731353",
  "properties": {
    "defibrillator:location": "Bei Medico Plus AG",
    "description": "nur während Öffnungszeiten verfügbar",
    "emergency": "defibrillator",
    "emergency:phone": "144",
    "indoor": "yes",
    "id": "node/7723731353"
  },
  "geometry": {
    "type": "Point",
    "coordinates": [
      8.7398681,
      47.1300511
    ]
  }
},
{
  "type": "Feature",
  "id": "node/7723731354",
  "properties": {
    "defibrillator:location": "Bei Klosterpforte im Gebäude",
    "description": "nur während Öffnungszeiten verfügbar",
    "emergency": "defibrillator",
    "emergency:phone": "144",
    "indoor": "yes",
    "id": "node/7723731354"
  },
  "geometry": {
    "type": "Point",
    "coordinates": [
      8.7520384,
      47.1261598
    ]
  }
},
{
  "type": "Feature",
  "id": "node/7723731355",
  "properties": {
    "defibrillator:location": "Im Migros",
    "description": "nur während Öffnungszeiten verfügbar",
    "emergency": "defibrillator",
    "emergency:phone": "144",
    "indoor": "yes",
    "id": "node/7723731355"
  },
  "geometry": {
    "type": "Point",
    "coordinates": [
      8.7459158,
      47.1287372
    ]
  }
},
{
  "type": "Feature",
  "id": "node/7871604517",
  "properties": {
    "access": "customers",
    "defibrillator:location": "Beim Kiosk, linke Hausseite",
    "emergency": "defibrillator",
    "emergency:phone": "144",
    "opening_hours": "Apr-Oct: Mo-Su 09:00-18:00;Nov-Mar:Mo-Su 09:00-17:00",
    "operator": "Tierpark Goldau",
    "wheelchair": "yes",
    "id": "node/7871604517"
  },
  "geometry": {
    "type": "Point",
    "coordinates": [
      8.557148,
      47.0499472
    ]
  }
},
{
  "type": "Feature",
  "id": "node/7880596449",
  "properties": {
    "access": "yes",
    "defibrillator:location": "Gemeindeverwaltung Lauerz",
    "description": "24h verfügbar",
    "emergency": "defibrillator",
    "emergency:phone": "144",
    "indoor": "no",
    "opening_hours": "24/7",
    "operator": "LFZ",
    "id": "node/7880596449"
  },
  "geometry": {
    "type": "Point",
    "coordinates": [
      8.5793835,
      47.0356854
    ]
  }
},
{
  "type": "Feature",
  "id": "node/7925859050",
  "properties": {
    "emergency": "defibrillator",
    "emergency:phone": "144",
    "id": "node/7925859050"
  },
  "geometry": {
    "type": "Point",
    "coordinates": [
      8.7351887,
      47.1199912
    ]
  }
},
{
  "type": "Feature",
  "id": "node/7977180584",
  "properties": {
    "access": "yes",
    "defibrillator:location": "Beim Shop gleich an der Ecke aufgehängt",
    "description": "24h verfügbar",
    "emergency": "defibrillator",
    "emergency:phone": "144",
    "indoor": "no",
    "opening_hours": "24/7",
    "operator": "Gemeinde Altendorf",
    "id": "node/7977180584"
  },
  "geometry": {
    "type": "Point",
    "coordinates": [
      8.8455418,
      47.1871533
    ]
  }
},
{
  "type": "Feature",
  "id": "node/7977202585",
  "properties": {
    "access": "yes",
    "defibrillator:location": "Beim Eingang Feuerwehr",
    "description": "24h verfügbar",
    "emergency": "defibrillator",
    "emergency:phone": "144",
    "indoor": "no",
    "opening_hours": "24/7",
    "operator": "Gemeinde Altendorf",
    "id": "node/7977202585"
  },
  "geometry": {
    "type": "Point",
    "coordinates": [
      8.8321803,
      47.1907141
    ]
  }
},
{
  "type": "Feature",
  "id": "node/7977202586",
  "properties": {
    "access": "yes",
    "defibrillator:location": "Bei den Toiletten am Bahnhof",
    "description": "24h verfügbar",
    "emergency": "defibrillator",
    "emergency:phone": "144",
    "indoor": "no",
    "opening_hours": "24/7",
    "operator": "Gemeinde Altendorf",
    "id": "node/7977202586"
  },
  "geometry": {
    "type": "Point",
    "coordinates": [
      8.8228557,
      47.1939274
    ]
  }
},
{
  "type": "Feature",
  "id": "node/7977202587",
  "properties": {
    "access": "yes",
    "defibrillator:location": "Bei Trafostation",
    "description": "24h verfügbar",
    "emergency": "defibrillator",
    "emergency:phone": "144",
    "indoor": "no",
    "opening_hours": "24/7",
    "operator": "Gemeinde Altendorf",
    "id": "node/7977202587"
  },
  "geometry": {
    "type": "Point",
    "coordinates": [
      8.813016,
      47.1934554
    ]
  }
},
{
  "type": "Feature",
  "id": "node/7977202588",
  "properties": {
    "access": "yes",
    "defibrillator:location": "Beim Eingang des Seniorenzentrum",
    "description": "24h verfügbar",
    "emergency": "defibrillator",
    "emergency:phone": "144",
    "indoor": "no",
    "opening_hours": "24/7",
    "id": "node/7977202588"
  },
  "geometry": {
    "type": "Point",
    "coordinates": [
      8.8322782,
      47.1921914
    ]
  }
},
{
  "type": "Feature",
  "id": "node/8294500539",
  "properties": {
    "access": "yes",
    "defibrillator:location": "Aussen am Gebäude für den Ticketverkauf",
    "description": "24h verfügbar",
    "emergency": "defibrillator",
    "emergency:phone": "144",
    "indoor": "no",
    "opening_hours": "24/7",
    "id": "node/8294500539"
  },
  "geometry": {
    "type": "Point",
    "coordinates": [
      8.7050026,
      47.0448655
    ]
  }
},
{
  "type": "Feature",
  "id": "node/8361472284",
  "properties": {
    "access": "yes",
    "defibrillator:location": "An der Garage (Tor)",
    "description": "24h verfügbar",
    "emergency": "defibrillator",
    "emergency:phone": "144",
    "indoor": "no",
    "opening_hours": "24/7",
    "id": "node/8361472284"
  },
  "geometry": {
    "type": "Point",
    "coordinates": [
      8.5898403,
      47.0243342
    ]
  }
},
{
  "type": "Feature",
  "id": "node/8361472285",
  "properties": {
    "access": "yes",
    "defibrillator:location": "Rechts vom Eingang Shop, Links um die Ecke bei Tanksäule",
    "description": "24h verfügbar bei Distillerie",
    "emergency": "defibrillator",
    "emergency:phone": "144",
    "indoor": "no",
    "id": "node/8361472285"
  },
  "geometry": {
    "type": "Point",
    "coordinates": [
      8.5911938,
      47.0308482
    ]
  }
},
{
  "type": "Feature",
  "id": "node/8421253581",
  "properties": {
    "access": "yes",
    "defibrillator:location": "Kantonsstrasse 61, Hornbach\nvor Seiteneingang",
    "emergency": "defibrillator",
    "emergency:phone": "144",
    "indoor": "no",
    "level": "0",
    "opening_hours": "24/7",
    "wheelchair": "yes",
    "id": "node/8421253581"
  },
  "geometry": {
    "type": "Point",
    "coordinates": [
      8.8795059,
      47.1813374
    ]
  }
},
{
  "type": "Feature",
  "id": "node/8446642817",
  "properties": {
    "access": "no",
    "defibrillator:location": "RuossTech AG, Glarnerstrasse 75, 8853 Siebnen",
    "description": "Während Öffnungszeiten",
    "emergency": "defibrillator",
    "emergency:phone": "144",
    "indoor": "yes",
    "opening_hours": "07:00-17:00",
    "operator": "RuossTech AG (Firma)",
    "phone": "+41554503044",
    "id": "node/8446642817"
  },
  "geometry": {
    "type": "Point",
    "coordinates": [
      8.9072039,
      47.1762052
    ]
  }
},
{
  "type": "Feature",
  "id": "node/8541281018",
  "properties": {
    "access": "yes",
    "defibrillator:location": "EVA Haus",
    "description": "Neben Parkplatz am Haus \n24 Std. zugänglich",
    "emergency": "defibrillator",
    "emergency:phone": "144",
    "indoor": "no",
    "opening_hours": "24/7",
    "operator": "Gemeinde Altendorf",
    "id": "node/8541281018"
  },
  "geometry": {
    "type": "Point",
    "coordinates": [
      8.8454023,
      47.173962
    ]
  }
},
{
  "type": "Feature",
  "id": "node/8541316518",
  "properties": {
    "access": "yes",
    "defibrillator:location": "EW Haus",
    "description": "24 zugänglich",
    "emergency": "defibrillator",
    "emergency:phone": "144",
    "indoor": "no",
    "opening_hours": "24/7",
    "operator": "Gemeinde Altendorf",
    "id": "node/8541316518"
  },
  "geometry": {
    "type": "Point",
    "coordinates": [
      8.852769,
      47.1818228
    ]
  }
},
{
  "type": "Feature",
  "id": "node/8541501541",
  "properties": {
    "access": "yes",
    "defibrillator:location": "Grünhaldenstrasse 3, Gemeindehaus vor Eingang",
    "emergency": "defibrillator",
    "emergency:phone": "144",
    "image": "https://firstresponder-siebnen.ch/images/AED_Standorte/Schbelbach_Grnhaldenstr_3_Gemeindehaus.jpg",
    "indoor": "no",
    "opening_hours": "24/7",
    "operator": "Gemeinde Schübelbach",
    "id": "node/8541501541"
  },
  "geometry": {
    "type": "Point",
    "coordinates": [
      8.9256908,
      47.1747907
    ]
  }
},
{
  "type": "Feature",
  "id": "node/8541552038",
  "properties": {
    "access": "yes",
    "defibrillator:location": "Ruchweid 4 Skihaus Ruchweid, in Garage unterhalb Gebäude",
    "emergency": "defibrillator",
    "emergency:phone": "144",
    "indoor": "yes",
    "opening_hours": "24/7",
    "operator": "Skiclub Galgenen",
    "id": "node/8541552038"
  },
  "geometry": {
    "type": "Point",
    "coordinates": [
      8.8629904,
      47.1541801
    ]
  }
},
{
  "type": "Feature",
  "id": "node/8561215099",
  "properties": {
    "access": "no",
    "defibrillator:location": "Empfang",
    "description": "während Öffnungszeiten verfügbar",
    "emergency": "defibrillator",
    "emergency:phone": "144",
    "indoor": "yes",
    "opening_hours": "Mo-Fr 08:00-12:00, 13:30-17:00",
    "operator": "Bosch Rexroth Schweiz AG",
    "phone": "+41554646977",
    "id": "node/8561215099"
  },
  "geometry": {
    "type": "Point",
    "coordinates": [
      8.9589999,
      47.172491
    ]
  }
},
{
  "type": "Feature",
  "id": "node/8562610126",
  "properties": {
    "access": "yes",
    "defibrillator:location": "Alterszentrum Chriesigarte, im Windfang",
    "description": "24h verfügbar",
    "emergency": "defibrillator",
    "emergency:phone": "144",
    "indoor": "yes",
    "opening_hours": "24/7",
    "operator": "Alterszentrum Chriesigarte Arth, Claudiu Somesan",
    "phone": "+41 41 854 87 47",
    "id": "node/8562610126"
  },
  "geometry": {
    "type": "Point",
    "coordinates": [
      8.5260773,
      47.0626613
    ]
  }
},
{
  "type": "Feature",
  "id": "node/8577475481",
  "properties": {
    "access": "yes",
    "defibrillator:location": "Bei den Briefkästen - Eingangstüre die Mobiliar",
    "description": "24h verfügbar",
    "emergency": "defibrillator",
    "emergency:phone": "144",
    "indoor": "no",
    "opening_hours": "24/7",
    "operator": "resQshock GmbH, 8863 Buttikon",
    "phone": "+41 55 460 22 44",
    "id": "node/8577475481"
  },
  "geometry": {
    "type": "Point",
    "coordinates": [
      8.8495273,
      47.1898173
    ]
  }
},
{
  "type": "Feature",
  "id": "node/8577530559",
  "properties": {
    "access": "yes",
    "defibrillator:location": "Beim Gemeinschaftszentrum Freienbach",
    "description": "24h verfügbar",
    "emergency": "defibrillator",
    "emergency:phone": "144",
    "indoor": "no",
    "opening_hours": "24/7",
    "id": "node/8577530559"
  },
  "geometry": {
    "type": "Point",
    "coordinates": [
      8.7595629,
      47.2051591
    ]
  }
},
{
  "type": "Feature",
  "id": "node/8579201833",
  "properties": {
    "emergency": "defibrillator",
    "emergency:phone": "144",
    "indoor": "no",
    "id": "node/8579201833"
  },
  "geometry": {
    "type": "Point",
    "coordinates": [
      8.4752906,
      47.1050902
    ]
  }
},
{
  "type": "Feature",
  "id": "node/8592058545",
  "properties": {
    "access": "yes",
    "defibrillator:location": "beim Hauszugang neben den Briefkästen",
    "description": "24h verfügbar",
    "emergency": "defibrillator",
    "emergency:phone": "144",
    "indoor": "no",
    "opening_hours": "24/7",
    "operator": "Gemeinde Reichenburg",
    "phone": "+41 55 464 30 60",
    "id": "node/8592058545"
  },
  "geometry": {
    "type": "Point",
    "coordinates": [
      8.9793233,
      47.1677189
    ]
  }
},
{
  "type": "Feature",
  "id": "node/8592065341",
  "properties": {
    "access": "yes",
    "defibrillator:location": "Haupteingang",
    "description": "24h verfügbar",
    "emergency": "defibrillator",
    "emergency:phone": "144",
    "indoor": "no",
    "opening_hours": "24/7",
    "operator": "Glasmanufaktur Buttikon, 8864 Reichenburg",
    "phone": "+41 55 460 22 44",
    "id": "node/8592065341"
  },
  "geometry": {
    "type": "Point",
    "coordinates": [
      8.970766,
      47.1734103
    ]
  }
},
{
  "type": "Feature",
  "id": "node/8592071117",
  "properties": {
    "access": "yes",
    "defibrillator:location": "beim Haupteingang",
    "description": "24h verfügbar",
    "emergency": "defibrillator",
    "emergency:phone": "144",
    "indoor": "no",
    "opening_hours": "24/7",
    "operator": "Gemeinde Reichenburg",
    "phone": "+41 55 460 22 44",
    "id": "node/8592071117"
  },
  "geometry": {
    "type": "Point",
    "coordinates": [
      8.9750928,
      47.1684617
    ]
  }
},
{
  "type": "Feature",
  "id": "node/8599976517",
  "properties": {
    "access": "yes",
    "defibrillator:location": "Schulhaus Enenda",
    "emergency": "defibrillator",
    "emergency:phone": "144",
    "indoor": "no",
    "opening_hours": "24/7",
    "operator": "Gemeinde",
    "id": "node/8599976517"
  },
  "geometry": {
    "type": "Point",
    "coordinates": [
      8.9465686,
      47.2016508
    ]
  }
},
{
  "type": "Feature",
  "id": "node/8605102717",
  "properties": {
    "access": "yes",
    "defibrillator:location": "Waagtalstrassenseite, Hausmitte\nIn einer Nische (ehem. Hauseingang).",
    "description": "24h verfügbar",
    "emergency": "defibrillator",
    "emergency:phone": "144",
    "indoor": "no",
    "opening_hours": "24/7",
    "operator": "Gemeinde Unteriberg",
    "phone": "+4178317023",
    "id": "node/8605102717"
  },
  "geometry": {
    "type": "Point",
    "coordinates": [
      8.8016048,
      47.0583142
    ]
  }
},
{
  "type": "Feature",
  "id": "node/8610194017",
  "properties": {
    "access": "yes",
    "defibrillator:location": "Pfarrweid 4 Altendorf",
    "description": "Links neben Hauseingang",
    "emergency": "defibrillator",
    "emergency:phone": "144",
    "indoor": "no",
    "opening_hours": "24/7",
    "operator": "Gemeinde Altendorf",
    "id": "node/8610194017"
  },
  "geometry": {
    "type": "Point",
    "coordinates": [
      8.8275247,
      47.1865777
    ]
  }
},
{
  "type": "Feature",
  "id": "node/8610901717",
  "properties": {
    "access": "yes",
    "defibrillator:location": "Feuerwhrlokal Steinen",
    "emergency": "defibrillator",
    "emergency:phone": "144",
    "indoor": "no",
    "operator": "Gemeinde Steinen",
    "id": "node/8610901717"
  },
  "geometry": {
    "type": "Point",
    "coordinates": [
      8.6070065,
      47.0486667
    ]
  }
},
{
  "type": "Feature",
  "id": "node/8611714217",
  "properties": {
    "access": "yes",
    "defibrillator:location": "Feuerwehrlokal Steinerberg ",
    "emergency": "defibrillator",
    "emergency:phone": "144",
    "indoor": "no",
    "opening_hours": "24/7",
    "operator": "Gemeinde Steinerberg",
    "id": "node/8611714217"
  },
  "geometry": {
    "type": "Point",
    "coordinates": [
      8.5856931,
      47.0539194
    ]
  }
},
{
  "type": "Feature",
  "id": "node/8617211933",
  "properties": {
    "access": "yes",
    "defibrillator:location": "an der Fassade",
    "description": "24h verfügbar",
    "emergency": "defibrillator",
    "emergency:phone": "144",
    "indoor": "no",
    "opening_hours": "24/7",
    "operator": "RIWAG Türen AG",
    "phone": "+4141590031",
    "id": "node/8617211933"
  },
  "geometry": {
    "type": "Point",
    "coordinates": [
      8.5320587,
      47.0599049
    ]
  }
},
{
  "type": "Feature",
  "id": "node/8621096417",
  "properties": {
    "access": "yes",
    "defibrillator:location": "Fussballplatz Tschaibrunnen",
    "description": "Beim Eingang von Kabinen\n",
    "emergency": "defibrillator",
    "emergency:phone": "144",
    "indoor": "no",
    "id": "node/8621096417"
  },
  "geometry": {
    "type": "Point",
    "coordinates": [
      8.6610194,
      47.0203124
    ]
  }
},
{
  "type": "Feature",
  "id": "node/8621135266",
  "properties": {
    "access": "yes",
    "defibrillator:location": "Im Gang gleich im Schrank der Kabine 1. Es gibt eine Beschriftung auf der Schranktür.",
    "description": "während Öffnungszeiten verfügbar",
    "emergency": "defibrillator",
    "emergency:phone": "144",
    "indoor": "yes",
    "opening_hours": "Mo-Fr 07:00-20:00; Sa 08:00-16:00; Su 09:00-14:00",
    "operator": "Jeroen de Leur",
    "phone": "+41 55 418 30 40",
    "id": "node/8621135266"
  },
  "geometry": {
    "type": "Point",
    "coordinates": [
      8.7465756,
      47.1259151
    ]
  }
},
{
  "type": "Feature",
  "id": "node/8636115317",
  "properties": {
    "access": "no",
    "defibrillator:location": "kilchmatt",
    "emergency": "defibrillator",
    "emergency:phone": "144",
    "indoor": "no",
    "id": "node/8636115317"
  },
  "geometry": {
    "type": "Point",
    "coordinates": [
      8.6202173,
      47.0014403
    ]
  }
},
{
  "type": "Feature",
  "id": "node/8689833017",
  "properties": {
    "access": "yes",
    "defibrillator:location": "Telefonkabine, Schulhaus 3",
    "emergency": "defibrillator",
    "emergency:phone": "144",
    "indoor": "no",
    "opening_hours": "24/7",
    "id": "node/8689833017"
  },
  "geometry": {
    "type": "Point",
    "coordinates": [
      8.8945859,
      47.1929292
    ]
  }
},
{
  "type": "Feature",
  "id": "node/8713427318",
  "properties": {
    "access": "yes",
    "defibrillator:location": "Victorinox",
    "emergency": "defibrillator",
    "emergency:phone": "144",
    "indoor": "no",
    "opening_hours": "24/7",
    "id": "node/8713427318"
  },
  "geometry": {
    "type": "Point",
    "coordinates": [
      8.6497737,
      47.0175941
    ]
  }
},
{
  "type": "Feature",
  "id": "node/8720846886",
  "properties": {
    "access": "yes",
    "defibrillator:location": "Beim Eingang Seebad Arth",
    "description": "24h verfügbar",
    "emergency": "defibrillator",
    "emergency:phone": "144",
    "indoor": "no",
    "opening_hours": "24/7",
    "operator": "Gemeindeverwaltung Arth",
    "phone": "+41 41 859 02 02",
    "id": "node/8720846886"
  },
  "geometry": {
    "type": "Point",
    "coordinates": [
      8.5261698,
      47.068569
    ]
  }
},
{
  "type": "Feature",
  "id": "node/8750041512",
  "properties": {
    "access": "yes",
    "defibrillator:location": "Im Gebäude",
    "description": "während Öffnungszeiten verfügbar",
    "emergency": "defibrillator",
    "emergency:phone": "144",
    "indoor": "yes",
    "id": "node/8750041512"
  },
  "geometry": {
    "type": "Point",
    "coordinates": [
      8.6888081,
      47.0297241
    ]
  }
},
{
  "type": "Feature",
  "id": "node/8836783017",
  "properties": {
    "access": "yes",
    "defibrillator:location": "Feuerwehrdepot Sattel",
    "emergency": "defibrillator",
    "emergency:phone": "144",
    "indoor": "no",
    "opening_hours": "24/7",
    "id": "node/8836783017"
  },
  "geometry": {
    "type": "Point",
    "coordinates": [
      8.6342062,
      47.0789756
    ]
  }
},
{
  "type": "Feature",
  "id": "node/8837931517",
  "properties": {
    "access": "yes",
    "defibrillator:location": "Seniorenzentrum Brunnenhof, Hengstackerstrasse 2",
    "description": "Mauer Parkplatz bei Treppenaufgang",
    "emergency": "defibrillator",
    "emergency:phone": "144",
    "indoor": "no",
    "opening_hours": "24/7",
    "id": "node/8837931517"
  },
  "geometry": {
    "type": "Point",
    "coordinates": [
      8.8898852,
      47.1912017
    ]
  }
},
{
  "type": "Feature",
  "id": "node/8840856417",
  "properties": {
    "access": "yes",
    "defibrillator:location": "Zugang BBZG",
    "emergency": "defibrillator",
    "emergency:phone": "144",
    "indoor": "no",
    "opening_hours": "24/7",
    "operator": "BBZG",
    "phone": "+41418552777",
    "id": "node/8840856417"
  },
  "geometry": {
    "type": "Point",
    "coordinates": [
      8.5539486,
      47.0460443
    ]
  }
},
{
  "type": "Feature",
  "id": "node/8841003820",
  "properties": {
    "access": "yes",
    "defibrillator:location": "Feuerwehrlokal Oberarth, links von Tor 1",
    "emergency": "defibrillator",
    "emergency:phone": "144",
    "indoor": "no",
    "opening_hours": "24/7",
    "operator": "Gemeinde Arth",
    "phone": "+41418590235",
    "id": "node/8841003820"
  },
  "geometry": {
    "type": "Point",
    "coordinates": [
      8.5413147,
      47.0527431
    ]
  }
},
{
  "type": "Feature",
  "id": "node/8846084117",
  "properties": {
    "access": "yes",
    "defibrillator:location": "An Brückenpfeiler vor Brücke zum UFZ",
    "description": "immer zugänglich",
    "emergency": "defibrillator",
    "emergency:phone": "144",
    "indoor": "no",
    "operator": "Kanton SZ",
    "id": "node/8846084117"
  },
  "geometry": {
    "type": "Point",
    "coordinates": [
      8.6279922,
      47.0188531
    ]
  }
},
{
  "type": "Feature",
  "id": "node/8888381817",
  "properties": {
    "access": "yes",
    "defibrillator:location": "Seestrasse 75, Kindergarten",
    "emergency": "defibrillator",
    "emergency:phone": "144",
    "indoor": "no",
    "opening_hours": "24/7",
    "id": "node/8888381817"
  },
  "geometry": {
    "type": "Point",
    "coordinates": [
      8.8888047,
      47.203358
    ]
  }
},
{
  "type": "Feature",
  "id": "node/8920604017",
  "properties": {
    "access": "yes",
    "defibrillator:location": "kassenhäuschen sportplatz",
    "emergency": "defibrillator",
    "emergency:phone": "144",
    "indoor": "no",
    "opening_hours": "24/7",
    "id": "node/8920604017"
  },
  "geometry": {
    "type": "Point",
    "coordinates": [
      8.6331308,
      47.0156784
    ]
  }
},
{
  "type": "Feature",
  "id": "node/8929320817",
  "properties": {
    "access": "yes",
    "defibrillator:location": "Diebishüttli",
    "description": "Eingang links",
    "emergency": "defibrillator",
    "emergency:phone": "144",
    "indoor": "no",
    "opening_hours": "24/7",
    "operator": "Gemeinde Altendorf",
    "id": "node/8929320817"
  },
  "geometry": {
    "type": "Point",
    "coordinates": [
      8.8293771,
      47.1617531
    ]
  }
},
{
  "type": "Feature",
  "id": "node/8940555667",
  "properties": {
    "defibrillator:location": "Gegenüber dem Haupteingang der Kirche",
    "emergency": "defibrillator",
    "emergency:phone": "144",
    "indoor": "no",
    "level": "0",
    "opening_hours": "24/7",
    "id": "node/8940555667"
  },
  "geometry": {
    "type": "Point",
    "coordinates": [
      8.778081,
      47.2002472
    ]
  }
},
{
  "type": "Feature",
  "id": "node/8979969617",
  "properties": {
    "access": "yes",
    "defibrillator:location": "beim Eingang Restaurant Alpenhof",
    "emergency": "defibrillator",
    "emergency:phone": "144",
    "indoor": "no",
    "opening_hours": "24/7",
    "operator": "Restaurant Alpenhof",
    "id": "node/8979969617"
  },
  "geometry": {
    "type": "Point",
    "coordinates": [
      8.4475237,
      47.0762507
    ]
  }
},
{
  "type": "Feature",
  "id": "node/8994063117",
  "properties": {
    "access": "yes",
    "defibrillator:location": "Gymnasium Immensee, Bethlehemweg 12",
    "description": "Im Eingang zum Gymnasium/Kapelle/beim Empfang des Gymnasiums",
    "emergency": "defibrillator",
    "emergency:phone": "144",
    "indoor": "yes",
    "opening_hours": "24/7",
    "operator": "Gymnasium Immensee",
    "phone": "+41418548181",
    "id": "node/8994063117"
  },
  "geometry": {
    "type": "Point",
    "coordinates": [
      8.4541548,
      47.0927865
    ]
  }
},
{
  "type": "Feature",
  "id": "node/8997566861",
  "properties": {
    "access": "yes",
    "defibrillator:location": "An der Seite von der Verteilstation TST1077 Immensee-Baumgarten, grüner Kasten mit SUSV-Kleber.",
    "description": "24h verfügbar",
    "emergency": "defibrillator",
    "emergency:phone": "144",
    "indoor": "no",
    "opening_hours": "24/7",
    "operator": "SUSV (Schweizer Unterwasser-Sport-Verband)/ Sandra Büchi",
    "phone": "+41 31 301 43 43",
    "id": "node/8997566861"
  },
  "geometry": {
    "type": "Point",
    "coordinates": [
      8.4756216,
      47.1057136
    ]
  }
},
{
  "type": "Feature",
  "id": "node/9061475498",
  "properties": {
    "defibrillator:location": "In der Eingangshalle der Bank Acrevis",
    "emergency": "defibrillator",
    "emergency:phone": "144",
    "indoor": "yes",
    "level": "0",
    "opening_hours": "Mo-Fr 09:00-12:00,14:00-16:00; PH,Sa,Su off",
    "wheelchair": "yes",
    "id": "node/9061475498"
  },
  "geometry": {
    "type": "Point",
    "coordinates": [
      8.8524285,
      47.1916812
    ]
  }
},
{
  "type": "Feature",
  "id": "node/9094232019",
  "properties": {
    "access": "yes",
    "defibrillator:location": "Haupteingang RuossTech AG",
    "description": "öffentlich zugänglich",
    "emergency": "defibrillator",
    "emergency:phone": "144",
    "indoor": "no",
    "operator": "Gemeinde Schübelbach",
    "id": "node/9094232019"
  },
  "geometry": {
    "type": "Point",
    "coordinates": [
      8.9069678,
      47.1759875
    ]
  }
},
{
  "type": "Feature",
  "id": "node/9113383211",
  "properties": {
    "access": "yes",
    "defibrillator:location": "Restaurant Grüne Gans links vor dem Haupteingang",
    "description": "während Öffnungszeiten verfügbar",
    "emergency": "defibrillator",
    "emergency:phone": "144",
    "indoor": "no",
    "opening_hours": "Mo-Su 09:00-17:00",
    "operator": "Natur und Tierpark Goldau",
    "phone": "+41 41 859 06 06",
    "id": "node/9113383211"
  },
  "geometry": {
    "type": "Point",
    "coordinates": [
      8.5570742,
      47.053058
    ]
  }
},
{
  "type": "Feature",
  "id": "node/9117239117",
  "properties": {
    "access": "no",
    "defibrillator:location": "Eingang Links",
    "description": "während Öffnungszeiten",
    "emergency": "defibrillator",
    "emergency:phone": "144",
    "indoor": "yes",
    "opening_hours": "Montag bis Freitag 07.15 - 18.15 Uhr",
    "operator": "A. Bruhin AG",
    "id": "node/9117239117"
  },
  "geometry": {
    "type": "Point",
    "coordinates": [
      8.8383913,
      47.1895931
    ]
  }
},
{
  "type": "Feature",
  "id": "node/9152057430",
  "properties": {
    "access": "yes",
    "defibrillator:location": "Eingang Halle 1-3 (Nordseite)",
    "description": "24h verfügbar",
    "emergency": "defibrillator",
    "emergency:phone": "144",
    "indoor": "no",
    "opening_hours": "24/7",
    "operator": "Gemeindeverwaltung Arth",
    "phone": "+41 41 859 02 02",
    "id": "node/9152057430"
  },
  "geometry": {
    "type": "Point",
    "coordinates": [
      8.5402903,
      47.0531229
    ]
  }
},
{
  "type": "Feature",
  "id": "node/9159456417",
  "properties": {
    "access": "yes",
    "defibrillator:location": "Parkplatz Ticketautomat",
    "emergency": "defibrillator",
    "emergency:phone": "144",
    "indoor": "no",
    "opening_hours": "24/7",
    "operator": "Gemeinde",
    "id": "node/9159456417"
  },
  "geometry": {
    "type": "Point",
    "coordinates": [
      8.8541984,
      47.1970744
    ]
  }
}
]
}
